name,lon,lat,category,road,suburb,city_district,town,city,state,postcode,country,operator,ref,public_transport,station,wheelchair,network
Jeti Sg Bilah,102.6715655,2.1771725,ferry_terminal,Jalan Sungai Bilah,,,Bukit Gambir,,Johor,"84800",Malaysia,,,,,,
KA07 Kepong Sentral,101.6285344,3.2087148,station,Jalan Mahogani SD 1/6,Bandar Sri Damansara,,,Petaling Jaya,Selangor,"52200",Malaysia,KTM,KA07,station,train,yes,
Kluang Airstrip,103.306972,2.0407503,aerodrome,Jalan Sejahtera,,,,Kluang,Johor,"86000",Malaysia,Malaysian Army Airwing,,,,,
,103.4438177,1.3256822,taxi,"95",,,Kukup,,Johor,"82300",Malaysia,,,,,,
Pulau Tioman (Jeti Genting),104.121236,2.7615287,ferry_terminal,Batu Permata,,,,Tioman,Pahang,,Malaysia,,,station,,,
Pulau Tioman (Tekek),104.1568802,2.8202774,ferry_terminal,Jeti Penumpang Kampung Tekek,,,Kampung Tekek,Tioman,Pahang,,Malaysia,,,station,,,
,102.5051592,2.12298,bus_station,Lebuh AMJ,,,,,Johor,"77400",Malaysia,,,station,,,
Jeti Tg Selabu,102.6006766,2.1491007,ferry_terminal,,,,,,Johor,"84410",Malaysia,,,,,,
Jeti Sabak Awor,102.5611611,2.0703571,pier,Jalan Ayu 1/1,,,,Muar,Johor,"84000",Malaysia,,,,,,
Jeti Sg Rambai,102.6656539,2.1754324,ferry_terminal,Jalan Sungai Rambai,,,Bukit Gambir,,Johor,"84800",Malaysia,,,,,,
Jeti Ke Pulau Besar,102.3363656,2.1566059,pier,Jalan Melaka - Muar,,,,Bandaraya Melaka,Melaka,"75450",Malaysia,,,,,,
,115.2409986,5.2782849,taxi,Jalan Bunga Raya,,,,Bandar Victoria,Labuan,"87009",Malaysia,,,,,,
Jeti Kg Brohol,102.7350552,2.1806695,pier,Jalan Kampung Brohol,,,,,Johor,"84600",Malaysia,,,,,,
Jeti Lanadron,102.734793,2.1806657,pier,Jalan Kampung Brohol,,,,,Johor,"84600",Malaysia,,,,,,
Jeti Pekan Panchor,102.712603,2.1731979,pier,Jalan Abdullah,,,,,Johor,"84500",Malaysia,,,,,,
Jeti Panchor,102.7110255,2.1730702,pier,Jalan Abdullah,,,,,Johor,"84500",Malaysia,,,,,,
Kempas Baru,103.7234005,1.5356045,station,Jalan Permatang 9,,,,Johor Bahru,Johor,"81200",Malaysia,KTM,,station,train,yes,
Jeti Parit Simen,102.8286064,1.8549356,pier,,,,,,Johor,,Malaysia,,,,,,
Jeti Batu 12,101.8848174,2.4185197,pier,Lorong Seri Pelandok 4,Teluk Pelanduk,,,,Negeri Sembilan,"71050",Malaysia,,,,,,
Jeti Nelayan Jeram,101.3050321,3.2256024,pier,Jalan Jati,,,,,Selangor,"45000",Malaysia,,,,,,
Jeti Liang Batu,102.7732681,2.2345811,ferry_terminal,,,,,,Johor,"84040",Malaysia,,,station,,,
,104.061358,2.2315123,ferry_terminal,,,,,,Johor,,Malaysia,,,station,,,
,104.1582459,2.8415597,ferry_terminal,Ferry Pier,,,Kampung Tekek,Tioman,Pahang,,Malaysia,,,station,,,
Bukit Panau,102.157294,5.8911162,station,D190,,,,,Kelantan,"17060",Malaysia,Keretapi Tanah Melayu,,station,,,KTM Intercity
Pasir Mas,102.1423693,6.0427091,station,Jalan JKR,,,Pasir Mas,,Kelantan,"17000",Malaysia,Keretapi Tanah Melayu,,station,train,yes,KTM Intercity
Jeti Pulau Pangkor,100.577419,4.2132142,ferry_terminal,A205,,,,,Perak,"32300",Malaysia,,,stop_position,,,
,100.5760794,4.2264019,ferry_terminal,A205,,,,,Perak,"32300",Malaysia,,,station,,,
Jerantut,102.3577594,3.9370934,station,Jalan Besar,,,Jerantut,,Pahang,,Malaysia,Keretapi Tanah Melayu,,station,,yes,KTM Intercity
Lower Station,100.2770747,5.4087656,station,Temple Road,Mukim 16,,,George Town,Pulau Pinang,"11060",Malaysia,,,station,,limited,
Awana Pier,99.7358808,6.2595982,ferry_terminal,Jalan Pantai Tengah,,,,,Kedah,,Malaysia,Star Cruise,,station,,,
,100.363727,5.3947201,ferry_terminal,From George Town,Bagan Dalam,,,Bandar Butterworth,Pulau Pinang,"12100",Malaysia,,,stop_position,,,
Terminal KOMTAR,100.3305863,5.4141006,bus_station,Lane 3,Central George Town,,,George Town,Pulau Pinang,"10000",Malaysia,Rapid Bus,,station,,,Rapid Penang
,100.3439786,5.4132875,ferry_terminal,Motorcylcle lane,Central George Town,,,George Town,Pulau Pinang,"10300",Malaysia,,,stop_position,,,
Langkawi,99.8491817,6.3057919,ferry_terminal,Jalan Dato Syed Omar,,,Kuah,,Kedah,,Malaysia,,,station,,,
Pangkalan Haji Omar,110.3487631,1.5581431,pier,Jalan Main Bazaar,,,,Kuching,Sarawak,"93000",Malaysia,,,,,,
Feri Batang Saribas,111.277195,1.6260888,ferry_terminal,,,,Pusa,,Sarawak,,Malaysia,,,station,,,
Jeti Pulau Besar,103.9770938,2.4307612,ferry_terminal,Batu Batu Resort,,,,,Johor,,Malaysia,,,station,,,
,102.3161552,4.0700143,ferry_terminal,"234",,,,,Pahang,"27010",Malaysia,,,station,,,
Kampung Seberang Takir Hulu,103.1355482,5.3458315,ferry_terminal,Jalan Pak Ngah Mat,,,,,Terengganu,"20000",Malaysia,,,station,,,
KL Sentral,101.6862421,3.135038,taxi,Jalan Stesen Sentral,,,,Kuala Lumpur,Kuala Lumpur,"50566",Malaysia,,,,,,
,104.0664026,2.2262149,ferry_terminal,,,,,,Johor,,Malaysia,,,station,,,
Marak Parak Airport,116.7297211,6.312222,aerodrome,Jalan Sorinsim,,,,,Sabah,,Malaysia,,,,,,
Lapangan Terbang Kapit,112.9317606,2.0102839,aerodrome,Jalan Airport,,,,Kapit,Sarawak,"96800",Malaysia,,,,,,
Kota Belud Airport,116.4710007,6.36516,aerodrome,Jalan Botong Rosok,,,,,Sabah,"89158",Malaysia,,,,,,
Lapangan Terbang Keningau,116.1650289,5.3554763,aerodrome,Jalan Liawan Airport,,,,Keningau,Sabah,"89007",Malaysia,Malaysia Airports Holdings Berhad,,,,,
Sahabat Airport,119.0940018,5.08778,aerodrome,,,,Bandar Sahabat,,Sabah,,Malaysia,,,,,,
Ranau Airport,116.6793387,5.9559637,aerodrome,Jalan Kampung SInarut,,,,,Sabah,"89307",Malaysia,Malaysia Airports,,,,,
Dungun Airport,103.3820038,4.7862902,aerodrome,T114,,,,Dungun,Terengganu,"23000",Malaysia,,,,,,
Segamat Airport,102.8399233,2.498033,aerodrome,Jalan Anggerik,,,,Segamat,Johor,"85000",Malaysia,,,,,,
Ulu Bernam Airport,101.1693187,3.7387129,aerodrome,Jalan Sabak Bernam - Hulu Selangor,,,,,Selangor,,Malaysia,,,,,,
Taxi Boats Around Islands,102.7299312,5.8956946,taxi,Jungle Trekking,,,,,Terengganu,,Malaysia,,,,,,
,102.5584017,5.8306257,ferry_terminal,Lorong Tujuh,,,Kuala Besut,,Terengganu,"22300",Malaysia,,,station,,,
Jeti Mutiara Taman Negara,102.4006847,4.3845519,ferry_terminal,FT1508,,,,,Pahang,,Malaysia,,,,,,
,102.3159087,4.0699878,ferry_terminal,"234",,,,,Pahang,"27010",Malaysia,,,station,,,
Kuala Litut,114.8375461,4.0963649,ferry_terminal,Clearwater Picnic Ground,,,Mulu,,Sarawak,"98008",Malaysia,,,,,,
,100.2076118,5.4624644,ferry_terminal,Jalan Hassan Abas,,,,George Town,Pulau Pinang,"11050",Malaysia,,,station,,,
,114.4003303,3.7722858,ferry_terminal,Long Lama - Long Bedian,,,Long Lama,,Sarawak,"98300",Malaysia,,,,,,
,114.4009714,3.7710128,ferry_terminal,,,,Long Lama,,Sarawak,"98300",Malaysia,,,,,,
,104.1556467,2.849098,ferry_terminal,Air Batang,,,,Tioman,Pahang,,Malaysia,,,station,,,
Pulau Marina,100.6007728,4.2124852,ferry_terminal,Jalan Jetty Complex,,,Lumut,,Perak,"32200",Malaysia,,,station,,,
Muar Jetty,102.5526691,2.0500769,ferry_terminal,Jalan Petrie,,,,Muar,Johor,"84000",Malaysia,,,station,,,
KB07 UKM,101.7877867,2.9395784,station,Persiaran KWSP,,,,Majlis Perbandaran Kajang,Selangor,"43600",Malaysia,Keretapi Tanah Melayu,KB07,station,train,yes,KTM Komuter
B,101.7113737,3.1459286,subway_entrance,Jalan Sultan Ismail,Bukit Bintang,,,Kuala Lumpur,Kuala Lumpur,"55100",Malaysia,,B,,,,
,101.7115704,3.144895,taxi,Jalan Sultan Ismail,Bukit Bintang,,,Kuala Lumpur,Kuala Lumpur,"50200",Malaysia,,,,,,
,101.6762105,3.1164786,taxi,Medan Syed Putra Selatan,Seputeh,,,Kuala Lumpur,Kuala Lumpur,"50614",Malaysia,,,,,,
,113.7622366,3.8229944,ferry_terminal,Ke Batu Guano,,,Batu Niah,,Sarawak,,Malaysia,,,station,,,
Pengkalan Lobang,113.7623353,3.8234054,ferry_terminal,Ke Batu Guano,,,Batu Niah,,Sarawak,,Malaysia,,,station,,,
,113.7807225,3.7359402,bus_station,Jalan Ngu,,,,,Sarawak,,Malaysia,,,,,,
,113.7781147,3.7349021,bus_station,Jalan Ngu,,,,,Sarawak,,Malaysia,,,station,,,
Gua Musang,101.9667704,4.8789038,station,Jalan Kota Bharu – Gua Musang,,,Gua Musang,,Kelantan,"18300",Malaysia,Keretapi Tanah Melayu,,station,,yes,KTM Intercity
Terminal Bas Tampin,102.2302564,2.4665236,bus_station,Lorong 1,,,Pulau Sebang,,Melaka,"73000",Malaysia,,,station,,,
,115.6001133,5.5687113,ferry_terminal,Jalan Feri Lama,,,Kuala Penyu,,Sabah,"89740",Malaysia,,,,,,
,115.5985137,5.5697705,ferry_terminal,,,,Kuala Penyu,,Sabah,"89740",Malaysia,,,,,,
Membakut,115.7967816,5.4726704,station,Jalan Membakut Lama,,,Membakut,,Sabah,,Malaysia,SSR,,station,train,yes,
Putatan,116.0488595,5.8936708,station,Jalan Putatan,,,Putatan,,Sabah,"88220",Malaysia,SSR,,station,train,yes,
B,101.6049325,3.1132076,subway_entrance,Jalan SS 25/2,SS 25,,,Petaling Jaya,Selangor,"47301",Malaysia,,,,,,
Johor Bahru Sentral,103.7646343,1.4629737,station,JB Sentral,,,,Johor Bahru,Johor,"80730",Malaysia,KTM,,station,train,yes,"KTM Intercity;Tebrau Shuttle"
,111.7181548,2.8050829,ferry_terminal,Jalan Igan-Matu,,,Igan,,Sarawak,,Malaysia,,,,,,
,115.7969961,5.3049738,halt,,,,,,Sabah,,Malaysia,,,stop_position,,,
,115.7950683,5.3077904,halt,,,,,,Sabah,,Malaysia,,,stop_position,,,
,115.7919411,5.3150943,halt,,,,Beaufort,,Sabah,"89807",Malaysia,,,stop_position,,,
,115.753928,5.3394743,halt,Jalan Montenior,Beaufort Jaya,,Beaufort,,Sabah,"89808",Malaysia,,,stop_position,,,
,115.7713526,5.3437664,halt,,,,Beaufort,,Sabah,"89807",Malaysia,,,stop_position,,,
Taxi Station,101.5947203,3.061681,taxi,Jalan Subang 1,UEP Subang Jaya,,,Majlis Bandaraya Subang Jaya,Selangor,"47500",Malaysia,,,,,,
,101.7207402,2.73961,taxi,Jalan KLIA S3,,,,Sepang,Selangor,"64000",Malaysia,,,,,,
,101.7042039,2.7547416,taxi,KLIA Departure,,,,Sepang,Selangor,"64000",Malaysia,,,,,,
,101.9722351,6.0188864,bus_station,Jalan Besar,,,Rantau Panjang,,Kelantan,"17200",Malaysia,,,station,,,
Hentian Bandar Utama,101.613241,3.1514356,bus_station,Central Park Avenue,Bandar Utama,,,Petaling Jaya,Selangor,"47800",Malaysia,Rapid Bus,PJ530,platform,,yes,"Rapid KL Bus;PJ City Bus"
Wakaf Bharu,102.2006487,6.11843,station,Jalan Stesen,,,Wakaf Bharu,,Kelantan,"16250",Malaysia,Keretapi Tanah Melayu,,station,,yes,KTM Intercity
Jeti Pulau Redang,103.0033451,5.7556172,ferry_terminal,,,,,,,,Malaysia,,,station,,,
Pulau Redang (Jeti Laguna),103.0311168,5.7673975,ferry_terminal,,,,,,,,Malaysia,,,station,,,
,103.3254759,3.8038931,taxi,Jalan Mahkota,,,,Kuantan,Pahang,"25100",Malaysia,,,,,,
,100.1823512,5.4512046,ferry_terminal,Connector Trail,,,,George Town,Pulau Pinang,"11050",Malaysia,,,stop_position,,,
,100.2002744,5.4684033,ferry_terminal,Canopy Walkway,,,,George Town,Pulau Pinang,"11050",Malaysia,,,stop_position,,,
Terminal Bas Slim River,101.4046473,3.8281827,bus_station,Jalan Pasar,,,Slim River,,Perak,"35800",Malaysia,,,station,,,
Jeti Kuala Kedah,100.2899223,6.1073754,ferry_terminal,Jalan Kuala Kedah,,,Kuala Kedah,,Kedah,"06600",Malaysia,,,station,,,
Kuala Perlis,100.1275336,6.3982232,ferry_terminal,Jalan Kuala Perlis – Changlun,,,Kuala Perlis,,Perlis,"02000",Malaysia,,,station,,,
KB17 Pulau Sebang/Tampin,102.2262731,2.4638765,station,Jalan Stesyen Keretapi,,,Pulau Sebang,,Melaka,"73000",Malaysia,KTM,KB17,station,train,yes,
Kuah Taxi Stand,99.8490514,6.3224423,taxi,Jalan Pandak Mayah 1,,,Kuah,,Kedah,,Malaysia,,,,,,
,109.6479931,2.0773468,ferry_terminal,Track To Tanjung Datu Lighthouse,,,,,Sarawak,,Malaysia,,,station,,,
,101.7908956,2.983656,taxi,Jalan Bukit,,,,Majlis Perbandaran Kajang,Selangor,"43000",Malaysia,,,,,,
,104.0886394,1.3708355,ferry_terminal,J52,,,,,Johor,,Malaysia,,,station,,,
Kuala Lipis,102.0537253,4.1865285,station,Jalan Pekeliling,,,Kuala Lipis,,Pahang,,Malaysia,Keretapi Tanah Melayu,,station,train,yes,KTM Intercity
Tanjung Leman,104.0050075,2.1523459,ferry_terminal,,,,,,Johor,,Malaysia,,,station,,,
,104.062318,2.2170229,ferry_terminal,,,,,,Johor,,Malaysia,,,station,,,
Sri Maju Bus Station,101.0824394,4.5897594,bus_station,Jalan C.M. Yusuf,,,,Majlis Bandaraya Ipoh,Perak,"30000",Malaysia,,,station,,,
Jeti Kuala Tahan,102.4012289,4.3836474,ferry_terminal,FT1508,,,,,Pahang,,Malaysia,,,,,,
Viaduct Station,100.2711487,5.4210223,halt,Viaduct to Claremont,,,,George Town,Pulau Pinang,"11300",Malaysia,,,stop_position,,,
Middle Station,100.2738248,5.4157917,station,Middle to Air Itam,,,,George Town,Pulau Pinang,"11300",Malaysia,,,station,,,
Jetty Mersing,103.8388105,2.4345868,ferry_terminal,Jalan Abu Bakar,,,Mersing,,Johor,"86807",Malaysia,,,station,,,
,104.1522993,2.8762196,ferry_terminal,Air Batang,,,,Tioman,Pahang,,Malaysia,,,,,,
,104.1784539,2.7179508,ferry_terminal,"Jeti Penumpang Mukut, Pulau Tioman",,,,,,,Malaysia,,,station,,,
KL Sentral,101.6868577,3.133679,bus_station,Jalan Stesen Sentral,,,,Kuala Lumpur,Kuala Lumpur,"50470",Malaysia,"Skybus;Aerobus","to KLIA, LCCT, Genting, Penang",station,,,
,101.6534609,3.0531212,taxi,Lebuhraya Bukit Jalil,Bandar Kinrara,,,Majlis Bandaraya Subang Jaya,Selangor,"47180",Malaysia,,,,,,
,102.2500588,2.2221229,taxi,Lingkaran Melaka Sentral,,,,Bandaraya Melaka,Melaka,"75400",Malaysia,,,,,,
Pangkalan Boyan-Gersik,110.3513684,1.558582,pier,Jalan Tunku Abdul Rahman,,,,Kuching,Sarawak,"93000",Malaysia,,,,,,
Taxi Stand,101.6993026,3.1716837,taxi,Jalan Pahang,Sentul,,,Kuala Lumpur,Kuala Lumpur,"50586",Malaysia,,,,,,
,115.2404186,5.2770883,ferry_terminal,纳闽码头,,,,Bandar Victoria,Labuan,"87009",Malaysia,,,station,,,
Pelabuhan Klang,101.3884665,2.9986856,ferry_terminal,Jalan Syahbandar,,,Pelabuhan Klang,Bandaraya Klang,Selangor,"42009",Malaysia,,,station,,,
Jesselton Point Waterfront,116.0792234,5.9898488,ferry_terminal,Jalan Haji Saman,,,,Kota Kinabalu,Sabah,"88300",Malaysia,,,station,,,
,116.3490195,6.3842997,ferry_terminal,Jalan Kuala Abai,,,,,Sabah,,Malaysia,,,station,,,
Terminal Feri Kukup,103.4411067,1.324836,ferry_terminal,"95",,,Kukup,,Johor,"82300",Malaysia,,,stop_position,,,
Semporna Port,118.6141791,4.4787369,ferry_terminal,Jalan Causeway,,,Semporna,,Sabah,"91300",Malaysia,,,station,,,
Semporna Bus Terminal,118.6092049,4.4807615,bus_station,Jalan Hospital,,,Semporna,,Sabah,"91300",Malaysia,,,station,,,
,101.6054782,3.1131442,taxi,Jalan SS 25/2,SS 25,,,Petaling Jaya,Selangor,"47301",Malaysia,,,,,,
Mini Bus Station,118.1155018,5.8378932,bus_station,Lebuh Dua,Bandar Sandakan,,,Sandakan,Sabah,"90008",Malaysia,,,station,,,
Malacca International Ferry Terminal,102.2449633,2.1914619,ferry_terminal,Jalan Kota Laksamana 1/1,,,,Bandaraya Melaka,Melaka,"75200",Malaysia,,,station,,,
,118.6320991,4.2489003,ferry_terminal,Sipadan Water Village Jetty,,,,,Sabah,,Malaysia,,,station,,,
Terminal Pontian,103.3882441,1.479333,bus_station,Jalan Delima,Pontian Kecil,,,Pontian,Johor,,Malaysia,,,station,,,
Tasek,101.1202656,4.6527989,station,Lebuh Perusahaan Kelebang 1,Tasek,,,Majlis Bandaraya Ipoh,Perak,"30620",Malaysia,KTM,,station,train,yes,
Taxi Stand,110.3424206,1.5602855,taxi,Lebuh Jawa,,,,Kuching,Sarawak,"93000",Malaysia,,,,,,
A,101.644077,3.0506498,subway_entrance,Lebuhraya Bukit Jalil,Bandar Kinrara,,,Majlis Bandaraya Subang Jaya,Selangor,"47180",Malaysia,,,,,,
,101.7347581,3.102111,taxi,Jalan Lanchang,Cheras,,,Kuala Lumpur,Kuala Lumpur,"56100",Malaysia,,,,,,
Pulau Sibu Tengah,104.0971273,2.182697,ferry_terminal,,,,,,Johor,,Malaysia,,,station,,,
Terminal Bas Pasir Gudang,103.9011473,1.4660048,bus_station,Jalan Mawar Biru,,,,Pasir Gudang,Johor,"81700",Malaysia,,,station,,,
Kuching,110.3979457,1.5550205,ferry_terminal,Kuching Isthmus Underpass,,,,,Sarawak,"93450",Malaysia,,,station,,,
Feri Kaba Krian,111.1909951,1.7349388,ferry_terminal,Q557,,,,,Sarawak,,Malaysia,,,station,,,
,111.4268671,2.366982,ferry_terminal,,Tanjung Manis,,,,Sarawak,,Malaysia,,,station,,,
,111.4169368,2.371439,ferry_terminal,,,,Daro,,Sarawak,,Malaysia,,,station,,,
,111.4019506,2.5733711,ferry_terminal,,,,Daro,,Sarawak,,Malaysia,,,station,,,
,111.7912701,2.2439226,ferry_terminal,,,,,Sibu,Sarawak,"96000",Malaysia,,,station,,,
,111.7866732,2.2421713,ferry_terminal,Jalan Sungai Maaw,,,,Sibu,Sarawak,,Malaysia,,,station,,,
,102.3995048,4.3847177,ferry_terminal,FT1508,,,,,Pahang,,Malaysia,,,,,,
,111.7217118,2.8145561,ferry_terminal,,,,Igan,,Sarawak,,Malaysia,,,,,,
,115.9330163,5.7346168,taxi,Jalan Chan Fook,,,Papar,,Sabah,"89608",Malaysia,,,,,,
,110.1220286,1.6621127,ferry_terminal,,,,,,Sarawak,,Malaysia,,,,,,
,110.1230577,1.6643183,ferry_terminal,,,,,,Sarawak,,Malaysia,,,,,,
KB02 Seputeh,101.68142,3.1136874,station,Jalan Sungai 2,Seputeh,,,Kuala Lumpur,Kuala Lumpur,"50614",Malaysia,KTM,KB02,station,train,yes,
,100.4780113,5.8180109,taxi,Jalan Butterworth-Alor Setar,,,Gurun,,Kedah,"08300",Malaysia,,,,,,
,100.4602765,5.8528701,bus_station,Jalan Butterworth-Alor Setar,,,Guar Chempedak,,Kedah,"08800",Malaysia,,,,,,
,100.4565977,5.8592169,bus_station,Jalan Butterworth-Alor Setar,,,Guar Chempedak,,Kedah,"08800",Malaysia,,,,,,
Terminal Bas Ekspress Johor Jaya,103.7989071,1.5426558,bus_station,Jalan Dedap 25,Taman Johor Jaya,,Plentong,,Johor,"81800",Malaysia,,,station,,,
Stesen Bas Sungai Petani,100.4908446,5.6405643,bus_station,Jalan Kuala Ketil,Kampung Baru,,,Sungai Petani,Kedah,"08000",Malaysia,,,station,,yes,
,100.6333904,4.8436448,ferry_terminal,Jalan Simpang,Kuala Sepetang,,,Taiping,Perak,,Malaysia,,,,,,
,103.6211155,1.60316,taxi,Persiaran Indahpura,Bandar Indahpura,,,Kulai,Johor,"81000",Malaysia,,,,,,
Batu Bungan,114.8190323,4.0533377,ferry_terminal,,,,,,Sarawak,"98008",Malaysia,,,,,,
Tumpat,102.1675285,6.1989356,station,Jalan Stesen,,,Tumpat,,Kelantan,"16200",Malaysia,Keretapi Tanah Melayu,,station,,yes,KTM Intercity
To' Uban,102.1439481,5.9658046,station,Jalan Kampung Sila,,,,,Kelantan,"17040",Malaysia,Keretapi Tanah Melayu,,station,,,KTM Intercity
Tanah Merah,102.1466829,5.8059634,station,Jalan Tasek,,,Tanah Merah,,Kelantan,"17500",Malaysia,Keretapi Tanah Melayu,,station,,yes,KTM Intercity
Temangan,102.1518586,5.7026386,station,D215,,,,,Kelantan,,Malaysia,Keretapi Tanah Melayu,,station,,yes,KTM Intercity
Sungai Nal,102.1795515,5.5893251,station,D222,,,,,Kelantan,,Malaysia,Keretapi Tanah Melayu,,station,,,KTM Intercity
Kuala Krai,102.2029412,5.5298891,station,Jalan Kota Bharu – Gua Musang,,,Kuala Krai,,Kelantan,,Malaysia,Keretapi Tanah Melayu,,station,,yes,KTM Intercity
Pahi,102.2226742,5.4714624,station,Jalan Kota Bharu – Gua Musang,,,,,Kelantan,,Malaysia,Keretapi Tanah Melayu,,station,,,KTM Intercity
Manek Urai,102.2322295,5.3911386,station,Jalan Kota Bharu – Gua Musang,,,,,Kelantan,,Malaysia,Keretapi Tanah Melayu,,station,,,KTM Intercity
Kampung Baru Sungai Mengkuang,102.2034004,5.330254,station,D66,,,,,Kelantan,"18000",Malaysia,Keretapi Tanah Melayu,,station,,,KTM Intercity
Dabong,102.0100459,5.3767149,station,"66",,,,,Kelantan,"18200",Malaysia,Keretapi Tanah Melayu,,station,train,yes,KTM Intercity
Kemubu,102.0199972,5.300114,station,D233,,,,,Kelantan,,Malaysia,Keretapi Tanah Melayu,,station,,yes,KTM Intercity
Sri Mahligai,102.0096379,5.2483381,station,D233,,,,,Kelantan,,Malaysia,Keretapi Tanah Melayu,,station,,,KTM Intercity
Sungai Tasin,102.0124795,5.2133761,station,D233,,,,,Kelantan,,Malaysia,Keretapi Tanah Melayu,,station,,,KTM Intercity
Jerek Baru,102.0099773,5.1737721,station,D234,,,,,Kelantan,,Malaysia,Keretapi Tanah Melayu,,station,,,KTM Intercity
Bertam,102.0438523,5.1516284,station,D235,,,,,Kelantan,,Malaysia,Keretapi Tanah Melayu,,station,,,KTM Intercity
Sungai Serian,102.0504102,5.0338183,station,D237,,,,,Kelantan,,Malaysia,Keretapi Tanah Melayu,,station,,,KTM Intercity
Kampung Sungai Serian,102.0390895,5.0247805,station,D237,,,,,Kelantan,,Malaysia,Keretapi Tanah Melayu,,station,,,KTM Intercity
Pan Malayan,102.0101964,4.9619708,station,Jalan Kota Bharu – Gua Musang,,,,,Kelantan,,Malaysia,Keretapi Tanah Melayu,,station,,,KTM Intercity
Lepan Tupai,102.0125097,4.7881934,station,"8",,,,,Kelantan,,Malaysia,Keretapi Tanah Melayu,,station,,,KTM Intercity
Merapoh,102.003219,4.6931803,station,"8",,,,,Pahang,,Malaysia,Keretapi Tanah Melayu,,station,,yes,KTM Intercity
Kubang Rusa,101.9845376,4.6010046,station,"8",,,,,Pahang,,Malaysia,Keretapi Tanah Melayu,,station,,,KTM Intercity
Sungai Temau,101.9447127,4.4898674,halt,"8",,,,,Pahang,,Malaysia,KTM,,station,,,KTM Intercity
Padang Tengku,101.9899092,4.2328127,station,"8",,,,,Pahang,"27100",Malaysia,Keretapi Tanah Melayu,,station,,yes,KTM Intercity
Kerambit,102.1994151,4.1171933,station,"234",,,,,Pahang,,Malaysia,Keretapi Tanah Melayu,,station,train,yes,KTM Intercity
Mela,102.2715784,4.0753179,station,"234",,,,,Pahang,"27010",Malaysia,Keretapi Tanah Melayu,,station,,,KTM Intercity
Kuala Krau,102.366999,3.7096171,station,Jalan Temerloh - Jerantut,,,Kuala Krau,,Pahang,"28050",Malaysia,Keretapi Tanah Melayu,,station,,yes,KTM Intercity
Kerdau,102.3684929,3.5746089,halt,C137,,,,,Pahang,"28010",Malaysia,Keretapi Tanah Melayu,,halt,,,KTM Intercity
Mengkarak,102.4203073,3.3311733,station,Jalan Mengkarak,,,,,Pahang,,Malaysia,Keretapi Tanah Melayu,,station,train,yes,KTM Intercity
Triang,102.4112799,3.2461824,station,Jalan Kampung Belakang Masjid,,,Bandar Triang,,Pahang,"28200",Malaysia,Keretapi Tanah Melayu,,station,train,yes,KTM Intercity
Bahau,102.4038783,2.8113418,station,"11",,,Bahau,,Negeri Sembilan,"72100",Malaysia,KTM,,station,,yes,
,114.0125002,4.4154791,taxi,Jalan Boulevard Utama,Krokop,,,,Sarawak,"98000",Malaysia,,,,,,
Hab Lebuh Pudu (TP),101.6986534,3.1467318,bus_station,Jalan Tun Perak,Bukit Bintang,,,Kuala Lumpur,Kuala Lumpur,"50050",Malaysia,"Rapid Bus;MARA Liner",KL113,station,,limited,Rapid KL Bus
C,101.6991821,3.1385646,subway_entrance,Jalan Maharajalela,Bukit Bintang,,,Kuala Lumpur,Kuala Lumpur,"50118",Malaysia,,C,,,,
,101.7161427,3.1287493,subway_entrance,Jalan Chan Sow Lin,Pudu,,,Kuala Lumpur,Kuala Lumpur,"55200",Malaysia,,,,,,
Batu 5 Gombak,101.7117465,3.2132158,taxi,Jalan Gombak,,,,Kuala Lumpur,Kuala Lumpur,"53100",Malaysia,,,,,,
Limbang Wet Market Taxi Stand,115.0094853,4.75356,taxi,Lorong Limbang Town Park 2,,,,Limbang,Sarawak,"98708",Malaysia,,,,,,
LRT Titiwangsa,101.6957096,3.1729554,taxi,Jalan Tun Razak,Sentul,,,Kuala Lumpur,Kuala Lumpur,"50400",Malaysia,,,,,,
Sibu,111.8296804,2.2853172,ferry_terminal,Jalan Maju,,,,Sibu,Sarawak,"96000",Malaysia,,,station,,,
,110.4308858,1.6636983,ferry_terminal,Jalan Haruan,,,,,Sarawak,,Malaysia,,,station,,,
,100.3910771,5.2696047,ferry_terminal,Pengkalan Cassia,,,Batu Kawan,,Pulau Pinang,"14110",Malaysia,,,station,,,
,100.3920022,5.2688063,ferry_terminal,Pengkalan Cassia,,,Batu Kawan,,Pulau Pinang,"14110",Malaysia,,,station,,,
Song,112.5507083,2.011267,ferry_terminal,Mission Road,,,Song,,Sarawak,"96850",Malaysia,,,station,,,
Mentakab,102.3433873,3.4844251,station,Jalan Tun Razak,,,Mentakab,,Pahang,"28400",Malaysia,Keretapi Tanah Melayu,,station,,yes,KTM Intercity
,101.5658574,3.2087962,taxi,Jalan Kuala Selangor-Kepong,,,Sungai Buloh,Shah Alam,Selangor,"47000",Malaysia,,,,,,
,101.5639771,3.208357,taxi,Jalan Kepong - Kuala Selangor,,,Sungai Buloh,Shah Alam,Selangor,"47000",Malaysia,,,,,,
,101.6809206,2.9030328,taxi,Lingkaran Gemilang 2,,,,Putrajaya,Putrajaya,"62100",Malaysia,,,,,,
Jeti Rebak,99.7181961,6.3394857,pier,Jalan Kuala Muda,,,,,Kedah,"07100",Malaysia,,,,,,
KLIA Terminal 1 (Main Building),101.7056607,2.7525893,station,KLIA Departure,,,,Sepang,Selangor,"64000",Malaysia,,,station,,yes,KLIA Aerotrain
KLIA Terminal 1 (Satellite Building),101.7128047,2.7474325,station,KLIA Departure,,,,Sepang,Selangor,"64000",Malaysia,,,station,,yes,KLIA Aerotrain
Terminal Bas dan Teksi Tun Sri Lanang,103.9021573,1.7292818,bus_station,Jalan Niaga 3,,,Kota Tinggi,,Johor,,Malaysia,,,station,,,
Kota Tinggi Taxi Station,103.9026045,1.7292859,taxi,Jalan Niaga,,,Kota Tinggi,,Johor,,Malaysia,,,,,,
Pulau Lang Tengah (Jeti D'Coconut Lagoon Resort),102.8998192,5.7889141,ferry_terminal,,,,,,,,Malaysia,,,,,,
Jeti Merang,102.9465391,5.5336944,ferry_terminal,Jalan Tengku Ampuan Intan Zaharah,,,Merang,,Terengganu,,Malaysia,,,station,,,
Taxi Mawar,103.6342508,1.5586414,taxi,Jalan Iman,,,,Iskandar Puteri,Johor,"81310",Malaysia,,,,,,
,115.2502547,5.2760447,taxi,Jalan Merdeka,,,,Bandar Victoria,Labuan,"87008",Malaysia,,,,,,
,115.4456152,4.9390175,ferry_terminal,Jalan Feri Kuala Lawas-Merapok,,,,,Sarawak,"98850",Malaysia,,,station,,,
,115.4462683,4.9405477,ferry_terminal,Jalan Merapok-Feri Kuala Lawas,,,,,Sarawak,,Malaysia,,,station,,,
Feri Seberang Kedai,115.0021165,4.7618687,ferry_terminal,Jalan Gadong-Pendam,,,,Limbang,Sarawak,"98708",Malaysia,,,station,,,
,103.1374064,5.3322527,taxi,Platform A,,,,Kuala Terengganu,Terengganu,"20100",Malaysia,,,,,,
,110.5017742,1.4596935,ferry_terminal,,,,,Kota Samarahan,Sarawak,,Malaysia,,,,,,
Bertam Baru,102.0456629,5.1434742,station,D233,,,,,Kelantan,,Malaysia,Keretapi Tanah Melayu,,station,,,KTM Intercity
Limau Kasturi,102.0694226,5.0794378,station,D237,,,,,Kelantan,,Malaysia,Keretapi Tanah Melayu,,station,,yes,KTM Intercity
Pangi,115.86617,5.1400224,station,,,,,,Sabah,,Malaysia,SSR,,station,train,yes,
,115.8811003,5.1918674,halt,,,,,,Sabah,,Malaysia,,,stop_position,,,
Beaufort,115.7446214,5.3438284,station,Jalan Tapak Stesen Kereta Api,Beaufort Jaya,,Beaufort,,Sabah,"89808",Malaysia,SSR,,station,train,yes,
Rayoh,115.8804979,5.2086633,station,,,,,,Sabah,,Malaysia,SSR,,station,train,yes,
Saliwangan,115.8029528,5.2737121,station,,,,,,Sabah,,Malaysia,SSR,,station,train,yes,
,101.7127175,3.1587619,subway_entrance,Persiaran Petronas,Bukit Bintang,,,Kuala Lumpur,Kuala Lumpur,"50088",Malaysia,,,,,no,
,101.7125072,3.1588091,subway_entrance,Persiaran Petronas,Bukit Bintang,,,Kuala Lumpur,Kuala Lumpur,"50088",Malaysia,,,,,no,
Padang Besar,100.3201982,6.6626841,station,Jejantas Pejalan Kaki KTM Padang Besar - Kompleks ICQS Padang Besar,,,Padang Besar,,Perlis,"02100",Malaysia,KTM,,station,train,,"KTM Intercity;KTM ETS"
Firefly tour boat jetty,100.4763304,5.1638249,ferry_terminal,Jalan Pasar Lama,,,Nibong Tebal,,Pulau Pinang,"14300",Malaysia,,,station,,,
Pelabuhan Kudat,116.8457363,6.8796603,ferry_terminal,Jalan Pasar,,,,Kudat,Sabah,"89058",Malaysia,,,station,,,
Tanah Rata Taxi Terminal,101.3791501,4.4705681,taxi,Jalan Tapah - Cameron Highlands,,,Brinchang,,Pahang,"39000",Malaysia,,,,,,
,99.7297444,6.2867103,taxi,Jalan Pantai Chenang,,,,,Kedah,"07100",Malaysia,,,,,,
,99.7238391,6.2958275,taxi,Jalan Pantai Chenang,,,,,Kedah,"07100",Malaysia,,,,,,
,99.7218455,6.2991484,taxi,Jalan Pantai Chenang,,,,,Kedah,"07100",Malaysia,,,,,,
,100.1954965,6.4393541,taxi,Jalan Penjara,,,,Kangar,Perlis,"01000",Malaysia,,,,,,
,118.3001453,5.511507,ferry_terminal,,,,,,Sabah,,Malaysia,,,,,,
Claremont Station,100.2726528,5.4188275,halt,Trail to Claremont Station,,,,George Town,Pulau Pinang,"11300",Malaysia,,,stop_position,,,
,100.2997883,5.4075934,taxi,Jalan Ayer Itam,Central George Town,,,George Town,Pulau Pinang,"11400",Malaysia,,,,,,
,101.626239,3.1539829,taxi,Jalan Burhanuddin Helmi,Taman Tun Dr Ismail,,,Kuala Lumpur,Kuala Lumpur,"60000",Malaysia,,,,,,
,101.6262087,3.1541718,taxi,Jalan Burhanuddin Helmi,Taman Tun Dr Ismail,,,Kuala Lumpur,Kuala Lumpur,"60000",Malaysia,,,,,,
Komersial Datuk Sulaiman,101.6293405,3.1502643,taxi,Jalan Datuk Sulaiman,Taman Tun Dr Ismail,,,Kuala Lumpur,Kuala Lumpur,"60000",Malaysia,"2",,,,,
,101.6292463,3.1452117,taxi,Jalan Datuk Sulaiman,Taman Tun Dr Ismail,,,Kuala Lumpur,Kuala Lumpur,"60000",Malaysia,,,,,,
Perumahan Abang HJ Openg,101.6299274,3.1419288,taxi,Jalan Datuk Sulaiman,Taman Tun Dr Ismail,,,Kuala Lumpur,Kuala Lumpur,"60000",Malaysia,,,,,,
,102.7724291,2.2346612,ferry_terminal,,,,,,Johor,"84710",Malaysia,,,station,,,
,111.3782856,2.5757719,ferry_terminal,,,,Daro,,Sarawak,,Malaysia,,,station,,,
,101.2528506,3.0173887,ferry_terminal,Jalan Merdeka,,,,Bandaraya Klang,Selangor,"42940",Malaysia,,,station,,,
,102.2301617,2.4664462,taxi,Lorong 1,,,Pulau Sebang,,Melaka,"73000",Malaysia,,,,,,
Perhentian Kereta Sewa Daerah Yan,100.4562429,5.8581103,taxi,K146,,,Guar Chempedak,,Kedah,"08800",Malaysia,,,,,,
Jeti Lumut,100.6327055,4.2372801,ferry_terminal,Jalan Sultan Yussuf Izuddin,,,Lumut,,Perak,"32200",Malaysia,,,station,,,
Jeti Awam Damar Laut,100.6304728,4.2437026,ferry_terminal,Jalan Damar Laut,,,Lumut,,Perak,"32200",Malaysia,,,station,,,
Sarikei,111.5180619,2.1328394,ferry_terminal,Jalan Bank,,,,Sarikei,Sarawak,"96107",Malaysia,,,station,,,
Jeti Pangkalan Nelayan Sungai Haji Dorani,101.0208916,3.6391402,ferry_terminal,Jalan Lama Kuala Selangor,,,,,Selangor,"45300",Malaysia,,,station,,,
Jeti tambahan bot Kampong Nelayan Kayan,100.804243,4.0288728,ferry_terminal,,,,,,Perak,"32030",Malaysia,,,station,,,
Jeti Pangkalan Kampung Sungai Tinggi,100.6783333,4.5809119,ferry_terminal,A101,,,,,Perak,,Malaysia,,,station,,,
Jeti Pangkalan Nelayan Kampung Panchor,100.6531725,4.5255921,pier,Jalan Panchor - Damar Laut,,,,,Perak,,Malaysia,,,,,,
Jeti Pangkalan Nelayan Kampung Sungai Kelumbung,100.6684701,4.5677491,ferry_terminal,Jalan Matang Sepam,,,,,Perak,,Malaysia,,,station,,,
"Pengkalan Nelayan Sungai Gelam, Segari",100.586532,4.3776076,ferry_terminal,Jalan Panchor - Damar Laut,,,,,Perak,,Malaysia,,,station,,,
Jeti PPRT,100.6451457,4.5269705,ferry_terminal,A202,,,,,Perak,,Malaysia,,,,,,
Jeti Pangkalan Nelayan Kampung Sungai Kelumbung,100.6717122,4.561037,ferry_terminal,Jalan Matang Sepam,,,,,Perak,,Malaysia,,,,,,
Jeti Pangkalan Nelayan Permatang Laut,100.6634123,4.5560482,ferry_terminal,Jalan Matang Laut,,,,,Perak,,Malaysia,,,,,,
Jeti Pangkalan Nelayan Sungai Punggur,100.6863991,4.6923599,ferry_terminal,Jalan Pengkalan Sungai Punggur,,,,,Perak,"34800",Malaysia,,,,,,
Jeti Pangkalan Nelayan Sungai Tok Lin,100.6902966,4.6717018,ferry_terminal,Jalan Temerloh - Kuala Terong,,,,,Perak,"34800",Malaysia,,,station,,,
,100.4023845,5.3185314,ferry_terminal,Dataran Semilang,,,,Bukit Mertajam,Pulau Pinang,"14000",Malaysia,,,,,,
,117.1481074,5.6250073,ferry_terminal,,,,,,Sabah,,Malaysia,,,station,,,
,113.9872874,4.5784376,ferry_terminal,Lutong-Kuala Baram Ferrypoint,Kuala Baram,,,,Sarawak,,Malaysia,,,,,,
,113.9899879,4.5821994,ferry_terminal,Old Lutong-Kuala Baram Ferrypoint,Kuala Baram,,,,Sarawak,,Malaysia,,,station,,,
JB Sentral Bus Terminal,103.7648345,1.4632803,bus_station,Johor Bahru Sentral,,,,Johor Bahru,Johor,"80730",Malaysia,Land Transport Authority,"47711",station,,limited,Land Transport Authority
,101.7216509,3.2197982,subway_entrance,Persiaran Pertahanan,,,,Kuala Lumpur,Kuala Lumpur,"53100",Malaysia,,,,,,
,100.6931999,4.2156314,taxi,Jalan Lumut,,,,Sitiawan,Perak,"32000",Malaysia,,,,,,
Tasek Gelugor,100.4979104,5.4821265,station,Solok Sawi,,,Tasek Gelugor,,Pulau Pinang,"13300",Malaysia,KTM,,station,train,yes,"KTM Komuter';KTM ETS"
,102.8999965,3.4907397,ferry_terminal,Jalan Batu Balik,,,,,Pahang,,Malaysia,,,,,,
,102.8996083,3.4931908,ferry_terminal,C19,,,,,Pahang,,Malaysia,,,,,,
,110.6965568,1.4441358,ferry_terminal,Jalan Batang Lupar-Sadong,,,,,Sarawak,,Malaysia,,,,,,
Feri Batang Saribas,111.2718607,1.6174743,ferry_terminal,Jalan Maludam,,,Pusa,,Sarawak,,Malaysia,,,station,,,
NKS Bus Station,102.4027716,4.3812702,bus_station,FT1508,,,,,Pahang,,Malaysia,,,,,,
,110.6892604,1.4546458,ferry_terminal,Jambatan Batang Sadong,,,Asajaya,,Sarawak,,Malaysia,,,,,,
Letat Jaya Far Distance Bus Terminal,118.0841112,5.8645169,bus_station,Jalan Lintas Utara,Batu 3,,,Sandakan,Sabah,"90716",Malaysia,,,station,,,
,118.249878,4.68516,bus_station,Jalan Pejabat Pos,,,Kunak,,Sabah,"91207",Malaysia,,,station,,,
KA12 Batang Kali,101.6377216,3.4685255,station,Jalan Jati Utama 2,,,Batang Kali,,Selangor,"44300",Malaysia,KTM,KA12,station,train,yes,
Stesen Bas Ekspres Raub,101.8557678,3.7963694,bus_station,Jalan Perdagangan 4,,,Raub,,Pahang,,Malaysia,"MARA Liner;Pahang Lin Siong;Sanwa Express;Central Pahang",,station,,no,
B,101.6141298,3.0222312,subway_entrance,Jalan Puteri 4/2,Bandar Puteri Puchong,,Puchong,Majlis Bandaraya Subang Jaya,Selangor,"47160",Malaysia,,,,,,
Teksi Sungai Rengit,104.2221375,1.3502514,taxi,Jalan Abu Bakar,,,Sungai Rengit,,Johor,"81620",Malaysia,,,,,,
Pa Dalih Airport,115.5564567,3.5586269,aerodrome,,,,Bario,,Sarawak,,Malaysia,,,,,,
,102.0918739,6.2329541,bus_station,Jalan MARA ke Pengkalan Polis Marin,,,,,Kelantan,"16080",Malaysia,,,station,,,
,102.1717037,6.1986855,bus_station,Jalan Hilir Pasar,,,Tumpat,,Kelantan,"16200",Malaysia,,,station,,,
,102.0919528,6.233155,taxi,Jalan MARA ke Pengkalan Polis Marin,,,,,Kelantan,"16080",Malaysia,,,,,,
,103.6569058,1.4811557,taxi,Jalan Indah 15/2,Bukit Indah,,,Iskandar Puteri,Johor,"81200",Malaysia,,,,,,
Old Pier - Not working,113.7574517,3.8029548,pier,Jalan Gua Besar,,,Batu Niah,,Sarawak,,Malaysia,,,,,,
Old Pier - Not working,113.7582859,3.8033509,pier,Jalan Gua Besar,,,Batu Niah,,Sarawak,,Malaysia,,,,,,
,113.7544706,3.8184011,pier,Jalan Gunung Subis,,,Batu Niah,,Sarawak,,Malaysia,,,,,,
,113.1576325,3.3485691,pier,Circular Trail,,,,,Sarawak,,Malaysia,,,,,,
West (inc Brunei & Sarawak),116.0746556,5.981126,bus_station,Jalan Tugu,,,,Kota Kinabalu,Sabah,"88675",Malaysia,,,station,,,
West Malaysia Bernam Field,101.3268947,3.7672425,aerodrome,Jalan Seri Keledang,,,,,Selangor,,Malaysia,Private,,,,,
Bus Station Sg Koyan,101.8001479,4.2191189,bus_station,"235",,,,,Pahang,"27650",Malaysia,,,station,,,
,113.0374666,3.1798976,taxi,Jalan Tun Ahmad Zaidi,,,,Bintulu,Sarawak,"97000",Malaysia,,,,,,
Jetty Airport Belaga,113.747371,2.6425487,pier,,,,,,Sarawak,,Malaysia,,,,,,
Kapit,112.9401148,2.0177703,ferry_terminal,Jalan Temenggong Koh Anak Jubang,,,,Kapit,Sarawak,"96800",Malaysia,,,station,,,
Boat To Sibu,112.9410838,2.0178545,pier,Jalan Penglima Balang,,,,Kapit,Sarawak,"96800",Malaysia,,,,,,
Kapit,112.941083,2.017862,ferry_terminal,Jalan Penglima Balang,,,,Kapit,Sarawak,"96800",Malaysia,,,station,,,
,112.9528463,2.0174311,pier,Jalan Mamora,,,,Kapit,Sarawak,"96800",Malaysia,,,,,,
Local Buses,111.8296549,2.2859885,bus_station,Jalan Khoo Peng Loong,,,,Sibu,Sarawak,"96000",Malaysia,,,station,,,
,113.4128018,3.1854189,ferry_terminal,,,,,,Sarawak,,Malaysia,,,,,,
,113.4118734,3.185329,ferry_terminal,,,,,,Sarawak,,Malaysia,,,,,,
,103.8151715,1.5011656,bus_station,Jalan Permas 10,Bandar Baru Permas Jaya,,Plentong,,Johor,"81750",Malaysia,,,station,,,
Long Iman Jetty,114.7944629,3.9966856,pier,,,,,,Sarawak,"98008",Malaysia,,,,,,
,110.3551301,1.5587292,pier,Jalan Chan Chin Ann,,,,Kuching,Sarawak,"93000",Malaysia,,,,,,
,110.3582833,1.5604517,pier,Jalan Sungai Padungan,,,,Kuching,Sarawak,"93000",Malaysia,,,,,,
Pangkalan Panjang,110.3424329,1.5608872,ferry_terminal,Lebuh Jawa,,,,Kuching,Sarawak,"93000",Malaysia,,,station,,,
Jetty Kampong Tanjung,110.3388608,1.5607683,ferry_terminal,Lorong Merdeka 11,Petra Jaya,,,Kuching,Sarawak,"93000",Malaysia,,,station,,,
,110.3442967,1.5628588,ferry_terminal,Lorong Merdeka 11,Petra Jaya,,,Kuching,Sarawak,"93000",Malaysia,,,station,,,
,102.7150695,5.8993797,ferry_terminal,Jungle trail,,,,,Terengganu,,Malaysia,,,station,,,
Stesen Teksi Bukit Kayu Hitam,100.4220094,6.5050123,taxi,"1",,,Bukit Kayu Hitam,,Kedah,"06050",Malaysia,,,,,,
,102.5521356,5.8295485,taxi,Jalan Seberang Jertih Ke Sempadan Kelantan,,,Kuala Besut,,Terengganu,"22300",Malaysia,,,,,,
,102.2442027,2.1911692,taxi,Jalan Kota Laksamana 1/1,,,,Bandaraya Melaka,Melaka,"75200",Malaysia,,,,,,
"Terminal Akasia Benta, Jalan Kampung Baru Benta",101.9662084,4.0174814,bus_station,C154,,,,,Pahang,"27300",Malaysia,Pahang Lin Siong,,station,,yes,
Long Distance Bus Terminal,111.8499139,2.3052948,bus_station,Jalan Diong Kik,,,,Sibu,Sarawak,"96000",Malaysia,,,station,,,
Kuching Sentral,110.3326374,1.481929,bus_station,Jalan Lapangan Terbang,,,Kota Sentosa,,Sarawak,"93250",Malaysia,,,station,,yes,
,99.7277337,6.2903208,taxi,Jalan Pantai Chenang,,,,,Kedah,"07100",Malaysia,,,,,,
,99.6621332,6.3858498,station,Langkawi Sky Bridge,,,,,Kedah,,Malaysia,,,,,,
A,101.699065,3.1391129,subway_entrance,Jalan Maharajalela,Bukit Bintang,,,Kuala Lumpur,Kuala Lumpur,"50118",Malaysia,,A,,,,
Hop On Hop Off Stop 18 Hardrock,100.2422765,5.4673701,bus_station,Jalan Batu Ferringgi,Mukim 17,,,George Town,Pulau Pinang,"11100",Malaysia,ELANG WAH,,station,,,
Tung Ma Bus Station,116.1507121,5.3330132,bus_station,Jalan Masjid,,,,Keningau,Sabah,"88900",Malaysia,,,station,,,
,116.1552073,5.3359843,bus_station,Lorong Andulag 1,Pekan Keningau,,,Keningau,Sabah,"88900",Malaysia,,,station,,,
Kuching City Center Bus Station (Saujana),110.3418663,1.558113,bus_station,Jalan Masjid,,,,Kuching,Sarawak,"93000",Malaysia,,,station,,,
Minivan to Ranau & Kinabalu NP (25RM),116.0762465,5.9805449,bus_station,Jalan Padang,,,,Kota Kinabalu,Sabah,"88675",Malaysia,,,station,,,
Kompleks Jeti Kuala Merlimau,102.4154878,2.1293768,pier,Jalan Pengkalan Samak,,,Merlimau,,Melaka,,Malaysia,,,,,,
Kompleks Jeti Kuala Sebatu,102.4639178,2.1122559,pier,Lorong Haji Ahmad Dahlan,,,,,Melaka,,Malaysia,,,,,,
Pengkalan Nelayan Kampung Kesang,102.4896188,2.1023609,pier,Jalan Pengkalan Kesang,,,,,Johor,,Malaysia,,,,,,
Pengkalan Nelayan Parit Karang Laut,102.5240986,2.0788268,pier,Parit Karang,,,,,Johor,,Malaysia,,,,,,
Pusat Aktiviti Nelayan Pengkalan Pantai Siring,102.3626946,2.1394878,pier,Jalan Indah,,,,,Melaka,,Malaysia,,,,,,
Pengkalan Nelayan Sarang Buaya,102.7695558,1.8891248,pier,Jalan Muar,,,,,Johor,"83600",Malaysia,,,,,,
Perhentian Teksi Jerteh,102.4949975,5.7367718,taxi,Jalan Zainal Abidin,,,Jerteh,,Terengganu,"22000",Malaysia,,,,,,
stasyen kerata sewa,102.4080797,5.8360447,bus_station,Jalan Madrasah,,,Pasir Puteh,,Kelantan,"16800",Malaysia,,,station,,,
,103.685233,1.5025514,bus_station,Jalan Sri Perkasa 2/22,,,,Johor Bahru,Johor,"79150",Malaysia,,,station,,,
Tenom,115.9449681,5.1229143,station,Jalan Toh Puan Hajjah Kusnah,,,Tenom,,Sabah,"89900",Malaysia,SSR,,station,train,,
KA15 Tanjung Malim,101.5182472,3.6847662,station,Jalan Kampung Lambak,,,Tanjong Malim,,Perak,"35900",Malaysia,KTM,KA15,station,train,yes,
KB16 Rembau,102.0944333,2.5928981,station,Jalan Stesen,,,Rembau,,Negeri Sembilan,"71300",Malaysia,KTM,KB16,station,train,yes,
KB15 Sungai Gadut,101.996243,2.6604751,station,N5,Sungai Gadut,,,Seremban,Negeri Sembilan,"71450",Malaysia,KTM,KB15,station,train,yes,
Halogilat,115.8307646,5.2549261,station,,,,,,Sabah,,Malaysia,SSR,,station,,yes,
Pintu A | Kampung Selamat,101.578194,3.199222,subway_entrance,Jalan Sungai Buloh - Subang,,,,Shah Alam,Selangor,"47830",Malaysia,,A,,,yes,
Terminal Bas,112.0894606,2.8909085,bus_station,Q3024,,,,Mukah,Sarawak,"96400",Malaysia,,,station,,,
Aero Bus To KLIA,101.4439614,2.9936036,bus_station,Persiaran Batu Nilam 16,Bandar Bukit Tinggi,,,Bandaraya Klang,Selangor,"41200",Malaysia,,,station,,,
Sarikei Bus Terminal,111.5322758,2.1194912,bus_station,Jalan Tapah,,,,Sarikei,Sarawak,"96107",Malaysia,,,station,,,
,115.2406649,5.2815332,bus_station,Jalan Bunga Tanjungc,,,,Bandar Victoria,Labuan,"87009",Malaysia,,,station,,,
,100.2147067,5.4476528,taxi,Jalan Teluk Bahang,Teluk Bahang,,,George Town,Pulau Pinang,"11050",Malaysia,,,,,,
,102.4152373,3.4494222,taxi,Jalan Sudirman,,,,Temerloh,Pahang,"28000",Malaysia,,,,,,
Pekan Bus Station,103.3968452,3.4907516,bus_station,"3",Kampung Parit Tengah,,,Pekan,Pahang,"26600",Malaysia,,,station,,,
,101.3887913,4.4918463,taxi,Jalan Besar Cameron Highlands,,,Tanah Rata,,Pahang,"39100",Malaysia,,,,,,
"Taxi Service, One Stop Taxi Station",99.8507186,6.3213095,taxi,Jalan Pandak Mayah 5,,,Kuah,,Kedah,,Malaysia,,,,,,
Bus Station 3,103.6318119,1.5594401,bus_station,Jalan Iman,,,,Iskandar Puteri,Johor,"81310",Malaysia,,,station,,,
Bus Station 1,103.6292887,1.5601702,bus_station,Jalan Belian,,,,Iskandar Puteri,Johor,"81000",Malaysia,,,station,,limited,
Bus Station 4,103.632967,1.5594593,bus_station,Jalan Iman,,,,Iskandar Puteri,Johor,"81310",Malaysia,,,station,,,
Bus Station Jln Meranti,103.6308321,1.5587795,bus_station,Jalan Iman,,,,Iskandar Puteri,Johor,"81310",Malaysia,,,station,,,
Hentian Bas Kuala Rompin,103.4862412,2.800497,bus_station,Jalan Tuan Syed Othman,,,Kuala Rompin,,Pahang,,Malaysia,,,station,,,
,100.9318897,3.8720246,ferry_terminal,,,,Hutan Melintang,,Perak,"36400",Malaysia,,,,,,
Terminal Feri Antarabangsa Labuan,115.2413146,5.2774144,ferry_terminal,Jalan Merdeka,,,,Bandar Victoria,Labuan,"87009",Malaysia,,,station,,,
Jeti Terminal Ferry Kenderaan Labuan,115.2419478,5.276015,ferry_terminal,Jalan Merdeka,,,,Bandar Victoria,Labuan,"87009",Malaysia,,,station,,,
Taxi Boat,104.1556193,2.8501473,taxi,Air Batang,,,,Tioman,Pahang,,Malaysia,,,,,,
,111.8609989,1.1511906,pier,Jalan Utama Batang Ai,,,Lubok Antu,,Sarawak,,Malaysia,,,,,,
Hentian teksi,100.4869461,5.117615,taxi,Jalan Maharaja,Pekan Baru,,Mukim Parit Buntar,,Perak,"34200",Malaysia,,,,,,
Perhentian Bas dan Kereta Sewa Ulu Tiram,103.8225261,1.5978952,bus_station,Jalan Cempedak,,,Ulu Tiram,,Johor,"81800",Malaysia,,,station,,,
Taxi Boat,104.1514331,2.8596467,taxi,Air Batang,,,,Tioman,Pahang,,Malaysia,,,,,,
Port Dickson,101.7909945,2.5199831,ferry_terminal,Jalan Tanjung Kemuning,,,,Port Dickson,Negeri Sembilan,"71000",Malaysia,,,station,,,
,114.8894401,4.2185275,pier,Headhunter's Trail,,,,,Sarawak,,Malaysia,,,,,,
"Padang Merdeka Station: Ranau, Tambunan, Keningau, Kota, Kota Belud, Kota Marudu",116.0762117,5.9804404,bus_station,Jalan Padang,,,,Kota Kinabalu,Sabah,"88675",Malaysia,,,station,,,
"Pintu B | Velodrom KL, Jalan Cheras",101.7290571,3.1117149,subway_entrance,Jalan Cheras,Cheras,,,,Kuala Lumpur,"55300",Malaysia,,B,,,yes,
B,101.7327199,3.1046709,subway_entrance,Jalan Cheras,Cheras,,,,Kuala Lumpur,"56100",Malaysia,,B,,,yes,
Taxi stand,110.3523278,1.5578161,taxi,Jalan Tunku Abdul Rahman,,,,Kuching,Sarawak,"93000",Malaysia,,,,,,
,101.4315488,5.4272482,ferry_terminal,,,,,,Perak,,Malaysia,,,,,,
,101.3380676,5.5650794,ferry_terminal,Jalan Grik – Jeli (Lebuhraya Timur-Barat),,,,,Perak,,Malaysia,,,,,,
,117.8843827,4.2405428,ferry_terminal,Persiaran Traulsen,,,,Tawau,Sabah,"91007",Malaysia,,,station,,,
Tebedu Immigration Bus Station,110.3533067,0.9889229,bus_station,Jalan Serian-Tebedu,,,Tebedu,,Sarawak,,Malaysia,,,,,,
Serian,110.5665788,1.1660865,bus_station,Jalan Bandar Serian,,,,Serian,Sarawak,"94700",Malaysia,,,station,,,
,110.3414915,1.5623016,ferry_terminal,Lorong Merdeka 11,Petra Jaya,,,Kuching,Sarawak,"93000",Malaysia,,,station,,,
Lundu Bus Stand,109.853402,1.6710015,bus_station,Lorong Kampung Dagang 2,,,Lundu,,Sarawak,,Malaysia,,,,,,
Bus K21 to Kubah National Park,110.3420313,1.5580562,bus_station,Jalan Gartak,,,,Kuching,Sarawak,"93000",Malaysia,,,station,,,
,103.2082129,5.2041039,ferry_terminal,Jalan Tanah Lot Bandar Marang,,,Marang,,Terengganu,"21600",Malaysia,,,station,,,
,102.5581359,5.8313039,taxi,Lorong Tiga,,,Kuala Besut,,Terengganu,"22300",Malaysia,,,,,,
,101.7116492,3.1468377,subway_entrance,Jalan Sultan Ismail,Bukit Bintang,,,Kuala Lumpur,Kuala Lumpur,"55100",Malaysia,,D,,,yes,
,101.711102,3.1468966,subway_entrance,,Bukit Bintang,,,Kuala Lumpur,Kuala Lumpur,"50200",Malaysia,,F,,,,
,101.7105779,3.1460017,subway_entrance,Jalan Sultan Ismail,Bukit Bintang,,,Kuala Lumpur,Kuala Lumpur,"55100",Malaysia,,C,,,yes,
A,101.7269761,3.1253842,subway_entrance,Jalan Cheras,Cheras,,,Kuala Lumpur,Kuala Lumpur,"56100",Malaysia,,A,,,yes,
D,101.7277502,3.1242309,subway_entrance,Jalan Cheras,Cheras,,,Kuala Lumpur,Kuala Lumpur,"51500",Malaysia,,D,,,yes,
C,101.727334,3.1238622,subway_entrance,Jalan Cheras,Cheras,,,Kuala Lumpur,Kuala Lumpur,"56100",Malaysia,,C,,,,
B | Jalan Cheras,101.7269783,3.1245224,subway_entrance,Jalan Cheras,Cheras,,,Kuala Lumpur,Kuala Lumpur,"56100",Malaysia,,B,,,yes,
Minivans to Kiansom,116.1367904,5.9919706,bus_station,Jalan Kiansom,,,,,Sabah,"88450",Malaysia,,,station,,,
A,101.702138,3.142434,subway_entrance,Jalan Hang Jebat,Bukit Bintang,,,Kuala Lumpur,Kuala Lumpur,"50150",Malaysia,,A,,,yes,
B,101.7027996,3.1416851,subway_entrance,Jalan Hang Jebat,Bukit Bintang,,,Kuala Lumpur,Kuala Lumpur,"50150",Malaysia,,B,,,yes,
Pintu B | Jalan Sultan Mohamed,101.6955639,3.1421765,subway_entrance,Jalan Sultan Mohamed,,,,Kuala Lumpur,Kuala Lumpur,"50000",Malaysia,,B,,,,
Pintu A | Jalan Sultan / Jalan Panggong,101.6968069,3.1424829,subway_entrance,Jalan Sultan,Bukit Bintang,,,Kuala Lumpur,Kuala Lumpur,"50000",Malaysia,,A,,,yes,
B,101.6876932,3.1373932,subway_entrance,Old Malay Bridge,,,,Kuala Lumpur,Kuala Lumpur,"50566",Malaysia,,B,,,yes,
A,101.6877598,3.1369827,subway_entrance,Jalan Sultan Hishamuddin,,,,Kuala Lumpur,Kuala Lumpur,"50566",Malaysia,,A,,,yes,
A,101.7229314,3.1329233,subway_entrance,Jalan Cochrane,Maluri,,,Kuala Lumpur,Kuala Lumpur,"50988",Malaysia,,A,,,yes,
B,101.723198,3.1320204,subway_entrance,To Sunway Velocity,Cheras,,,Kuala Lumpur,Kuala Lumpur,"55100",Malaysia,,B,,,,
Pintu A | Jalan Delima,101.7197635,3.1431359,subway_entrance,MRT Plaza (TRX Link),Pudu,,,Kuala Lumpur,Kuala Lumpur,"55188",Malaysia,,A,,,yes,
Pintu B | Jalan Tun Razak,101.7200141,3.1425578,subway_entrance,Persiaran TRX Timur,Pudu,,,Kuala Lumpur,Kuala Lumpur,"55188",Malaysia,,B,,,yes,
Shared Taxis To Kota Kinabalu,116.8468719,6.8802876,bus_station,Jalan Loh Thein Ciok,,,,Kudat,Sabah,"89058",Malaysia,,,station,,,
,101.3930919,5.2358541,ferry_terminal,,,,,,Perak,,Malaysia,,,station,,,
Terminal Bas dan Teksi Chaah,103.0408463,2.2488745,bus_station,Jalan Sultan,,,Chaah,,Johor,"85400",Malaysia,,,station,,,
Minivans To KK,116.8470184,6.8803924,bus_station,Jalan Loh Thein Ciok,,,,Kudat,Sabah,"89058",Malaysia,,,station,,,
Terminal Bus Express Tanjung Gemok,103.6191464,2.6623046,bus_station,Jalan Kuantan - Endau,Tanjung Gemok,,,,Pahang,"26820",Malaysia,,,station,,,
Shared Taxis To KK,115.7445984,5.3443541,bus_station,Jalan Padas Utama,Beaufort Jaya,,Beaufort,,Sabah,"89808",Malaysia,,,station,,,
Sipitang Express,115.7449917,5.3440065,bus_station,Jalan Padas Utama,Beaufort Jaya,,Beaufort,,Sabah,"89808",Malaysia,,,station,,,
,116.3660051,5.6684776,bus_station,Jalan Datuk Gibon,Pekan Tambunan,,Tambunan,,Sabah,"89650",Malaysia,,,station,,,
,104.0616628,1.4435327,ferry_terminal,Jalan Tanjung Belungkor,,,Tanjung Surat,,Johor,,Malaysia,,,station,,,
Terminal Bas dan Teksi Tok Janggut,102.404357,5.830213,bus_station,"210",,,Pasir Puteh,,Kelantan,"16800",Malaysia,,,station,,,
Rantau Panjang,101.9764962,6.0215594,station,"ICQ Rantau Panjang (Bas, Lori)",,,Rantau Panjang,,Kelantan,"17200",Malaysia,,,station,,yes,
,102.0900198,6.2325359,ferry_terminal,,,,,,Kelantan,"16080",Malaysia,,,station,,,
,103.4216318,4.775722,taxi,Jalan Bijangga,,,,Dungun,Terengganu,"23000",Malaysia,,,,,,
,103.8172211,1.4958271,taxi,Jalan Permas Utara,Bandar Baru Permas Jaya,,,,Johor,"81750",Malaysia,,,,,,
,101.5647253,3.1701365,subway_entrance,Persiaran Kwasa Puteri,,,,Shah Alam,Selangor,"47810",Malaysia,,A,,,,
Pintu B | Jalan Sungai Buloh,101.5787927,3.1967103,subway_entrance,Jalan Sungai Buloh - Subang,Kota Damansara,,,Petaling Jaya,Selangor,"47930",Malaysia,,B,,,yes,
Pintu C | Jalan Welfare,101.5776747,3.198102,subway_entrance,Jalan Welfare,,,,Shah Alam,Selangor,"47830",Malaysia,,C,,,,
,101.5651486,3.1698737,subway_entrance,Persiaran Kwasa Puteri,,,,Shah Alam,Selangor,"47810",Malaysia,,B,,,,
Pintu C | Jalan PJU 7/1 (Utara),101.607848,3.1559391,subway_entrance,Jalan PJU 7/11,Mutiara Damansara,,,Petaling Jaya,Selangor,"47800",Malaysia,,C,,,yes,
Pintu B | Jalan PJU 7/1 (selatan),101.6082044,3.1559568,subway_entrance,Jalan PJU 7/1,Mutiara Damansara,,,Petaling Jaya,Selangor,"47800",Malaysia,,B,,,yes,
Pintu A | Persiaran Surian (Barat),101.6091179,3.1548991,subway_entrance,Persiaran Surian,Mutiara Damansara,,,Petaling Jaya,Selangor,"47800",Malaysia,,A,,,yes,
"Pintu D | Surian Tower, The Curve",101.6091314,3.1555885,subway_entrance,Jalan PJU 7/3,Mutiara Damansara,,,Petaling Jaya,Selangor,"47820",Malaysia,,D,,,yes,
Pintu A | BUCC Power House,101.6188927,3.1457012,subway_entrance,Persiaran Bandar Utama,Bandar Utama,,,Petaling Jaya,Selangor,"60000",Malaysia,,A,,,,
,100.7515631,4.8545916,taxi,Jalan Taman Tasik,,,,Taiping,Perak,"34000",Malaysia,,,,,,
,102.5531792,2.0488444,ferry_terminal,Jalan Petrie,,,,Muar,Johor,"84000",Malaysia,,,station,,,
,102.2496213,2.7388286,bus_station,"9",,,Kuala Pilah,,Negeri Sembilan,"72000",Malaysia,,,station,,,
Stesen Bas/Teksi Sekinchan,101.1033737,3.5093237,bus_station,Jalan Mengkudu,,,Sekinchan,,Selangor,"45400",Malaysia,,,station,,,
Upper Station,100.2694386,5.4236761,station,Summit Road,,,,George Town,Pulau Pinang,"11300",Malaysia,,,station,,,
,110.1548757,1.4180051,bus_station,Jalan Penghulu Durin,,,Bau,,Sarawak,"94000",Malaysia,,,station,,,
Stesen Bas Bintulu Sentral,113.0596532,3.201803,bus_station,Lorong 4B,,,,Bintulu,Sarawak,"97000",Malaysia,,,station,,,
Water Taxi and Boat Transport,116.0727982,5.9837441,ferry_terminal,Pedestrian Flyover,,,,Kota Kinabalu,Sabah,"88675",Malaysia,,,station,,,
,102.5997376,2.1497092,ferry_terminal,,,,,,Johor,"84410",Malaysia,,,,,,
,102.6446769,2.1303785,ferry_terminal,Lorong Abu Hassan,,,,Muar,Johor,"84300",Malaysia,,,,,,
,101.6455336,3.1037967,subway_entrance,Persiaran Barat,PJ State,,,Petaling Jaya,Selangor,"46661",Malaysia,,,,,,
Pintu A | Jalan Damansara Endah,101.6656456,3.1506493,subway_entrance,Jalan Damansara Endah,,,,Kuala Lumpur,Kuala Lumpur,"50490",Malaysia,,A,,,yes,
Pintu B | Jalan Semantan,101.6656688,3.1515288,subway_entrance,Jalan Dungun,,,,Kuala Lumpur,Kuala Lumpur,"50490",Malaysia,,B,,,yes,
,101.6954278,3.1725154,subway_entrance,Lorong 2,Sentul,,,Kuala Lumpur,Kuala Lumpur,"50586",Malaysia,,,,,no,
KJ15 KL Sentral,101.6865153,3.1341106,station,Jalan Stesen Sentral,,,,Kuala Lumpur,Kuala Lumpur,"50470",Malaysia,,,station,light_rail,yes,
KJ10 KLCC,101.7133662,3.1592469,station,Jalan Ampang,Bukit Bintang,,,Kuala Lumpur,Kuala Lumpur,"50088",Malaysia,Rapid KL,KJ10,station,light_rail,yes,Kelana Jaya Line
,101.719112,3.1598932,subway_entrance,Jalan Ampang,Kampung Datuk Keramat,,,Kuala Lumpur,Kuala Lumpur,"50450",Malaysia,,,,,,
Jeti Pulau Pangkor,100.576837,4.2131665,ferry_terminal,A205,,,,,Perak,"32300",Malaysia,,,stop_position,,,
Sipitang,115.5503074,5.0765956,bus_station,Jalan Lumaku,,,Sipitang,,Sabah,"89857",Malaysia,,,station,,,
,103.7439179,1.4959478,taxi,Jalan Kenyalang,Larkin,,,Johor Bahru,Johor,"80350",Malaysia,,,,,,
Local bus to Jerantut 10am and 5 pm,102.4020446,4.3819988,bus_station,FT1508,,,,,Pahang,,Malaysia,,,,,,
Feri Sebuyau,110.977225,1.4979137,ferry_terminal,,,,,,Sarawak,,Malaysia,,,stop_position,,,
Feri Triso,111.0048831,1.5245736,ferry_terminal,,,,,,Sarawak,,Malaysia,,,stop_position,,,
Feri Kaba Seratok,111.1890089,1.7326666,ferry_terminal,Jalan Batang Saribas-Krian,,,,,Sarawak,,Malaysia,,,station,,,
,111.8208749,2.316364,ferry_terminal,Jalan Kampung Nangka,,,,Sibu,Sarawak,"96000",Malaysia,,,station,,,
,111.8163113,2.3091409,ferry_terminal,,,,,Sibu,Sarawak,"96000",Malaysia,,,station,,,
,111.8178372,2.306803,ferry_terminal,,,,,Sibu,Sarawak,"96000",Malaysia,,,station,,,
,111.8184284,2.3091197,ferry_terminal,Jalan Kampung Nangka,,,,Sibu,Sarawak,"96000",Malaysia,,,station,,,
,101.6734502,3.1377962,taxi,Lorong Maarof,Bangsar,,,Kuala Lumpur,Kuala Lumpur,"59000",Malaysia,,,,,,
,101.0140102,4.023443,ferry_terminal,Jalan Sithambaram Pillay,Bandar Lama,,,Teluk Intan,Perak,"36000",Malaysia,,,station,,,
,101.0187862,4.0220423,ferry_terminal,Jalan SKOMK,Bandar Lama,,,Teluk Intan,Perak,"36000",Malaysia,,,station,,,
,113.0441272,3.1679226,ferry_terminal,Jalan Abang Galau,,,,Bintulu,Sarawak,"97000",Malaysia,,,,,,
,113.0396967,3.1674252,ferry_terminal,Jalan Abang Galau,,,,Bintulu,Sarawak,"97000",Malaysia,,,,,,
,112.095978,2.897552,ferry_terminal,Jalan Pam Stesen Lama,,,,Mukah,Sarawak,"96400",Malaysia,,,,,,
,112.0967571,2.8976852,ferry_terminal,Jalan Pam Stesen Lama,,,,Mukah,Sarawak,"96400",Malaysia,,,station,,,
Pintu A | Bandar Tun Hussein Onn,101.7745994,3.0483351,subway_entrance,Jalan 13,Cheras,,,Majlis Perbandaran Kajang,Selangor,"43200",Malaysia,,A,,,,
Pintu B | Park & Ride,101.7742876,3.0483404,subway_entrance,Jalan 13,Cheras,,,Majlis Perbandaran Kajang,Selangor,"43200",Malaysia,,B,,,,
"Pintu A | Taman Mutiara, Jalan Mutiara Raya",101.7402187,3.0906021,subway_entrance,Jalan Mutiara Raya,Cheras,,,,Kuala Lumpur,"56100",Malaysia,,A,,,yes,
Pintu B | Taman Segar,101.7406462,3.0914822,subway_entrance,Jalan Mutiara Timur,Cheras,,,,Kuala Lumpur,"56100",Malaysia,,B,,,yes,
Pintu A | Taman Sri Raya,101.7730056,3.0623535,subway_entrance,Lebuhraya Cheras–Kajang,Cheras,,,Majlis Perbandaran Kajang,Selangor,"43200",Malaysia,,A,,,,
Pintu C | Taman Kota Cheras,101.7727877,3.06117,subway_entrance,Jalan TKC 1/1,Cheras,,,Majlis Perbandaran Kajang,Selangor,"43200",Malaysia,,C,,,,
Pintu B | Taman Sri Raya,101.7735523,3.0616414,subway_entrance,Lebuhraya Cheras–Kajang,Cheras,,,Majlis Perbandaran Kajang,Selangor,"43200",Malaysia,,B,,,yes,
Pintu A | Bukit Dukung,101.7709892,3.0272459,subway_entrance,Lebuhraya Cheras–Kajang,,,,Majlis Perbandaran Kajang,Selangor,"43200",Malaysia,,A,,,yes,
Pintu B | Jalan Cheras,101.7720253,3.0273688,subway_entrance,Jalan Cheras,Cheras,,,Majlis Perbandaran Kajang,Selangor,"43200",Malaysia,,B,,,,
Pintu A | Jalan Cheras-KL,101.783749,3.0004592,subway_entrance,Jalan Cheras,,,,Majlis Perbandaran Kajang,Selangor,"43000",Malaysia,,A,,,yes,
Pintu B | KPJ Kajang,101.7837971,3.0013333,subway_entrance,Jalan Cheras,,,,Majlis Perbandaran Kajang,Selangor,"43000",Malaysia,,B,,,yes,
Pintu B | Bandar Kajang,101.7859006,2.9928751,subway_entrance,Lorong Mendaling,,,,Majlis Perbandaran Kajang,Selangor,"43000",Malaysia,,B,,,,
Pintu A | Medan Satay Kajang,101.7861107,2.9944474,subway_entrance,Jalan Kelab,,,,Majlis Perbandaran Kajang,Selangor,"43000",Malaysia,,A,,,,
Pintu C | Jalan Stadium,101.7862931,2.9934309,subway_entrance,Jalan Hishamuddin,,,,Majlis Perbandaran Kajang,Selangor,"43000",Malaysia,,C,,,,
"Pintu A | Taman Suntex, Jalan Kinabalu",101.7637348,3.0716741,subway_entrance,Jalan Kinabalu,Cheras,,,Majlis Perbandaran Kajang,Selangor,"43200",Malaysia,,A,,,yes,
A,101.7460092,3.0785733,subway_entrance,Jalan Cheras,Cheras,,,Kuala Lumpur,Kuala Lumpur,"56000",Malaysia,,A,,,yes,
B,101.7450245,3.079458,subway_entrance,Jalan Cheras,Cheras,,,,Kuala Lumpur,"56000",Malaysia,,B,,,yes,
Cheras Sentral,101.7453768,3.0784507,subway_entrance,Jalan Cheras,Cheras,,,Kuala Lumpur,Kuala Lumpur,"56000",Malaysia,,,,,,
"Pintu A | Taman Pertama, Jalan 2/90",101.7296842,3.1118305,subway_entrance,Jalan 2/90,Cheras,,,,Kuala Lumpur,"55300",Malaysia,,A,,,yes,
Pintu A | Jalan SS 2/2,101.7730937,3.0412813,subway_entrance,Jalan Seksyen 2/2,Cheras,,,Majlis Perbandaran Kajang,Selangor,"43200",Malaysia,,A,,,,
,101.6873854,3.1326958,taxi,Jalan Tun Sambanthan,,,,Kuala Lumpur,Kuala Lumpur,"50470",Malaysia,,,,,,
lundu bus terminal,109.8528143,1.6699485,bus_station,Lorong Kampung Dagang 2,,,Lundu,,Sarawak,,Malaysia,,,,,,
Pintu B | Jalan Johar,101.6625513,3.1435532,subway_entrance,Damansara Link (PJ Bound),Bangsar,,,Kuala Lumpur,Kuala Lumpur,"50490",Malaysia,,B,,,,
Pintu A | Jalan Maarof | HELP Residen,101.6631665,3.1434524,subway_entrance,Damansara Link (PJ Bound),Bangsar,,,Kuala Lumpur,Kuala Lumpur,"50490",Malaysia,,A,,,yes,
Pintu B | Lebuhraya SPRINT,101.6429952,3.1295348,subway_entrance,Damansara Link,,,,Kuala Lumpur,Kuala Lumpur,"47350",Malaysia,,B,,,yes,
Pintu A | Jalan 16/11,101.6427645,3.1283539,subway_entrance,Jalan 16/11,,,,Petaling Jaya,Selangor,"47350",Malaysia,,A,,,yes,
Pintu B | Jalan Wan Kadir 4,101.6312433,3.1360369,subway_entrance,Jalan Wan Kadir 4,Taman Tun Dr Ismail,,,Kuala Lumpur,Kuala Lumpur,"60000",Malaysia,,B,,,yes,
Pintu A | Menara Glomac,101.6302937,3.1356637,subway_entrance,Jalan Damansara,,,,Kuala Lumpur,Kuala Lumpur,"47308",Malaysia,,A,,,yes,
Pintu B | Jalan PJU 5/8,101.5936166,3.1498921,subway_entrance,Jalan PJU 5/8,Kota Damansara,,,Petaling Jaya,Selangor,"47810",Malaysia,,B,,,yes,
Pintu A | Persiaran Surian,101.5935975,3.1494285,subway_entrance,Persiaran Surian,,,,Petaling Jaya,Selangor,"47810",Malaysia,,A,,,yes,
Pintu B | Jalan Camar 4/5,101.5793786,3.1504398,subway_entrance,Jalan Camar 4/5,Kota Damansara,,,Petaling Jaya,Selangor,"47810",Malaysia,,B,,,,
Pintu A | Persiaran Surian (Barat),101.5786349,3.1499793,subway_entrance,Persiaran Surian,Kota Damansara,,,Petaling Jaya,Selangor,"47810",Malaysia,,A,,,,
,101.7217575,3.2198265,taxi,Persiaran Pertahanan,,,,Kuala Lumpur,Kuala Lumpur,"53100",Malaysia,,,,,,
,101.7184192,3.1604066,subway_entrance,Jalan Binjai,Kampung Datuk Keramat,,,Kuala Lumpur,Kuala Lumpur,"50450",Malaysia,,,,,,
Pintu A,101.7066199,3.1612445,subway_entrance,Jalan Sungai Baru,Kampung Bharu,,,Kuala Lumpur,Kuala Lumpur,"50400",Malaysia,,A,,,yes,
Pintu B,101.7073835,3.1615978,subway_entrance,Lorong Raja Muda Musa 1,Kampung Bharu,,,Kuala Lumpur,Kuala Lumpur,"50400",Malaysia,,B,,,no,
A,101.5898985,3.0957189,subway_entrance,Persiaran Kerjaya,,,,Shah Alam,Selangor,"43701",Malaysia,,,,,,
Pintu B | 1 Utama,101.6183414,3.1471418,subway_entrance,Bandar Utama MRT - 1 Utama Passage,Bandar Utama,,,Petaling Jaya,Selangor,"47800",Malaysia,,B,,,,
Teluk Gunung,101.9939627,4.6455323,station,"8",,,,,Pahang,,Malaysia,Keretapi Tanah Melayu,,station,,,KTM Intercity
,100.3545231,6.1410028,taxi,Jalan Shahab 5,,,,Alor Setar,Kedah,"05150",Malaysia,,,,,,
The Summit,100.4628074,5.3659457,bus_station,Lean Hock Bus,,,,Bukit Mertajam,Pulau Pinang,"14000",Malaysia,"Rapid Bus;Lean Hock Bus","12002201",station,,,Rapid Penang
Taxi Building,101.6786521,2.8590833,taxi,"214",,,Dengkil,Sepang,Selangor,"43800",Malaysia,,,,,,
,101.7085133,3.1017633,taxi,Jalan Sri Permaisuri 6,Bandar Sri Permaisuri,,,,Kuala Lumpur,"51020",Malaysia,,,,,,
,101.7099883,3.1019367,taxi,Jalan Sri Permaisuri 4,Bandar Sri Permaisuri,,,,Kuala Lumpur,"51020",Malaysia,,,,,,
,101.790939,2.9842263,taxi,MRT Kajang,,,,Majlis Perbandaran Kajang,Selangor,"43000",Malaysia,,,,,,
D,101.7117341,3.1460892,subway_entrance,Jalan Sultan Ismail,Bukit Bintang,,,Kuala Lumpur,Kuala Lumpur,"50200",Malaysia,,D,,,,
Express Bus Terminal,103.1409056,5.3372241,bus_station,Jalan Masjid Abidin,,,,Kuala Terengganu,Terengganu,"20100",Malaysia,,,station,,,
Stesen Bas Paka,103.4384368,4.6303524,bus_station,Jalan Kuantan - Kuala Terengganu,,,Paka,Dungun,Terengganu,"23100",Malaysia,,,station,,,
,101.9234556,2.719453,taxi,Jalan Toman 4,Lobak,,,Seremban,Negeri Sembilan,"70200",Malaysia,,,,,,
,101.9782052,2.7263798,taxi,Jalan Seremban-Kuala Pilah,Paroi,,,Seremban,Negeri Sembilan,"70400",Malaysia,,,,,,
,101.986486,2.7034413,taxi,Jalan Taman Komersil Senawang 3,Senawang,,,Seremban,Negeri Sembilan,"70450",Malaysia,,,,,,
C,101.6956284,3.1733467,subway_entrance,Jalan Pahang Barat,Sentul,,,Kuala Lumpur,Kuala Lumpur,"50586",Malaysia,,C,,,,
B,101.6958272,3.1729584,subway_entrance,Jalan Tun Razak,Sentul,,,Kuala Lumpur,Kuala Lumpur,"50586",Malaysia,,B,,,no,
B,101.6985721,3.1591411,subway_entrance,Jalan Sultan Ismail,,,,Kuala Lumpur,Kuala Lumpur,"50300",Malaysia,,B,,,,
,100.9446096,4.7729099,ferry_terminal,Persiaran Sungai Perak,Bukit Chandan,,,Kuala Kangsar,Perak,"33040",Malaysia,,,station,,,
,110.504083,1.4595653,ferry_terminal,Jalan Kota Samarahan - Sadong Jaya,,,,Kota Samarahan,Sarawak,,Malaysia,,,,,,
Terminal Bas Ekspress,113.0595528,3.2015996,bus_station,Jalan Bintulu-Tanjung Kidurong,,,,Bintulu,Sarawak,"97000",Malaysia,,,station,,,
C,101.6985435,3.1594271,subway_entrance,Jalan Sultan Ismail,,,,Kuala Lumpur,Kuala Lumpur,"50730",Malaysia,,C,,,,
,101.7529585,3.1386168,subway_entrance,Jalan Pandan Indah 6,Pandan Indah,Ampang,,Majlis Perbandaran Ampang Jaya,Selangor,"51500",Malaysia,,,,,,
Terminal Bas Ekspres Batu Pahat,102.9266399,1.8533826,bus_station,Jalan Rugayah,,,,Batu Pahat,Johor,"83000",Malaysia,,,station,,,
Hub Seksyen 2,101.5076657,3.0718953,bus_station,Persiaran Masjid,,,,Shah Alam,Selangor,"40000",Malaysia,Rapid Bus,SA14,station,,,"Rapid KL Bus;LRT Feeder Bus;Smart Selangor Bus"
Setapak Central (Selatan),101.7205487,3.2021205,taxi,Jalan Genting Kelang,Setapak,,,Kuala Lumpur,Kuala Lumpur,"53300",Malaysia,,,,,,
,100.4629048,5.3664556,taxi,Lorong Aston 3,,,,Bukit Mertajam,Pulau Pinang,"14000",Malaysia,,,,,,
Perak Transit Express (Departure to Cameron highlands,101.0734614,4.6697347,bus_station,Persiaran Meru Raya 5,Meru Raya,,,Majlis Bandaraya Ipoh,Perak,"30020",Malaysia,,,station,,,
Kuala Sangga,100.5619753,4.8545807,ferry_terminal,,,,,,,,Malaysia,,,station,,,
Pasir Hitam,100.6170824,4.6488202,ferry_terminal,,,,,,,,Malaysia,,,station,,,
,104.1462737,2.810107,taxi,Jeti Penumpang Kampung Tekek,,,Kampung Tekek,Tioman,Pahang,,Malaysia,,,,,,
C,101.7116087,3.1462184,subway_entrance,Jalan Sultan Ismail,Bukit Bintang,,,Kuala Lumpur,Kuala Lumpur,"55100",Malaysia,,C,,,,
A,101.711317,3.1461311,subway_entrance,Jalan Sultan Ismail,Bukit Bintang,,,Kuala Lumpur,Kuala Lumpur,"55100",Malaysia,,A,,,,
Long Distance Bus Terminal,118.0092365,4.2633852,bus_station,Bulatan Bandar Sri Indah,,,,,Sabah,,Malaysia,,,station,,,
Terminal Minyak Beku,102.893864,1.7982555,ferry_terminal,Jalan Minyak Beku,,,,,Johor,"83030",Malaysia,,,station,,,
Kuala Sepetang,100.627392,4.8347706,ferry_terminal,"74",Kuala Sepetang,,,,Perak,,Malaysia,,,station,,,
Labuan-Limbang Express Platform,115.2403394,5.2771195,ferry_terminal,纳闽码头,,,,Bandar Victoria,Labuan,"87009",Malaysia,,,station,,,
Limbang,115.0081989,4.7536859,ferry_terminal,Lorong Limbang CIQ,,,,Limbang,Sarawak,"98708",Malaysia,,,station,,,
Jeti Pengkalan Nelayan Kampung Telok Berembang,102.0649973,2.4447619,ferry_terminal,,,,,,Melaka,"78100",Malaysia,,,station,,,
,101.172427,3.42397,bus_station,Jalan Sungai Kajang Lama,,,Tanjong Karang,,Selangor,,Malaysia,,,station,,,
Sungai Besar Sentral,100.9863538,3.6720122,bus_station,Jalan Bunga Tanjong,,,Sungai Besar,,Selangor,"45300",Malaysia,,,station,,,
,101.6803616,3.101476,taxi,Jalan Desa Utama,Taman Desa,,,Kuala Lumpur,Kuala Lumpur,"58100",Malaysia,,,,,,
A,101.5820341,3.0296234,subway_entrance,Jalan USJ 21/10,UEP Subang Jaya,,,Majlis Bandaraya Subang Jaya,Selangor,"47640",Malaysia,,,,,,
B,101.581271,3.0295794,subway_entrance,Persiaran Kewajipan,UEP Subang Jaya,,,Majlis Bandaraya Subang Jaya,Selangor,"47640",Malaysia,,,,,,
Penang Sentral Intercity Bus Platform (L1),100.365762,5.3944867,bus_station,Butterworth - Penang Sentral Pedestrian Bridge,Bagan Dalam,,,Bandar Butterworth,Pulau Pinang,"12100",Malaysia,MRCB,,station,,,
Penang Sentral Stage Bus Platform (L1),100.3649008,5.3950995,bus_station,Penang Sentral Bus Lane,Bagan Dalam,,,Bandar Butterworth,Pulau Pinang,"12100",Malaysia,,,station,,,
Drop Off Area (L3),100.3654614,5.3948028,taxi,Butterworth - Penang Sentral Pedestrian Bridge,Bagan Dalam,,,Bandar Butterworth,Pulau Pinang,"12100",Malaysia,,,,,,
,101.7150394,3.1481434,taxi,Jalan Bukit Bintang,Bukit Bintang,,,Kuala Lumpur,Kuala Lumpur,"55100",Malaysia,,,,,,
Hentian Teksi Perkasa,100.3545365,6.1408535,taxi,Jalan Shahab 5,,,,Alor Setar,Kedah,"05150",Malaysia,,,,,,
Jeti Pantai Merdeka,100.3691451,5.6686863,ferry_terminal,K14,,,,,Kedah,"08110",Malaysia,,,station,,,
,99.8605998,6.2532561,ferry_terminal,K22,,,,,Kedah,,Malaysia,,,station,,,
Sandakan,118.0821011,5.8080977,ferry_terminal,Jalan Pelabuhan Baru,,,,Sandakan,Sabah,"90009",Malaysia,,,station,,yes,
,100.3686516,6.1160875,taxi,Jalan Stesyen,,,,Alor Setar,Kedah,"05640",Malaysia,,,,,,
local buses,101.3832128,4.4681357,bus_station,Persiaran Dayang Indah,,,Tanah Rata,,Pahang,"39000",Malaysia,,,station,,,
,115.2403762,5.2771484,ferry_terminal,纳闽码头,,,,Bandar Victoria,Labuan,"87009",Malaysia,,,station,,,
E,101.7116602,3.1460214,subway_entrance,Jalan Sultan Ismail,Bukit Bintang,,,Kuala Lumpur,Kuala Lumpur,"55100",Malaysia,,E,,,,
Kemayan,102.3706026,3.1358117,station,Jalan Temerloh - Kemayan,,,Kemayan,,Pahang,,Malaysia,Keretapi Tanah Melayu,,station,,yes,KTM Intercity
Bidor Bus Station,101.288814,4.1116792,bus_station,Jalan Panggung Wayang,,,Bidor,,Perak,"35500",Malaysia,,,station,,,
Pickup & Dropoff Grab,101.7933785,2.9926841,taxi,Jalan Semenyih,,,,Majlis Perbandaran Kajang,Selangor,"43000",Malaysia,,,,,,
AG7 SP7 KJ13 Masjid Jamek,101.696461,3.1494076,station,Jalan Tun Perak,Bukit Bintang,,,Kuala Lumpur,Kuala Lumpur,"50050",Malaysia,Rapid KL,,station,light_rail,,
,118.279978,5.5077877,ferry_terminal,,,,,,Sabah,,Malaysia,,,station,,,
Transtar Express,101.7930065,3.4222029,bus_station,Resort Hotel,,,Genting Highlands,,Selangor,"69000",Malaysia,,,station,,,
,102.148772,5.808814,taxi,Jalan Noor Zainal,,,Tanah Merah,,Kelantan,,Malaysia,,,,,,
Waiting Point @ Bulatan Amanjaya,101.0784087,4.669576,taxi,Bulatan Meru Raya,Meru Raya,,,Majlis Bandaraya Ipoh,Perak,"30020",Malaysia,,,,,,
B,101.7080119,3.0634977,subway_entrance,Jalan Sungai Besi,Sungai Besi,,,Kuala Lumpur,Kuala Lumpur,"57000",Malaysia,,B,,,,
,117.1471882,5.6243249,ferry_terminal,,,,,,Sabah,,Malaysia,,,station,,,
UniKL @ Khemah Putih,101.0932989,4.6028988,taxi,Jalan Greentown,,,,Majlis Bandaraya Ipoh,Perak,"30450",Malaysia,,,,,,
Stesen Teksi Kemaman,103.4275578,4.2319958,taxi,Jalan Sulaimani,Kampung Besut,,,Chukai,Terengganu,"24000",Malaysia,,,,,,
Bt 12,101.7316658,3.2924575,bus_station,Jalan Gombak,,,,Majlis Perbandaran Selayang,Selangor,,Malaysia,,,station,,,
Monkey Beach,100.1881178,5.4708629,ferry_terminal,Canopy Walkway,,,,George Town,Pulau Pinang,"11050",Malaysia,,,station,,,
Kuala Keniam Jetty,102.4749923,4.5178862,ferry_terminal,,,,,,Pahang,,Malaysia,,,,,,
,118.6613985,5.4319722,ferry_terminal,,,,,,Sabah,,Malaysia,,,,,,
,118.660967,5.431115,ferry_terminal,,,,,,Sabah,,Malaysia,,,,,,
Kuala Terengganu,103.1348463,5.3370994,ferry_terminal,Jalan Kampung Cina,,,,Kuala Terengganu,Terengganu,"20100",Malaysia,,,station,,,
KLIA T1,101.7046397,2.7547334,station,KLIA Departure,,,,Sepang,Selangor,"64000",Malaysia,Express Rail Link,,station,train,,"KLIA Transit;KLIA Ekspres"
,102.3150074,2.3098312,bus_station,Jalan UTEM,,,,,Melaka,"76100",Malaysia,,,station,,,
A,101.7057869,3.1406982,subway_entrance,Jalan Hang Tuah,Bukit Bintang,,,Kuala Lumpur,Kuala Lumpur,"50150",Malaysia,,A,,,,
B,101.7061612,3.1410094,subway_entrance,Jalan Hang Tuah,Bukit Bintang,,,Kuala Lumpur,Kuala Lumpur,"50150",Malaysia,,B,,,,
,100.7401435,4.849875,taxi,Jalan Iskandar,,,,Taiping,Perak,"34000",Malaysia,,,,,,
,100.7390472,4.8483933,taxi,Jalan Panggong Wayang,,,,Taiping,Perak,"34000",Malaysia,,,,,,
Feri Seberang Kedai,115.0017721,4.7654479,ferry_terminal,Ferry Seberang Kedai,,,,,Sarawak,"98708",Malaysia,,,station,,,
Perhentian Teksi Bandar Permaisuri,102.744937,5.521519,taxi,"3",,,Bandar Permaisuri,,Terengganu,"22100",Malaysia,,,,,,
Terminal Bas Sri Aman,111.4565162,1.2400136,bus_station,Jalan Astana,,,,Simanggang,Sarawak,"95000",Malaysia,"Bus Asia, Borneo Bus, CityLink, Bintang Jaya",,station,,,
Taxi Terminal,111.461647,1.2375071,taxi,Jalan Council,,,,Simanggang,Sarawak,"95000",Malaysia,,,,,,
Bus #10 to PCB beach,102.2381967,6.132254,bus_station,Jalan Tengku Seri Akar,,,,Kota Bharu,Kelantan,"15000",Malaysia,,,station,,,
,103.136324,5.3318612,taxi,Jalan Masjid Abidin,,,,Kuala Terengganu,Terengganu,"20100",Malaysia,,,,,,
,101.7524414,3.2108509,taxi,Jalan Taman Melawati,,Ulu Kelang,,Majlis Perbandaran Ampang Jaya,Selangor,"53100",Malaysia,,,,,,
Kuala Gris,102.0642757,5.3903256,station,D66,,,,,Kelantan,,Malaysia,Keretapi Tanah Melayu,,station,,,KTM Intercity
GrabCar Official Pick Up Point @ Level 7 Penang Sentral,100.3657408,5.3946113,taxi,Butterworth - Penang Sentral Pedestrian Bridge,Bagan Dalam,,,Bandar Butterworth,Pulau Pinang,"12100",Malaysia,,,,,,
Grab Pick Up @ Kelawei Entrance,100.3090007,5.4364401,taxi,Jalan Kelawai,Central George Town,,,George Town,Pulau Pinang,"10250",Malaysia,,,,,,
Grab Pick Up @ Seaside Entrance,100.3099356,5.4384165,taxi,Persiaran Gurney,Central George Town,,,George Town,Pulau Pinang,"10250",Malaysia,,,,,,
C,101.70592,3.1403717,subway_entrance,Jalan Hang Tuah,Bukit Bintang,,,Kuala Lumpur,Kuala Lumpur,"55200",Malaysia,,C,,,,
,101.6447482,3.0509932,subway_entrance,Lebuhraya Bukit Jalil,Bandar Kinrara,,,Majlis Bandaraya Subang Jaya,Selangor,"47180",Malaysia,,,,,,
,101.6451675,3.0503339,subway_entrance,Jalan BK 5A/1,Bandar Kinrara,,,Majlis Bandaraya Subang Jaya,Selangor,"47100",Malaysia,,,,,,
B,101.6443854,3.0502321,subway_entrance,Jalan BK 5A/1,Bandar Kinrara,,,Majlis Bandaraya Subang Jaya,Selangor,"47180",Malaysia,,,,,,
,101.6449509,3.050484,subway_entrance,Jalan BK 5A/1,Bandar Kinrara,,,Majlis Bandaraya Subang Jaya,Selangor,"47100",Malaysia,,,,,,
,102.2511207,2.1885686,taxi,Jalan Tun Khalil Yaakob,,,,Bandaraya Melaka,Melaka,"75000",Malaysia,,,,,,
Pasir Gudang,103.9212512,1.433876,ferry_terminal,Jalan Simen 1,,,,,Johor,"81700",Malaysia,,,station,,,
Puteri harbour (Iskandar Puteri),103.6609111,1.4133976,ferry_terminal,Persiaran Puteri Selatan,Puteri Harbour,,,Iskandar Puteri,Johor,"79100",Malaysia,,,station,,,
Terminal feri Puteri Harbour (Iskandar Puteri),103.6614602,1.4140179,ferry_terminal,Persiaran Puteri Selatan,Puteri Harbour,,,Iskandar Puteri,Johor,"79100",Malaysia,,,stop_position,,,
,101.3908765,2.9984997,ferry_terminal,Jalan Syahbandar,,,Pelabuhan Klang,Bandaraya Klang,Selangor,"42009",Malaysia,,,station,,,
Pengkalan Nelayan Sungai Kuah,99.8492405,6.3187402,pier,Persiaran Putra,,,Kuah,,Kedah,,Malaysia,,,,,,
AEON,101.7273717,3.1251558,subway_entrance,Jalan Cheras,Cheras,,,Kuala Lumpur,Kuala Lumpur,"51500",Malaysia,,AEON,,,,
,100.3068155,5.4327948,taxi,Jalan Burma,Central George Town,,,George Town,Pulau Pinang,"10350",Malaysia,,,,,,
B,101.5862977,3.0765187,subway_entrance,Jalan SS 15/4D,Pusat Bandar Subang Jaya,,,Majlis Bandaraya Subang Jaya,Selangor,"47500",Malaysia,,,,,,
A,101.5859436,3.0756213,subway_entrance,Jalan SS 17/2,Pusat Bandar Subang Jaya,,,Majlis Bandaraya Subang Jaya,Selangor,"47500",Malaysia,,,,,,
Sungai Kerang,100.6769184,4.5956886,ferry_terminal,,,,,,Perak,,Malaysia,,,station,,,
,100.4403649,5.2339038,taxi,Persiaran Cassia Barat 8,Bandar Cassia,,,,Pulau Pinang,"14110",Malaysia,,,,,,
,100.9333546,3.86687,ferry_terminal,,,,,,Selangor,"36400",Malaysia,,,,,,
,101.705018,3.156107,taxi,Jalan Sultan Ismail,,,,Kuala Lumpur,Kuala Lumpur,"50250",Malaysia,,,,,,
A,101.6991072,3.1590919,subway_entrance,Jalan Sultan Ismail,,,,Kuala Lumpur,Kuala Lumpur,"50300",Malaysia,,A,,,,
Terminal Bandar Tun Abdul Razak,102.8902484,2.9053225,bus_station,"11",,,Bandar Tun Abdul Razak,,Pahang,"26900",Malaysia,,,,,,
Terminal Tanjung Gemok,103.621923,2.6594565,bus_station,Jalan Sri Tanjung 1/1,Tanjung Gemok,,,,Pahang,"86900",Malaysia,,,station,,,
Terminal Tanjung Gemok,103.6219214,2.6594732,bus_station,Jalan Sri Tanjung 1/1,Tanjung Gemok,,,,Pahang,"86900",Malaysia,,,station,,,
KTM Batu Kentonmen,101.6815101,3.1967649,taxi,Jalan Batu Kentonmen,Batu,,,Kuala Lumpur,Kuala Lumpur,"51200",Malaysia,,,,,yes,
Bus Station Simpang Renggam,103.3099041,1.8256236,bus_station,Jalan Pasar,,,Simpang Renggam,,Johor,"86200",Malaysia,,,station,,,
Terminal Bas Mini Jalan Masak,116.1524209,5.3348073,bus_station,Jalan Masak,Pekan Keningau,,,Keningau,Sabah,"88900",Malaysia,,,station,,,
,116.1547501,5.3359571,bus_station,Lorong Andulag 1,Pekan Keningau,,,Keningau,Sabah,"88900",Malaysia,,,station,,,
,101.6572002,3.0546459,subway_entrance,,Bandar Kinrara,,,Majlis Bandaraya Subang Jaya,Selangor,"47180",Malaysia,,,,,,
,101.6564162,3.0549576,subway_entrance,Jalan BK 1/13,Bandar Kinrara,,,Majlis Bandaraya Subang Jaya,Selangor,"47180",Malaysia,,,,,,
Telaga Harbor,99.6855001,6.366054,ferry_terminal,Jalan Pantai Kok,,,,,Kedah,"07100",Malaysia,,,station,,,
A,101.7319006,3.1049728,subway_entrance,Jalan Midah 1,Cheras,,,,Kuala Lumpur,"55300",Malaysia,,A,,,yes,
Pintu B | Jalan Balakong,101.7726712,3.0406991,subway_entrance,Lebuhraya Cheras–Kajang,Cheras,,,Majlis Perbandaran Kajang,Selangor,"43200",Malaysia,,B,,,,
A,101.7097169,3.1430868,subway_entrance,Jalan Imbi,Bukit Bintang,,,Kuala Lumpur,Kuala Lumpur,"50200",Malaysia,,A,,,,
C,101.7098493,3.1427211,subway_entrance,Jalan Imbi,Bukit Bintang,,,Kuala Lumpur,Kuala Lumpur,"50200",Malaysia,,C,,,,
,101.7111256,3.1485393,taxi,Jalan Sultan Ismail,Bukit Bintang,,,Kuala Lumpur,Kuala Lumpur,"50540",Malaysia,,,,,,
,100.4627502,5.3654651,taxi,Lean Hock Bus,,,,Bukit Mertajam,Pulau Pinang,"14000",Malaysia,,,,,,
Terminal Bas,103.649295,1.4211944,bus_station,Persiaran Dato' Menteri,,,,Iskandar Puteri,Johor,"79582",Malaysia,,,station,,,
Lower Tunnel Station,100.2702751,5.4221833,halt,Lower Tunnel Road,,,,George Town,Pulau Pinang,"11300",Malaysia,,,stop_position,,,
,101.756469,3.1406776,subway_entrance,Persiaran Cahaya Satu,Pandan Indah,Ampang,,Majlis Perbandaran Ampang Jaya,Selangor,"50600",Malaysia,,,,,,
,110.6563783,1.2803934,ferry_terminal,,,,,,Sarawak,,Malaysia,,,,,,
,110.6575638,1.280447,ferry_terminal,Jalan Samarahan / Sebuyau / Ensengei / Lubok Bunting,,,,,Sarawak,,Malaysia,,,,,,
,101.7011239,3.146019,taxi,Jalan Pudu,Bukit Bintang,,,Kuala Lumpur,Kuala Lumpur,"50150",Malaysia,,,,,,
Terminal feri Berjaya Waterfront Johor Bahru,103.7849139,1.4702774,ferry_terminal,Jalan Ibrahim Sultan,,,,Johor Bahru,Johor,"80040",Malaysia,,,stop_position,,,
Pintu B | Jalan Bukit,101.79089,2.9838212,subway_entrance,Jalan Bukit,,,,Majlis Perbandaran Kajang,Selangor,"43000",Malaysia,,B,,,,
,101.5769396,3.1996485,taxi,Jalan Welfare,,,,Shah Alam,Selangor,"47830",Malaysia,,,,,,
,101.5779497,3.2000753,taxi,Jalan Sungai Buloh - Subang,,,,Shah Alam,Selangor,"47830",Malaysia,,,,,,
,101.6125364,3.0162107,subway_entrance,Jalan Puchong,Bandar Puteri Puchong,,Puchong,Majlis Bandaraya Subang Jaya,Selangor,"47160",Malaysia,,,,,,
,101.6128542,3.0160515,subway_entrance,Jalan Puchong,Puchong Perdana,,Puchong,Majlis Bandaraya Subang Jaya,Selangor,"47160",Malaysia,,,,,,
,102.6437185,4.4998401,pier,,,,,,Pahang,"27020",Malaysia,,,,,,
,102.6453678,4.4995644,pier,,,,,,Pahang,"27020",Malaysia,,,,,,
,117.0854175,7.1089648,ferry_terminal,,,,Karakit,,Sabah,,Malaysia,,,station,,,
,101.5081852,3.071964,taxi,Persiaran Masjid,,,,Shah Alam,Selangor,"40000",Malaysia,,,,,,
,101.7085991,3.1504036,taxi,Jalan Raja Chulan,Bukit Bintang,,,Kuala Lumpur,Kuala Lumpur,"50540",Malaysia,,,,,,
,116.077884,5.9909127,ferry_terminal,Lorong Jesselton,,,,Kota Kinabalu,Sabah,"88843",Malaysia,,,station,,,
Jeti Lumut,100.6327115,4.2371936,ferry_terminal,Jalan Sultan Yussuf Izuddin,,,Lumut,,Perak,"32200",Malaysia,,,station,,,
,110.3374122,1.5590297,ferry_terminal,Jambatan Muara Sungai Bintangor,,,,Kuching,Sarawak,"93000",Malaysia,,,station,,,
,101.7893606,2.5809799,ferry_terminal,N159,,,,Port Dickson,Negeri Sembilan,"71000",Malaysia,,,,,,
,101.7874937,2.5791092,ferry_terminal,N159,,,,Port Dickson,Negeri Sembilan,"71000",Malaysia,,,,,,
,100.5541415,4.2537708,ferry_terminal,A205,,,,,Perak,"32300",Malaysia,,,station,,,
,102.0908762,6.233313,ferry_terminal,Jalan MARA ke Pengkalan Polis Marin,,,,,Kelantan,"16080",Malaysia,,,station,,,
,100.3102041,5.4385552,taxi,Persiaran Gurney,Central George Town,,,George Town,Pulau Pinang,"10250",Malaysia,,,,,,
Jeti Pulau Besar,102.3360059,2.1153089,ferry_terminal,Jalan Indah,,,,,Melaka,,Malaysia,,,station,,,
B,101.5907454,3.0961458,subway_entrance,Jalan SS 7/19,Kelana Jaya,,,Petaling Jaya,Selangor,"43701",Malaysia,,,,,,
Machang Bus Station,102.2207831,5.7654011,bus_station,Jalan Tanjung,,,Machang,,Kelantan,"18500",Malaysia,,,station,,,
MMU Taxi Stand,101.6411387,2.9227747,taxi,Persiaran Multimedia,,,Cyberjaya,Sepang,Selangor,"63000",Malaysia,,,,,,
,101.0893615,4.6245162,ferry_terminal,Lebuh Kuala Kangsar,,,,Majlis Bandaraya Ipoh,Perak,"30010",Malaysia,,,station,,,
,101.0900742,4.6270652,ferry_terminal,Lang Damai 4,,,,Majlis Bandaraya Ipoh,Perak,"30010",Malaysia,,,station,,,
Batu Kawan,100.405482,5.2656707,ferry_terminal,Pengkalan Cassia,,,Batu Kawan,,Pulau Pinang,"14110",Malaysia,,,station,,,
Pulau Aman,100.3930997,5.2674038,ferry_terminal,Pengkalan Cassia,,,Batu Kawan,,Pulau Pinang,"14110",Malaysia,,,station,,,
,101.692231,3.1368561,taxi,Jalan Tun Sambanthan,,,,Kuala Lumpur,Kuala Lumpur,"50566",Malaysia,,,,,,
,102.4326181,4.4049082,ferry_terminal,Kuala Tahan - Kuala Terenggan Lodge,,,,,Pahang,,Malaysia,,,,,,
,111.8154634,2.3072266,ferry_terminal,,,,,Sibu,Sarawak,"96000",Malaysia,,,station,,,
,111.8218179,2.3144888,ferry_terminal,Jalan Kampung Nangka,,,,Sibu,Sarawak,"96000",Malaysia,,,station,,,
,110.3461771,1.5601695,ferry_terminal,Jalan Main Bazaar,,,,Kuching,Sarawak,"93000",Malaysia,,,station,,,
,110.3461228,1.5623051,ferry_terminal,Jambatan Darul Hana,Petra Jaya,,,Kuching,Sarawak,"93000",Malaysia,,,station,,,
,110.3508894,1.5593541,ferry_terminal,Jalan Tunku Abdul Rahman,,,,Kuching,Sarawak,"93000",Malaysia,,,station,,,
,110.3513828,1.5586261,ferry_terminal,Jalan Tunku Abdul Rahman,,,,Kuching,Sarawak,"93000",Malaysia,,,station,,,
,115.1812125,3.1616521,ferry_terminal,,,,,,Sarawak,,Malaysia,,,platform,,,
,115.1818979,3.1625828,ferry_terminal,Long San to Lio Mato Road,,,,,Sarawak,,Malaysia,,,platform,,,
,102.6455825,2.1297054,ferry_terminal,Lorong Abu Hassan,,,,Muar,Johor,"84300",Malaysia,,,,,,
Kuala Terengganu,103.1384465,5.3389634,ferry_terminal,Jalan Tok Lam,,,,Kuala Terengganu,Terengganu,"20000",Malaysia,,,station,,,
,116.0480561,6.0135854,ferry_terminal,Jalan Residensi Sutera 1,,,,Kota Kinabalu,Sabah,"88823",Malaysia,,,station,,,
,116.0051126,5.9743144,ferry_terminal,Jalan Aru,,,,Kota Kinabalu,Sabah,"88863",Malaysia,,,station,,,
,113.0458533,3.1639183,ferry_terminal,,,,,Bintulu,Sarawak,"97000",Malaysia,,,,,,
,104.2052763,2.7947222,ferry_terminal,Waterfall Trek,,,,Tioman,Pahang,,Malaysia,,,,,,
,101.5859593,3.0670669,subway_entrance,Jalan SS 18/6,Pusat Bandar Subang Jaya,,,Majlis Bandaraya Subang Jaya,Selangor,"47500",Malaysia,,,,,,
,100.9457721,4.7734209,ferry_terminal,Persiaran Sungai Perak,Bukit Chandan,,,Kuala Kangsar,Perak,"33040",Malaysia,,,station,,,
,101.7118282,3.0648384,taxi,Jalan Suasa 6,Sungai Besi,,,Kuala Lumpur,Kuala Lumpur,"57100",Malaysia,,,,,,
Jeti Kg Semaloi,103.6243136,2.629595,ferry_terminal,Jalan Surau Kg Semaloi,,,Endau,,Johor,"86900",Malaysia,,,station,,,
Bunut Susu,102.1744239,6.0944933,station,Jalan Bunut Susu,,,,,Kelantan,"17030",Malaysia,Keretapi Tanah Melayu,,station,,,KTM Intercity
Kompleks Pengangkutan Awam Larkin,103.7425587,1.4957105,bus_station,Loading Bay,Larkin,,,Johor Bahru,Johor,"80350",Malaysia,,"46239",station,,,
,100.3667518,6.1239393,taxi,Lebuhraya Darul Aman,,,,Alor Setar,Kedah,"05100",Malaysia,,,,,,
,100.333102,5.420685,taxi,Jalan Penang,Central George Town,,,George Town,Pulau Pinang,"10200",Malaysia,,,,,,
Terminal Bas Dan Teksi Labis,103.0218747,2.3850678,bus_station,Jalan Tun Razak,,,Labis,,Johor,"85300",Malaysia,Perbadanan Pengangkutan Awam Johor,,station,,,Bas Muafakat Johor
Jetty B,100.3417497,5.41374,bus_station,Lane 101,Central George Town,,,George Town,Pulau Pinang,"10300",Malaysia,Rapid Bus,,station,,,Rapid Penang
,100.3418831,5.4136036,taxi,Lane 204/206,Central George Town,,,George Town,Pulau Pinang,"10300",Malaysia,,,,,,
,100.3315372,5.4141856,taxi,Jalan Doktor Lim Chwee Leong,Central George Town,,,George Town,Pulau Pinang,"10100",Malaysia,,,,,,
,100.3309787,5.4140506,taxi,Lebuh Tek Soon,Central George Town,,,George Town,Pulau Pinang,"10000",Malaysia,,,,,,
,100.3308844,5.4149764,taxi,Jalan Ria,Central George Town,,,George Town,Pulau Pinang,"10000",Malaysia,,,,,,
,101.6609199,3.1265444,taxi,Lingkaran Wawasan,Bangsar,,,Kuala Lumpur,Kuala Lumpur,"50603",Malaysia,,,,,,
A,101.6559017,3.209402,subway_entrance,Jalan Kepong,Jinjang,,Kepong,,Kuala Lumpur,"52000",Malaysia,,A,,,,
B,101.648012,3.2107181,subway_entrance,Jalan Ambong Kiri 2,Jinjang,,Kepong,,Kuala Lumpur,"52100",Malaysia,,B,,,limited,
Pintu A | Jalan Cempaka SD 12/5,101.6083453,3.1978429,subway_entrance,Jalan Cempaka SD 12/5,Bandar Sri Damansara,,,Petaling Jaya,Selangor,"52200",Malaysia,,A,,,yes,
Pintu B | Persiaran Industri,101.6080406,3.1985341,subway_entrance,Jalan Kuala Selangor,Bandar Sri Damansara,,,Petaling Jaya,Selangor,"52200",Malaysia,,B,,,yes,
B,101.5924942,3.2000956,subway_entrance,Entrance D,,,,Petaling Jaya,Selangor,"47830",Malaysia,,,,,,
Main Entrance,101.6075806,3.0732429,taxi,Jalan PJS 11/15,Bandar Sunway,,,Majlis Bandaraya Subang Jaya,Selangor,"46150",Malaysia,,,,,,
Orange Entrance,101.6059189,3.0733663,taxi,Jalan PJS 11/15,Bandar Sunway,,,Majlis Bandaraya Subang Jaya,Selangor,"46150",Malaysia,,,,,,
B,101.6208466,3.1986159,subway_entrance,Linkway to Damansara Avenue,Bandar Sri Damansara,,,Petaling Jaya,Selangor,"52200",Malaysia,,,,,yes,
A,101.6208793,3.1983477,subway_entrance,Linkway to Damansara Avenue,Bandar Sri Damansara,,,Petaling Jaya,Selangor,"52200",Malaysia,,,,,yes,
Pintu D | Jalan PJU 10/2A,101.5925125,3.1997354,subway_entrance,Entrance D,,,,Petaling Jaya,Selangor,"47830",Malaysia,,D,,,,
,115.8019095,5.2924295,halt,,,,,,Sabah,,Malaysia,,,stop_position,,,
,115.8016319,5.2831584,halt,,,,,,Sabah,,Malaysia,,,stop_position,,,
,115.8058729,5.2663791,halt,,,,,,Sabah,,Malaysia,,,stop_position,,,
,115.810592,5.267707,halt,,,,,,Sabah,,Malaysia,,,stop_position,,,
,115.8174058,5.2711066,halt,,,,,,Sabah,,Malaysia,,,stop_position,,,
,115.8283762,5.2626697,halt,,,,,,Sabah,,Malaysia,,,stop_position,,,
,115.8382045,5.2434225,halt,,,,,,Sabah,"89900",Malaysia,,,stop_position,,,
,115.8783046,5.1851895,halt,,,,,,Sabah,,Malaysia,,,stop_position,,,
,115.7952078,5.3241071,halt,,,,,,Sabah,,Malaysia,,,stop_position,,,
,115.7962062,5.3294745,halt,,,,,,Sabah,,Malaysia,,,stop_position,,,
,115.7970957,5.3396721,halt,Jalan SRK Batu 60,,,,,Sabah,,Malaysia,,,stop_position,,,
Gemas,102.6136329,2.5797936,station,Jalan Stesen Keretapi,,,Gemas,,Negeri Sembilan,,Malaysia,,,station,,yes,
Kampung Kok Pasir,102.2077717,6.1629407,station,Jalan Kok Pasir,,,,,Kelantan,"16040",Malaysia,Keretapi Tanah Melayu,,station,,,KTM Intercity
Pintu C | Sunway Nexis,101.5948556,3.1500345,subway_entrance,Jalan PJU 5/7,,,,Petaling Jaya,Selangor,"47810",Malaysia,,C,,,,
A,101.612643,3.1108192,subway_entrance,Jalan SS 2/3,,,,Petaling Jaya,Selangor,"47300",Malaysia,,,,,,
B,101.6792866,3.1939803,subway_entrance,Jalan Ipoh,Batu,,,Kuala Lumpur,Kuala Lumpur,"51200",Malaysia,,B,,,yes,
A,101.6797648,3.1964629,subway_entrance,Jalan Ipoh,Batu,,,Kuala Lumpur,Kuala Lumpur,"51200",Malaysia,,A,,,yes,
D,101.7065497,3.1406353,subway_entrance,Drop Off Point 2,Bukit Bintang,,,Kuala Lumpur,Kuala Lumpur,"55100",Malaysia,,D,,,,
,101.7086145,3.1409472,taxi,Jalan Hang Tuah,Bukit Bintang,,,Kuala Lumpur,Kuala Lumpur,"55100",Malaysia,,,,,,
Jeti Tanjung Dawai,100.3655514,5.6792344,ferry_terminal,Jalan Singkir-Tanjung Dawai,,,Tanjung Dawai,,Kedah,"08110",Malaysia,,,station,,,
SJKC Mun Choong,101.6745829,3.2056744,taxi,Jalan Kampung Batu,,,,Kuala Lumpur,Kuala Lumpur,"51200",Malaysia,,KL1570,,,yes,
KTM Komuter Taman Wahyu,101.672529,3.2140454,taxi,Jalan 1/18A,Taman Mastiara,,,Kuala Lumpur,Kuala Lumpur,"51200",Malaysia,Rapid KL,KL1511,,,yes,
"Taman Wahyu (Barat), Jalan Kuching",101.6717536,3.215088,taxi,Jalan Ipoh,Batu,,,Kuala Lumpur,Kuala Lumpur,"52000",Malaysia,,KL565,,,yes,
,101.671586,3.2243213,taxi,Jalan Ipoh,,,,Kuala Lumpur,Kuala Lumpur,"68100",Malaysia,,,,,yes,
"Taman Wahyu (Barat), Jalan Kuching",101.6720731,3.2153363,taxi,Jalan Ipoh,Batu,,,Kuala Lumpur,Kuala Lumpur,"51200",Malaysia,,KL1505,,,yes,
Taman Koperasi Polis,101.6891814,3.2194064,taxi,Jalan Sri Batu Caves,,,Batu Caves,Majlis Perbandaran Selayang,Kuala Lumpur,"68100",Malaysia,,KL623,,,,
Taman Koperasi Polis,101.6894114,3.2199252,taxi,Jalan Sri Batu Caves,,,Batu Caves,Majlis Perbandaran Selayang,Kuala Lumpur,"68100",Malaysia,,KL623,,,,
Pejabat DBKL Kepong,101.6595623,3.2081193,taxi,Jalan Kepong,Jinjang,,,Kuala Lumpur,Kuala Lumpur,"52000",Malaysia,"Selangor Omnibus;DBKL",KL479,,,yes,
"AEON BIG Kepong, Jalan Kepong",101.6425383,3.2138638,taxi,Jalan Kepong,,,,Kuala Lumpur,Kuala Lumpur,"52100",Malaysia,,KL485,,,yes,
,101.7281281,3.2147853,taxi,Jalan Malinja,Wangsa Maju,,,Kuala Lumpur,Kuala Lumpur,"53300",Malaysia,,,,,yes,
LRT Sentul Timur,101.6952974,3.1862399,taxi,Jalan 2/48A,,,,Kuala Lumpur,Kuala Lumpur,"51000",Malaysia,Rapid KL,KL648,,,yes,
D7 Sentul,101.6921811,3.1810135,taxi,Jalan Sentul,Sentul,,,Kuala Lumpur,Kuala Lumpur,"51000",Malaysia,Rapid KL,,,,yes,
Masjid Amru Sentul,101.6981757,3.1801084,taxi,Jalan 1/48A,Sentul,,,Kuala Lumpur,Kuala Lumpur,"53200",Malaysia,Rapid KL,,,,yes,
Tanjung Manis Terminal Port,111.3374221,2.1340426,ferry_terminal,,Tanjung Manis,,,,Sarawak,,Malaysia,,,station,,,
Lawas Express Ferry Terminal,115.4114914,4.8611974,ferry_terminal,Jalan Pulau Salam,,,Lawas,,Sarawak,"98857",Malaysia,,,station,,,
Komersial Kok Lian,101.6717552,3.2027733,taxi,Jalan Ipoh,Batu,,,Kuala Lumpur,Kuala Lumpur,"51200",Malaysia,,,,,yes,
Pulau Redang (Jeti Teluk Kalong),103.0207511,5.7551168,ferry_terminal,,,,,,,,Malaysia,,,station,,,
Pulau Bidong,103.058416,5.6131012,ferry_terminal,,,,,,,,Malaysia,,,station,,,
Pulau Redang (Jeti Pelangi),103.0338728,5.7748759,ferry_terminal,,,,,,,,Malaysia,,,station,,,
Pulau Lang Tengah (Jeti Sari Pacifica),102.8921798,5.7928582,ferry_terminal,,,,,,,,Malaysia,,,station,,,
Pulau Lang Tengah (Jeti Summerbay Resort),102.8922925,5.7945888,ferry_terminal,,,,,,,,Malaysia,,,station,,,
"Taman Golden, Jalan Ipoh",101.6904041,3.1741379,taxi,Jalan Sultan Azlan Shah,Sentul,,,Kuala Lumpur,Kuala Lumpur,"51200",Malaysia,"Selangor Bus, Setara Jaya, RapidKL",KL578,,,yes,
LRT Titiwangsa,101.6959374,3.1733723,taxi,Jalan Tun Razak,Sentul,,,Kuala Lumpur,Kuala Lumpur,"50400",Malaysia,,,,,,
A,101.6909066,3.1315206,subway_entrance,Jalan Tebing,Brickfields,,,Kuala Lumpur,Kuala Lumpur,"50470",Malaysia,,A,,,,
A,101.6878032,3.1328157,subway_entrance,Jalan Tun Sambanthan,,,,Kuala Lumpur,Kuala Lumpur,"50470",Malaysia,,A,,,,
Tanjung Gemok,103.6230812,2.6580423,ferry_terminal,Jalan Sri Tanjung 1/1,Tanjung Gemok,,,,Pahang,"86900",Malaysia,,,station,,,
Pulau Labuan,115.2403825,5.27706,ferry_terminal,纳闽码头,,,,Bandar Victoria,Labuan,"87009",Malaysia,,,station,,,
Menumbok,115.3748124,5.3028908,ferry_terminal,A7,,,,,Sabah,"89760",Malaysia,,,station,,,
D,101.7094062,3.1426296,subway_entrance,Jalan Imbi,Bukit Bintang,,,Kuala Lumpur,Kuala Lumpur,"50200",Malaysia,,D,,,,
,101.7092365,3.1428571,taxi,Jalan Imbi,Bukit Bintang,,,Kuala Lumpur,Kuala Lumpur,"50200",Malaysia,,,,,,
E,101.7095249,3.1425262,subway_entrance,Jalan Imbi,Bukit Bintang,,,Kuala Lumpur,Kuala Lumpur,"50200",Malaysia,,E,,,,
B,101.7094003,3.1430137,subway_entrance,Jalan Imbi,Bukit Bintang,,,Kuala Lumpur,Kuala Lumpur,"50200",Malaysia,,B,,,,
B,101.7102446,3.1509066,subway_entrance,Jalan Sultan Ismail,Bukit Bintang,,,Kuala Lumpur,Kuala Lumpur,"50540",Malaysia,,B,,,,
C,101.7105244,3.1508352,subway_entrance,Jalan Sultan Ismail,Bukit Bintang,,,Kuala Lumpur,Kuala Lumpur,"50540",Malaysia,,C,,,,
A,101.7101502,3.1506686,subway_entrance,Jalan Tengah,Bukit Bintang,,,Kuala Lumpur,Kuala Lumpur,"50540",Malaysia,,A,,,,
,101.7045986,3.1562932,subway_entrance,Jalan Sultan Ismail,,,,Kuala Lumpur,Kuala Lumpur,"50250",Malaysia,,A,,,,
,101.7049268,3.1563885,subway_entrance,Jalan Sultan Ismail,,,,Kuala Lumpur,Kuala Lumpur,"50250",Malaysia,,B,,,no,
,101.7051278,3.1560805,subway_entrance,Jalan Sultan Ismail,,,,Kuala Lumpur,Kuala Lumpur,"50450",Malaysia,,C,,,no,
D,101.6991144,3.1593744,subway_entrance,Jalan Sultan Ismail,,,,Kuala Lumpur,Kuala Lumpur,"50300",Malaysia,,D,,,,
A,101.6982849,3.1669355,subway_entrance,Jalan Sultan Azlan Shah,Sentul,,,Kuala Lumpur,Kuala Lumpur,"50586",Malaysia,,A,,,,
B,101.6989316,3.1675595,subway_entrance,Jalan Raja Muda Abdul Aziz,Sentul,,,Kuala Lumpur,Kuala Lumpur,"50586",Malaysia,,B,,,,
A,101.6960765,3.1730738,subway_entrance,Jalan Tun Razak,Sentul,,,Kuala Lumpur,Kuala Lumpur,"50586",Malaysia,,A,,,,
Nanga Yong,112.8165422,2.0125817,ferry_terminal,Song Kapit Road,,,,,Sarawak,,Malaysia,,,station,,,
,100.3632981,5.3949917,ferry_terminal,to George Town,Bagan Dalam,,,Bandar Butterworth,Pulau Pinang,"12100",Malaysia,,,stop_position,,,
Menumbok,115.3745028,5.3026359,ferry_terminal,A7,,,,,Sabah,"89760",Malaysia,,,station,,,
Publika,101.6651972,3.1704533,taxi,Jalan Dutamas 1,Taman Duta,,,,Kuala Lumpur,"50480",Malaysia,Rapid KL,KL1023,,,limited,
Columbia Hospital,101.7184661,3.2009582,taxi,Jalan Genting Kelang,Setapak,,,Kuala Lumpur,Kuala Lumpur,"53200",Malaysia,,KL1598,,,yes,
Blok C14,101.7367726,3.2110398,taxi,Jalan 4/27A,Wangsa Maju,,,Kuala Lumpur,Kuala Lumpur,"53100",Malaysia,,KL175,,,yes,
Pusat Penjaja Seksyen 2,101.7337968,3.2115934,taxi,Jalan 4/27A,Wangsa Maju,,,Kuala Lumpur,Kuala Lumpur,"53100",Malaysia,,KL175,,,no,
Pusat Penjaja Seksyen 2,101.7325979,3.210517,taxi,Jalan 4/27A,Wangsa Maju,,,Kuala Lumpur,Kuala Lumpur,"53300",Malaysia,,KL175,,,yes,
Villa Wangsamas,101.7374242,3.1946017,taxi,Jalan Seri Wangsa 2,Wangsa Maju,,,Kuala Lumpur,Kuala Lumpur,"53300",Malaysia,,,,,no,
SK Wangsa Jaya (Opp),101.7396878,3.2052487,taxi,Jalan Wangsa Perdana 3,Wangsa Maju,,,Kuala Lumpur,Kuala Lumpur,"53300",Malaysia,,KL1620,,,no,
Komersial Wangsa Setia,101.7434977,3.2082545,taxi,Jalan Wangsa Melawati 1,Wangsa Maju,,,Kuala Lumpur,Kuala Lumpur,"53300",Malaysia,Rapid KL,KL4,,,no,
PPR Desa Rejang,101.730272,3.1913998,taxi,Jalan Rejang,Semarak,,,Kuala Lumpur,Kuala Lumpur,"54100",Malaysia,,KL716,,,no,
Desaru Coast Ferry Terminal,104.28522,1.5166952,ferry_terminal,Desaru Coast Ferry Terminal,,,,,Johor,,Malaysia,,,stop_position,,,
Maskiara Residences,101.6269816,3.1557758,taxi,Jalan Datuk Sulaiman,Taman Tun Dr Ismail,,,Kuala Lumpur,Kuala Lumpur,"60000",Malaysia,,,,,no,
Perhentian Bas/Teksi dan Gerai MDSR Renggam,103.4025234,1.8852662,bus_station,Jalan Ibrahim,,,Renggam,,Johor,"86300",Malaysia,,,station,,yes,
A,101.7087611,3.0636527,subway_entrance,Jalan Suasa 2,Sungai Besi,,,Kuala Lumpur,Kuala Lumpur,"57000",Malaysia,,A,,,yes,
B,101.6966656,3.1495984,subway_entrance,Jalan Melaka,Bukit Bintang,,,Kuala Lumpur,Kuala Lumpur,"50050",Malaysia,,B,,,,
,103.6446092,1.6005931,taxi,Jalan Persekutuan 1,Senai,,,Kulai,Johor,"81000",Malaysia,,,,,,
Terminal Kulai,103.5987608,1.6625445,bus_station,Jalan Lengkongan,,,,Kulai,Johor,"81000",Malaysia,,,station,,yes,
Terminal Taman Universiti,103.6284582,1.5382284,bus_station,Jalan Kebudayaan 21,Taman Universiti,,,Iskandar Puteri,Johor,"81310",Malaysia,,,station,,,
Terminal Gelang Patah,103.5895917,1.4467411,bus_station,Terminal Gelang Patah,,,Gelang Patah,Iskandar Puteri,Johor,"81550",Malaysia,,,station,,,
,103.681794,1.4968215,taxi,Jalan Persiaran Perling,Taman Perling,,,Iskandar Puteri,Johor,"79150",Malaysia,,,,,,
A,101.6755411,3.2051788,subway_entrance,Jalan 1/18B,,,,Kuala Lumpur,Kuala Lumpur,"51200",Malaysia,,A,,,,
Terminal Bas Kota Masai,103.9537887,1.4817955,bus_station,Jalan Tembikai 7,Taman Kota Masai,,,Pasir Gudang,Johor,"81700",Malaysia,,,station,,,
Pintu A | Pintu Utama,101.5803885,3.2064123,subway_entrance,Jalan Sungai Buloh - Subang,,,,Petaling Jaya,Selangor,"47830",Malaysia,,A,,,yes,
Pintu B | Jalan Kuala Selangor,101.5809062,3.2057282,subway_entrance,Jalan Kuala Selangor,,,,Petaling Jaya,Selangor,"47830",Malaysia,,B,,,,
A,101.5923368,3.2000096,subway_entrance,Jalan PJU 10/10E,Damansara Damai,,,Petaling Jaya,Selangor,"47830",Malaysia,,,,,,
Pintu B | Jalan Metro 2,101.6396741,3.2140816,subway_entrance,Jalan Kepong,,,Kepong,,Kuala Lumpur,"52100",Malaysia,,B,,,,
Pintu B | Jalan Besar Kepong | Pintasan Segambut,101.655764,3.208606,subway_entrance,Pintasan Segambut,Jinjang,,Kepong,,Kuala Lumpur,"52000",Malaysia,,B,,,,
Pintu C | Jalan Jinjang Permai 2,101.666194,3.2067994,subway_entrance,Jalan Kepong,Batu,,,,Kuala Lumpur,"52000",Malaysia,,C,,,yes,
Pintu B | Jalan Jambu Merah,101.666548,3.2054264,subway_entrance,Jalan Jambu Jerteh,Batu,,,,Kuala Lumpur,"52000",Malaysia,,B,,,limited,
A,101.6286093,3.2079559,subway_entrance,Jalan Kepong,,,,Petaling Jaya,Selangor,"52100",Malaysia,,,,,,
Pintu A | Jalan Kepong Jalan Metro Perdana Barat 1,101.6399277,3.2144708,subway_entrance,Jalan Kepong,,,Kepong,,Kuala Lumpur,"52100",Malaysia,,A,,,,
A,101.6489325,3.2113028,subway_entrance,Jalan Rimbunan Raya 1,Laman Rimbunan,,Kepong,,Kuala Lumpur,"52000",Malaysia,,A,,,,
C,101.6487012,3.2112522,subway_entrance,Jalan Kepong,Jinjang,,Kepong,,Kuala Lumpur,"52000",Malaysia,,C,,,,
,101.5723292,3.176684,subway_entrance,Jalan Tasik Chenderoh U4/28,,,,Shah Alam,Selangor,"47930",Malaysia,,A,,,,
B,101.7178544,3.1616584,subway_entrance,Jalan Ampang,Kampung Datuk Keramat,,,Kuala Lumpur,Kuala Lumpur,"50450",Malaysia,,B,,,,
A,101.6045094,3.1127417,subway_entrance,Lebuhraya Damansara–Puchong,Kelana Jaya,,,Petaling Jaya,Selangor,"47301",Malaysia,,,,,,
MRT Sri Damansara Barat Pintu B,101.608204,3.1986356,taxi,Persiaran Industri,Bandar Sri Damansara,,,Petaling Jaya,Selangor,"52200",Malaysia,,,,,,
,101.6210035,3.1986804,taxi,Linkway to Damansara Avenue,Bandar Sri Damansara,,,Petaling Jaya,Selangor,"52200",Malaysia,,,,,,
,101.6284719,3.2077355,taxi,Jalan Kepong,,,,Petaling Jaya,Selangor,"52100",Malaysia,,,,,,
Kampung Air Taxi Station,116.073835,5.979117,taxi,Jalan Tugu,,,,Kota Kinabalu,Sabah,"88675",Malaysia,,,,,,
C,101.6844092,3.1795286,subway_entrance,Jalan Sultan Azlan Shah,,,,Kuala Lumpur,Kuala Lumpur,"51000",Malaysia,,C,,,yes,
B,101.6851874,3.1785215,subway_entrance,Jalan Sultan Azlan Shah,,,,Kuala Lumpur,Kuala Lumpur,"51000",Malaysia,,B,,,yes,
Pintu B | Jalan Sultan Azlan Shah (Taman Kaya),101.681422,3.1895909,subway_entrance,Lengkok Cumarasami,Sentul,,,Kuala Lumpur,Kuala Lumpur,"51100",Malaysia,,B,,,no,
,101.6956044,3.1859324,subway_entrance,Jalan 2/48A,,,,Kuala Lumpur,Kuala Lumpur,"51000",Malaysia,,,,,,
A,101.695385,3.1854636,subway_entrance,Jalan 2/48A,,,,Kuala Lumpur,Kuala Lumpur,"51000",Malaysia,,A,,,,
A,101.7072341,3.0285907,subway_entrance,Jalan Utama,,,Seri Kembangan,Majlis Bandaraya Subang Jaya,Selangor,"43300",Malaysia,,A,,,,
A,101.7047318,3.0416764,subway_entrance,Jalan Utama,,,Seri Kembangan,Majlis Bandaraya Subang Jaya,Selangor,"43300",Malaysia,,A,,,,
Kiosk @ Teksi Kajang,101.7897504,2.9916973,taxi,Jalan Dato Nazir,,,,Majlis Perbandaran Kajang,Selangor,"43000",Malaysia,,,,,,
,101.655923,3.2094494,taxi,Jalan Kepong,Jinjang,,Kepong,,Kuala Lumpur,"52000",Malaysia,,,,,,
,101.6657194,3.2072457,taxi,Jalan Kepong,Batu,,,,Kuala Lumpur,"52000",Malaysia,,,,,,
C,101.6658468,3.207186,subway_entrance,Jalan Kepong,Batu,,,,Kuala Lumpur,"52000",Malaysia,,C,,,,
,101.6664407,3.2054189,taxi,Jalan Jambu Merah,Batu,,,,Kuala Lumpur,"52000",Malaysia,,,,,,
,101.6488604,3.2114196,taxi,Jalan Rimbunan Raya 1,Laman Rimbunan,,Kepong,,Kuala Lumpur,"52000",Malaysia,,,,,,
A,101.613442,3.0227412,subway_entrance,Lebuhraya Damansara–Puchong,Bandar Puteri Puchong,,Puchong,Majlis Bandaraya Subang Jaya,Selangor,"47160",Malaysia,,,,,,
A,101.6871067,3.0611094,subway_entrance,Lebuhraya Maju,Sri Petaling,,,,Kuala Lumpur,"57000",Malaysia,,A,,,,
A,101.715929,3.1288205,subway_entrance,Jalan Chan Sow Lin,Pudu,,,Kuala Lumpur,Kuala Lumpur,"55200",Malaysia,,A,,,,
,101.9102918,3.5217824,taxi,"8",,,,Bentong,Pahang,"29700",Malaysia,,,,,,
Sembulan,116.0685965,5.9589162,halt,Jalan Maktab Sabah,,,,,Sabah,"88595",Malaysia,,,halt,,,
B,101.7361181,3.1760297,subway_entrance,Jalan Jelatek,,Ulu Kelang,,Majlis Perbandaran Ampang Jaya,Selangor,"54100",Malaysia,,B,,,,
A,101.7357293,3.1758808,subway_entrance,Jalan Jelatek,,Ulu Kelang,,Majlis Perbandaran Ampang Jaya,Selangor,"54100",Malaysia,,A,,,,
,101.735265,3.1756716,subway_entrance,Lebuhraya SPE,Kampung Pandan,Ulu Kelang,,Majlis Perbandaran Ampang Jaya,Selangor,"68000",Malaysia,,C,,,,
Terminal Teksi Pekan Ranau,116.6641425,5.9534524,taxi,Jalan Pekan,,,Ranau,,Sabah,"89307",Malaysia,,,,,,
Terminal Kereta Sewa Ranau - Kota Kinabalu,116.6653792,5.954031,taxi,Jalan Lintas,,,Ranau,,Sabah,"89307",Malaysia,,,,,,
Butterworth,100.366572,5.3933618,station,Butterworth - Penang Sentral Pedestrian Bridge,Bagan Dalam,,,Bandar Butterworth,Pulau Pinang,"12100",Malaysia,KTM,,station,train,yes,"KTM Intercity;KTM ETS"
,116.1542451,5.3350909,bus_station,Lorong Tun Ahmad Koroh 1,Pekan Keningau,,,Keningau,Sabah,"88900",Malaysia,,,station,,,
,116.1525748,5.3367619,bus_station,Lorong Pasar,Pekan Keningau,,,Keningau,Sabah,"89000",Malaysia,,,station,,,
,115.942025,5.122382,bus_station,Jalan Keningau-Tenom,,,Tenom,,Sabah,"89900",Malaysia,,,station,,,
,115.9443575,5.1231392,bus_station,Jalan Toh Puan Hajjah Kusnah,,,Tenom,,Sabah,"89900",Malaysia,,,station,,,
,101.6755932,3.0582978,taxi,Jalan Jalil Perkasa 11,Bukit Jalil,,,,Kuala Lumpur,"57000",Malaysia,,,,,,
Taman Negara Tour Counter,102.3588902,3.9336941,bus_station,Jalan Besar,,,Jerantut,,Pahang,,Malaysia,,,station,,,
Perhentian Bas Melalap-Tenom,115.9431244,5.1239222,bus_station,Jalan Toh Puan Hajjah Kusnah,,,Tenom,,Sabah,"89900",Malaysia,,,station,,,
Terminal Persatuan Bas Mini Biah,116.1523222,5.3330584,bus_station,Lorong Padang,Pekan Keningau,,,Keningau,Sabah,"88900",Malaysia,,,station,,,
,101.6485848,3.1876902,taxi,Jalan 30/38A,,,,,Kuala Lumpur,"52200",Malaysia,,,,,,
,101.7430372,3.1775739,taxi,Jalan Setiawangsa 10,Setiawangsa,,,Kuala Lumpur,Kuala Lumpur,"54200",Malaysia,,,,,,
,118.1154256,5.8383295,taxi,Lebuh Dua,Bandar Sandakan,,,Sandakan,Sabah,"90008",Malaysia,,,,,,
E,101.6989191,3.1594579,subway_entrance,Medan Tuanku LRT Station To Quill City Mall,,,,Kuala Lumpur,Kuala Lumpur,"50300",Malaysia,,E,,,,
C,101.6964976,3.1491253,subway_entrance,Jalan Benteng,Bukit Bintang,,,Kuala Lumpur,Kuala Lumpur,"50050",Malaysia,,C,,,,
A,101.6230225,3.1049369,subway_entrance,Jalan 21/1,,,,Petaling Jaya,Selangor,"46300",Malaysia,,,,,,
,101.2170773,3.3957136,taxi,Jalan Kuala Selangor-Teluk Intan,,,,Kuala Selangor,Selangor,"45500",Malaysia,,,,,,
,102.6644991,4.5310168,pier,,,,,,Pahang,"27020",Malaysia,,,,,,
,101.6969194,3.1499335,subway_entrance,Jalan Melaka,Bukit Bintang,,,Kuala Lumpur,Kuala Lumpur,"50050",Malaysia,,,,,,
,114.8121229,4.0423149,ferry_terminal,Night Walk Loop,,,Mulu,,Sarawak,"98008",Malaysia,,,stop_position,,,
Batu Rikan,114.9065101,4.1869733,pier,Headhunter's Trail,,,,,Sarawak,,Malaysia,,,,,,
,101.7513862,3.1023341,taxi,Jalan 6/95B,Cheras,Ampang,,Majlis Perbandaran Ampang Jaya,Kuala Lumpur,"55300",Malaysia,,,,,,
,103.0504207,2.0071234,bus_station,Jalan Muar-Yong Peng,,,Yong Peng,,Johor,"83700",Malaysia,,,station,,,
,101.6882794,3.0531519,taxi,Jalan Barat,Bukit Jalil,,,,Kuala Lumpur,"57000",Malaysia,,,,,,
B,101.7057771,3.0431699,subway_entrance,Lebuhraya Kuala Lumpur–Seremban,,,Seri Kembangan,Majlis Bandaraya Subang Jaya,Selangor,"43300",Malaysia,,B,,,,
,101.7077539,3.0295622,subway_entrance,Jalan SP 2/9,Serdang Perdana,,Seri Kembangan,Majlis Bandaraya Subang Jaya,Selangor,"43300",Malaysia,,B,,,,
Pintu B | Jalan Binjai,101.7183643,3.1574126,subway_entrance,Persiaran KLCC,Bukit Bintang,,,Kuala Lumpur,Kuala Lumpur,"50450",Malaysia,,B,,,yes,
,101.7859104,2.993788,taxi,Jalan Hishamuddin,,,,Majlis Perbandaran Kajang,Selangor,"43000",Malaysia,,,,,,
Pintu A | Jalan Reko,101.7900849,2.9829814,subway_entrance,Jalan Reko,,,,Majlis Perbandaran Kajang,Selangor,"43000",Malaysia,,A,,,yes,
Perhentian Teksi,101.4503134,3.2078856,taxi,Jalan Fakulti,,,Bandar Puncak Alam,,Selangor,"42300",Malaysia,,,,,,
Pintu C | Leisure Mall,101.7407272,3.0910858,subway_entrance,Jalan Cheras,Cheras,,,,Kuala Lumpur,"56100",Malaysia,,C,,,no,
B,101.660675,2.9835803,subway_entrance,Jalan Putra Permai,Putra Permai,,,Majlis Bandaraya Subang Jaya,Selangor,"47110",Malaysia,,B,,,,
,101.7144707,2.9690959,taxi,IOI City Mall Underground Car Park,IOI Resort City,,,Sepang,Selangor,"62502",Malaysia,,,,,,
,101.7156687,2.968911,taxi,IOI City Mall Underground Car Park,IOI Resort City,,,Sepang,Selangor,"62502",Malaysia,,,,,,
,101.7167092,2.9689213,taxi,IOI City Mall Underground Car Park,IOI Resort City,,,Sepang,Selangor,"62502",Malaysia,,,,,,
,101.7113941,2.9695828,taxi,IOI City Mall Underground Car Park,IOI Resort City,,,Sepang,Selangor,"62502",Malaysia,,,,,,
A,101.6958928,3.1737287,subway_entrance,Jalan Tun Razak,Sentul,,,Kuala Lumpur,Kuala Lumpur,"50586",Malaysia,,A,,,,
B,101.6972538,3.1741978,subway_entrance,Jalan Tun Razak,Sentul,,,Kuala Lumpur,Kuala Lumpur,"50586",Malaysia,,B,,,,
A,101.7006824,3.1730906,subway_entrance,Jalan Tun Razak,Sentul,,,Kuala Lumpur,Kuala Lumpur,"50586",Malaysia,,A,,,,
B,101.7023686,3.1740579,subway_entrance,Jalan Kuantan,Sentul,,,Kuala Lumpur,Kuala Lumpur,"50586",Malaysia,,B,,,,
D,101.7124702,3.167741,subway_entrance,Jalan Raja Muda Abdul Aziz,,,,Kuala Lumpur,Kuala Lumpur,"50572",Malaysia,,D,,,,
A,101.7099059,3.1677008,subway_entrance,Jalan Raja Muda Abdul Aziz,,,,Kuala Lumpur,Kuala Lumpur,"50572",Malaysia,,A,,,,
B,101.7097873,3.1681411,subway_entrance,Jalan Raja Muda Abdul Aziz,,,,Kuala Lumpur,Kuala Lumpur,"50572",Malaysia,,B,,,,
A,101.7181625,3.1625902,subway_entrance,Jalan Tun Razak,Kampung Datuk Keramat,,,Kuala Lumpur,Kuala Lumpur,"50450",Malaysia,,A,,,,
Pintu C | Jalan Binjai,101.7180637,3.1569891,subway_entrance,Persiaran KLCC,Bukit Bintang,,,Kuala Lumpur,Kuala Lumpur,"50450",Malaysia,,C,,,yes,
C,101.714978,3.1269192,subway_entrance,Jalan Chan Sow Lin,Pudu,,,Kuala Lumpur,Kuala Lumpur,"55200",Malaysia,,C,,,,
A,101.7165731,3.1285816,subway_entrance,Lebuhraya SPE,Maluri,,,Kuala Lumpur,Kuala Lumpur,"55200",Malaysia,,A,,,,
B,101.7181983,3.150151,subway_entrance,Jalan Conlay,Bukit Bintang,,,Kuala Lumpur,Kuala Lumpur,"55100",Malaysia,,B,,,,
A,101.7184289,3.1517688,subway_entrance,Jalan Kia Peng,Bukit Bintang,,,Kuala Lumpur,Kuala Lumpur,"55100",Malaysia,,A,,,yes,
B,101.7161066,3.1275982,subway_entrance,Lebuhraya SPE,Maluri,,,Kuala Lumpur,Kuala Lumpur,"55200",Malaysia,,B,,,,
C,101.7458433,3.0774808,subway_entrance,Jalan 3/144A,Cheras,,,,Kuala Lumpur,"56000",Malaysia,,C,,,,
MRT Kentonmen Pintu A,101.6807217,3.1966615,taxi,Jalan Batu Kentonmen,Batu,,,Kuala Lumpur,Kuala Lumpur,"51200",Malaysia,,,,,yes,
Terminal Teksi Johor Bahru ke Singapura,103.7652707,1.4608473,taxi,Jalan Tun Abdul Razak,,,,Johor Bahru,Johor,"80730",Malaysia,,,,,,
Johor Bahru City Square,103.7644181,1.4616695,taxi,City Square,,,,Johor Bahru,Johor,"80730",Malaysia,,,,,,
JB Sentral,103.7642826,1.4625919,taxi,JB Sentral,,,,Johor Bahru,Johor,"80730",Malaysia,,,,,no,
Hotel Promenade Taxi Request,116.0686938,5.9756267,taxi,Lorong Api Api 3,,,,,Sabah,"88823",Malaysia,,,,,,
,101.7478004,3.1031702,taxi,Jalan Ketumbar,Cheras,,,,Kuala Lumpur,"56100",Malaysia,,,,,,
,101.6706375,2.9315977,taxi,Jalan P7 B,,,,Putrajaya,Putrajaya,"62250",Malaysia,,,,,,
Kinarut,116.043862,5.8240045,station,Jalan Kinarut Township,,,Kinarut,,Sabah,"89600",Malaysia,SSR,,station,train,yes,
,116.1551973,5.3385195,taxi,Jalan OKK Sodomon,Pekan Keningau,,,Keningau,Sabah,"88900",Malaysia,Persatuan Pengangkutan Perkhidamatan Kereta Sewa Keningau Sabah (PERPEKSA),,,,,
KML Transport Sdn Bhd Myhighst,101.9746557,2.6906284,ferry_terminal,Persiaran Senawang 1,Senawang,,,Seremban,Negeri Sembilan,"70450",Malaysia,,,station,,,
Hab Lebuh Pudu (LP),101.6980609,3.1470718,bus_station,Lebuh Pudu,Bukit Bintang,,,Kuala Lumpur,Kuala Lumpur,"50050",Malaysia,"KR Travel & Tours;Selangor Omnibus",KL1565,station,,,
A,101.7090959,3.0213387,subway_entrance,Jalan Raya 1,,,Seri Kembangan,Majlis Bandaraya Subang Jaya,Selangor,"43300",Malaysia,,A,,,,
B,101.7087929,3.0214876,subway_entrance,Jalan Raya 1,,,Seri Kembangan,Majlis Bandaraya Subang Jaya,Selangor,"43300",Malaysia,,B,,,,
Hab Lebuh Pudu (TSS),101.6983168,3.1463117,bus_station,Jalan Tun Tan Siew Sin,Bukit Bintang,,,Kuala Lumpur,Kuala Lumpur,"50050",Malaysia,Rapid KL,KL101,station,,,
Pudu Sentral,101.7009751,3.145553,bus_station,Jalan Pudu,Bukit Bintang,,,Kuala Lumpur,Kuala Lumpur,"50150",Malaysia,"TM-KL;StarMart;Suasana Edaran;SPT",,station,,,
Hentian Kereta Sewa Persatuan Pemandu-Pemandu Kereta Sewa Rawang,101.5755947,3.3210337,taxi,Jalan Maxwell,,,Rawang,Majlis Perbandaran Selayang,Selangor,"48000",Malaysia,,,,,,
,101.6668793,3.1177205,taxi,Jalan Pantai Baharu,,,,Kuala Lumpur,Kuala Lumpur,"50614",Malaysia,,,,,,
Pintu A | Off Jalan Sapucaya,101.706199,3.0086059,subway_entrance,Jalan Sapucaya,Seri Serdang,,Seri Kembangan,Majlis Bandaraya Subang Jaya,Selangor,"43400",Malaysia,,A,,,,
A,101.661231,2.9833139,subway_entrance,Jalan Atmosphere 7,Putra Permai,,,Majlis Bandaraya Subang Jaya,Selangor,"47110",Malaysia,,A,,,,
B,101.6545593,2.9650184,subway_entrance,Persiaran Sierra Utama,Bandar 16 Sierra,,,Sepang,Selangor,"62300",Malaysia,,B,,,,
Pintu A | Off Persiaran APEC,101.6653737,2.9395168,subway_entrance,Persiaran APEC,,,Cyberjaya,Sepang,Selangor,"61250",Malaysia,,A,,,yes,
Pintu A | Jalan Sultan Azlan Shah (Kompleks Mutiara),101.6806186,3.1897855,subway_entrance,Jalan Ipoh,Batu,,,Kuala Lumpur,Kuala Lumpur,"51200",Malaysia,,A,,,,
Petronas Ayer Hitam (express bus pick-up),103.1883147,1.9336539,bus_station,Jalan Batu Pahat,,,Ayer Hitam,,Johor,"86100",Malaysia,,,station,,,
Chicha Tinggi,102.1419499,5.996361,station,D187,,,,,Kelantan,"17070",Malaysia,Keretapi Tanah Melayu,,station,,,KTM Intercity
Sungai Keladi,102.1561986,5.9177852,station,Jalan Pasir Mas - Tanah Merah,,,,,Kelantan,"17060",Malaysia,Keretapi Tanah Melayu,,station,,,KTM Intercity
Mentara Baru,102.0106563,4.7306371,station,"8",,,,,Pahang,,Malaysia,Keretapi Tanah Melayu,,station,,,KTM Intercity
B,101.6724086,2.9898661,subway_entrance,Jalan Putra Permai,Putra Permai,,,Majlis Bandaraya Subang Jaya,Selangor,"62300",Malaysia,,B,,,,
,101.6546677,2.9653435,taxi,Persiaran Sierra Utama,Bandar 16 Sierra,,,Sepang,Selangor,"47110",Malaysia,,,,,,
,101.6568617,2.9503887,taxi,Persiaran APEC,,,Cyberjaya,Sepang,Selangor,"63200",Malaysia,,,,,,
Pintu B | Jalan P7B,101.6717395,2.9317531,subway_entrance,Jalan P7 B,,,,Putrajaya,Putrajaya,"62250",Malaysia,,B,,,,
A,101.6727608,2.9891003,subway_entrance,Jalan PP 40,Putra Permai,,,Majlis Bandaraya Subang Jaya,Selangor,"62300",Malaysia,,A,,,,
A,101.6996604,3.0771713,subway_entrance,Jalan Naga Emas,Sri Petaling,,,,Kuala Lumpur,"57000",Malaysia,,A,,,,
Pintu C | Jalan Sultan Azlan Shah (ke Kentonmen),101.6801389,3.1905574,subway_entrance,Jalan Ipoh,Batu,,,Kuala Lumpur,Kuala Lumpur,"51200",Malaysia,,C,,,,
,101.664149,3.1164408,taxi,Jalan Pantai Jaya,,,,Kuala Lumpur,Kuala Lumpur,"50614",Malaysia,,,,,,
,101.7110489,3.0771672,taxi,Pintasan PPR Seri Malaysia–Terminal Bersepadu Selatan,Bandar Tun Razak,,,Kuala Lumpur,Kuala Lumpur,"57100",Malaysia,,,,,,
Pintu A | Off Jalan Kuchai Lama,101.6938877,3.0896471,subway_entrance,Jalan Kuchai Lama,Kuchai Lama,,,,Kuala Lumpur,"58100",Malaysia,,A,,,yes,
,101.6454638,3.1038599,subway_entrance,Persiaran Barat,PJ State,,,Petaling Jaya,Selangor,"46661",Malaysia,,,,,,
Pintu E,101.6952265,3.1424831,subway_entrance,Jalan Sultan Mohamed,,,,Kuala Lumpur,Kuala Lumpur,"50000",Malaysia,,E,,,,
,101.7121408,3.1347568,subway_entrance,Jalan Sarawak,Pudu,,,Kuala Lumpur,Kuala Lumpur,"55720",Malaysia,,,,,,
Pintu C,101.6955989,3.1425051,subway_entrance,Jalan Sultan Mohamed,,,,Kuala Lumpur,Kuala Lumpur,"50000",Malaysia,,C,,,,
Pintu D,101.6952723,3.1430072,subway_entrance,Jalan Sultan Mohamed,,,,Kuala Lumpur,Kuala Lumpur,"50000",Malaysia,,D,,,,
,101.2548397,3.3299143,taxi,Jalan Melati 3/21,,,,Kuala Selangor,Selangor,"45000",Malaysia,,,,,,
,101.6453373,3.1035072,taxi,Lorong Sultan,Seksyen 52,,,Petaling Jaya,Selangor,"46200",Malaysia,,,,,,
A,101.6620724,3.1146593,subway_entrance,KL Gateway - Universiti LRT Link Bridge,Pantai Dalam,,,Kuala Lumpur,Kuala Lumpur,"59200",Malaysia,,A,,,,
,101.662096,3.1145737,subway_entrance,KL Gateway - Universiti LRT Link Bridge,Pantai Dalam,,,Kuala Lumpur,Kuala Lumpur,"59200",Malaysia,,,,,,
C,101.6877622,3.1328275,subway_entrance,Jalan Tun Sambanthan,,,,Kuala Lumpur,Kuala Lumpur,"50470",Malaysia,,C,,,,
,101.7183799,3.1579278,taxi,Jalan Binjai,Kampung Datuk Keramat,,,Kuala Lumpur,Kuala Lumpur,"50450",Malaysia,,,,,,
,101.6960617,3.1640754,taxi,Jalan Raja Laut,Sentul,,,Kuala Lumpur,Kuala Lumpur,"50350",Malaysia,,,,,,
Hentian Teksi Bandar Klang,101.4492904,3.0472473,taxi,Jalan Pos Baharu,,,,Bandaraya Klang,Selangor,"41400",Malaysia,,,,,,
,101.7087754,3.0637566,taxi,Jalan Suasa 2,Sungai Besi,,,Kuala Lumpur,Kuala Lumpur,"57000",Malaysia,,,,,,
A,101.657258,2.9497304,subway_entrance,Persiaran APEC,,,Cyberjaya,Sepang,Selangor,"63200",Malaysia,,A,,,,
D,101.6954352,3.1732301,taxi,Jalan Pahang Barat,Sentul,,,Kuala Lumpur,Kuala Lumpur,"50586",Malaysia,,,,,,
D,101.6952256,3.1732229,subway_entrance,Jalan Tun Razak,Sentul,,,Kuala Lumpur,Kuala Lumpur,"50586",Malaysia,,D,,,,
,101.7314919,3.165189,subway_entrance,Lebuhraya Bertingkat Ampang - Kuala Lumpur,Kampung Datuk Keramat,,,Kuala Lumpur,Kuala Lumpur,"50538",Malaysia,,,,,,
,101.7404658,3.0920545,taxi,Jalan Mutiara Timur,Cheras,,,,Kuala Lumpur,"56100",Malaysia,,,,,,
Terminal Bas Mersing,103.8325757,2.4308927,bus_station,Jalan Jeti,,,Mersing,,Johor,"86800",Malaysia,,,,,,
,101.2797081,3.0389492,ferry_terminal,浮罗吉胆头条港 拿督周远通 ASA 拿汀王御环 桥,,,,Bandaraya Klang,Selangor,"42940",Malaysia,,,station,,,
,101.7529452,3.1382756,subway_entrance,Jalan Pandan Indah 6,Pandan Indah,Ampang,,Majlis Perbandaran Ampang Jaya,Selangor,"51500",Malaysia,,,,,,
Boelevard Transit Point,110.3356224,1.509813,bus_station,Jalan Datuk Tawi Sli,,,,Kuching,Sarawak,"93000",Malaysia,,,,,,
Ulu Temiang,102.1567552,5.3077888,station,D66,,,,,Kelantan,"18000",Malaysia,Keretapi Tanah Melayu,,station,,,KTM Intercity
Kampung Baru Bukit Abu,102.1214878,5.3296837,station,D66,,,,,Kelantan,,Malaysia,Keretapi Tanah Melayu,,station,,,KTM Intercity
Bukit Abu,102.0851022,5.3722173,station,D66,,,,,Kelantan,,Malaysia,Keretapi Tanah Melayu,,station,train,,KTM Intercity
Sri Jaya,102.0095209,5.2682411,station,D233,,,,,Kelantan,,Malaysia,Keretapi Tanah Melayu,,station,,,KTM Intercity
Kemubu,102.0201185,5.3000846,station,D233,,,,,Kelantan,,Malaysia,Keretapi Tanah Melayu,,station,,,KTM Intercity
"Express Bus Counters (GJG, Billion Star, Super Nice)",100.3307787,5.4147066,bus_station,Jalan Ria,Central George Town,,,George Town,Pulau Pinang,"10000",Malaysia,,,station,,,
,103.6243203,1.5506618,bus_station,Persiaran Pulai Utama,,,,Iskandar Puteri,Johor,"81300",Malaysia,,,station,,,
,101.6717702,3.2354139,taxi,Jalan Ipoh,,,,Kuala Lumpur,Kuala Lumpur,"68100",Malaysia,,,,,,
,101.6966643,3.1568544,taxi,Jalan Dang Wangi,Bukit Bintang,,,Kuala Lumpur,Kuala Lumpur,"50100",Malaysia,,,,,,
,101.6983695,3.1551474,taxi,Jalan Munshi Abdullah,Bukit Bintang,,,Kuala Lumpur,Kuala Lumpur,"50100",Malaysia,,,,,,
,100.5580623,5.3708487,taxi,Jalan Belibis,,,,Kulim,Kedah,"09000",Malaysia,,,,,,
,100.5428429,5.286598,bus_station,Jalan PJS 5,,,,Kulim,Kedah,"14120",Malaysia,,,station,,,
aisa City pickup and drop of points,116.0714131,5.9759401,bus_station,Jalan Coastal drop off point,,,,Kota Kinabalu,Sabah,"88000",Malaysia,,,station,,,
A,101.7061295,3.1021458,subway_entrance,Jalan Besar,Salak Selatan,,,,Kuala Lumpur,"51020",Malaysia,,A,,,,
B,101.7064632,3.1020261,subway_entrance,Jalan Sri Permaisuri 10,Bandar Sri Permaisuri,,,,Kuala Lumpur,"51020",Malaysia,,B,,,,
Genting Taxi,101.700409,3.1456796,taxi,Jejantas Pudu Sentral,Bukit Bintang,,,Kuala Lumpur,Kuala Lumpur,"50000",Malaysia,,,,,,
Tropicana Gardens Mall,101.5939259,3.1494167,subway_entrance,Persiaran Surian,,,,Petaling Jaya,Selangor,"47810",Malaysia,,,,,,
,101.6933961,3.166758,subway_entrance,Laluan Pingir Sungai,Sentul,,,Kuala Lumpur,Kuala Lumpur,"50586",Malaysia,,,,,,
,101.6937307,3.167009,subway_entrance,Jalan Putra,Sentul,,,Kuala Lumpur,Kuala Lumpur,"50350",Malaysia,,,,,,
,101.6962758,3.1493952,subway_entrance,Jalan Tun Perak,Bukit Bintang,,,Kuala Lumpur,Kuala Lumpur,"50050",Malaysia,,,,,,
Sandakan Central,118.0960931,5.8658898,bus_station,Jalan Lintas Utara,Batu 2 1/2,,,Sandakan,Sabah,"90000",Malaysia,,,,,,
,101.728153,3.1605382,taxi,Jalan Ampang,Kampung Datuk Keramat,,,Kuala Lumpur,Kuala Lumpur,"50538",Malaysia,,,,,,
,101.6775236,3.1194976,taxi,To North Court Mid Valley,Seputeh,,,Kuala Lumpur,Kuala Lumpur,"50614",Malaysia,,,,,,
,101.6969024,3.1425434,taxi,Jalan Sultan,Bukit Bintang,,,Kuala Lumpur,Kuala Lumpur,"50000",Malaysia,,,,,,
Jalan Raja Abdullah,101.7017337,3.1568796,subway_entrance,AKLEH,Kampung Bharu,,,Kuala Lumpur,Kuala Lumpur,"50300",Malaysia,,,,,,
,101.6941597,3.1613493,subway_entrance,Jalan Sultan Ismail,,,,Kuala Lumpur,Kuala Lumpur,"50730",Malaysia,,,,,,
Dyana Line,118.3196513,5.0216344,bus_station,Lorong Renofajar 13,,,Lahad Datu,,Sabah,"91100",Malaysia,,,,,,
Amin Jaya Express,118.3196405,5.0216591,bus_station,Lorong Renofajar 13,,,Lahad Datu,,Sabah,"91100",Malaysia,,,,,,
Sabariah Express,118.3196003,5.021742,bus_station,Lorong Renofajar 13,,,Lahad Datu,,Sabah,"91100",Malaysia,,,,,,
Salam Bumimas Express,118.3195869,5.0217653,bus_station,Lorong Renofajar 13,,,Lahad Datu,,Sabah,"91100",Malaysia,,,,,,
Sri Mutiara Express,118.3195534,5.0218415,bus_station,Lorong Renofajar 12,,,Lahad Datu,,Sabah,"91100",Malaysia,,,,,,
Tung Ma Express,118.3195413,5.0218682,bus_station,Lorong Renofajar 12,,,Lahad Datu,,Sabah,"91100",Malaysia,,,,,,
TransTedar,118.3199389,5.0210506,bus_station,Lorong Renofajar 13,,,Lahad Datu,,Sabah,"91100",Malaysia,,,,,,
Sairah Express,118.3199523,5.0210145,bus_station,Lorong Renofajar 13,,,Lahad Datu,,Sabah,"91100",Malaysia,,,,,,
Sentosa Express (SENEX),118.3199906,5.020933,bus_station,Lorong Renofajar 13,,,Lahad Datu,,Sabah,"91100",Malaysia,,,,,,
Chin's Express,118.3200093,5.0209037,bus_station,Lorong Renofajar 13,,,Lahad Datu,,Sabah,"91100",Malaysia,,,,,,
Transport to KK,116.6655799,5.9534887,bus_station,Jalan Lintas,,,Ranau,,Sabah,"89307",Malaysia,,,,,,
,102.2223987,5.4972801,bus_station,Jalan Kota Bharu – Gua Musang,,,,,Kelantan,,Malaysia,,,station,,,
,102.2226282,5.4972839,bus_station,Jalan Kota Bharu – Gua Musang,,,,,Kelantan,,Malaysia,,,station,,,
A,101.6381934,3.1044109,subway_entrance,Jalan 51A/223,,,,Petaling Jaya,Selangor,"46100",Malaysia,,,,,,
,101.7985863,2.802208,taxi,Jalan Terminal Nilai 1,,,Nilai,,Negeri Sembilan,"71800",Malaysia,,,,,,
,101.724531,3.1604284,taxi,Jalan Ampang,Kampung Datuk Keramat,,,Kuala Lumpur,Kuala Lumpur,"50450",Malaysia,,,,,,
,101.7168783,3.1605928,taxi,Jalan Ampang,Kampung Datuk Keramat,,,Kuala Lumpur,Kuala Lumpur,"50450",Malaysia,,,,,,
,101.699289,3.1562958,taxi,Jalan Munshi Abdullah,,,,Kuala Lumpur,Kuala Lumpur,"50100",Malaysia,,,,,,
,101.754692,3.1819607,taxi,Jalan 1/56,Setiawangsa,,,Kuala Lumpur,Kuala Lumpur,"54200",Malaysia,,,,,,
Jeti Taman Negara Bako,110.4468161,1.7195649,ferry_terminal,Tangung Sapi Trail,,,,,Sarawak,,Malaysia,,,,,,
A,101.6956213,3.1782211,subway_entrance,Jalan 2/48A,Sentul,,,Kuala Lumpur,Kuala Lumpur,"51000",Malaysia,,A,,,,
B,101.6958898,3.1783263,subway_entrance,Jalan 2/48A,Sentul,,,Kuala Lumpur,Kuala Lumpur,"51000",Malaysia,,B,,,,
,100.3694141,6.1137111,taxi,Jalan Stesyen,,,,Alor Setar,Kedah,"05640",Malaysia,,,,,,
Bawong Sentral,101.1389106,4.9928003,bus_station,A19,,,,,Perak,,Malaysia,,,station,,,
,101.6945443,3.155414,subway_entrance,Jalan Kuching (Selatan),,,,Kuala Lumpur,Kuala Lumpur,"50730",Malaysia,,,,,,
,101.6945761,3.1556141,subway_entrance,Jalan Kuching (Selatan),,,,Kuala Lumpur,Kuala Lumpur,"50730",Malaysia,,,,,,
,101.6947209,3.1555269,subway_entrance,Jalan Raja Laut,,,,Kuala Lumpur,Kuala Lumpur,"50350",Malaysia,,,,,,
,100.3998666,5.3776097,taxi,Jalan Perai Jaya 1,Seberang Jaya,,,Bukit Mertajam,Pulau Pinang,"14000",Malaysia,,,,,,
,100.3438952,5.4131567,ferry_terminal,Motorcylcle lane,Central George Town,,,George Town,Pulau Pinang,"10300",Malaysia,,,stop_position,,,
,101.696485,3.1500716,subway_entrance,Jalan Melayu,Bukit Bintang,,,Kuala Lumpur,Kuala Lumpur,"50050",Malaysia,,,,,,
,101.6964161,3.1496995,subway_entrance,Jalan Tun Perak,Bukit Bintang,,,Kuala Lumpur,Kuala Lumpur,"50050",Malaysia,,,,,,
Oval Damansara,101.6312766,3.1317599,taxi,Damansara Link,,,,Kuala Lumpur,Kuala Lumpur,"47308",Malaysia,,,,,,
,101.6854555,3.1338155,taxi,ERL Departure,,,,Kuala Lumpur,Kuala Lumpur,"50470",Malaysia,,,,,,
,101.7241724,3.1646113,subway_entrance,Lebuhraya Bertingkat Ampang - Kuala Lumpur,Kampung Datuk Keramat,,,Kuala Lumpur,Kuala Lumpur,"54000",Malaysia,,,,,yes,
,101.7247658,3.1646112,taxi,Jalan Datuk Keramat,Kampung Datuk Keramat,,,Kuala Lumpur,Kuala Lumpur,"54000",Malaysia,,,,,,
,101.7181484,3.15703,taxi,Persiaran KLCC,Bukit Bintang,,,Kuala Lumpur,Kuala Lumpur,"50450",Malaysia,,,,,,
,101.6057262,3.0077199,subway_entrance,Persiaran Puchong Perdana,Puchong Perdana,,,Majlis Bandaraya Subang Jaya,Selangor,"47150",Malaysia,,B,,,,
,101.6050701,3.0079737,subway_entrance,Persiaran Puchong Perdana,Puchong Perdana,,,Majlis Bandaraya Subang Jaya,Selangor,"47150",Malaysia,,A,,,,
,101.6050351,3.1126916,subway_entrance,Lebuhraya Damansara–Puchong,Kelana Jaya,,,Petaling Jaya,Selangor,"47301",Malaysia,,,,,,
,102.0939153,2.5913053,taxi,Jalan Dato’ Undang,,,Rembau,,Negeri Sembilan,"71300",Malaysia,,,,,,
Perhentian Bas Rembau,102.0936721,2.5914703,bus_station,Jalan Dato’ Undang,,,Rembau,,Negeri Sembilan,"71300",Malaysia,,,station,,,
,101.7235799,3.1318192,taxi,Jalan Shelley,Maluri,,,Kuala Lumpur,Kuala Lumpur,"50988",Malaysia,,,,,,
Sri Bintang,102.0102734,5.2306795,station,D233,,,,,Kelantan,,Malaysia,Keretapi Tanah Melayu,,station,,,KTM Intercity
,101.7013943,3.1447429,subway_entrance,Jalan Pudu,Bukit Bintang,,,Kuala Lumpur,Kuala Lumpur,"50150",Malaysia,,,,,,
,101.6633646,3.0617791,subway_entrance,Jalan 4/155,Taman OUG,,,,Kuala Lumpur,"47180",Malaysia,,,,,,
A,101.6623773,3.0620618,subway_entrance,Jalan 4/155,Taman OUG,,,,Kuala Lumpur,"47180",Malaysia,,A,,,,
Hab Bas Padang Besar,100.3210987,6.6613818,bus_station,Jalan Kangar-Padang Besar,,,Padang Besar,,Perlis,"02100",Malaysia,myBas,,station,,,
Terminal Bas Bagan Datuk (Sementara),100.7874402,3.9920309,bus_station,Jalan Panglima,,,Bagan Datuk,,Perak,"36100",Malaysia,MARA Liner,,station,,,
Drop Off,101.5515679,3.2732935,taxi,Lebuhraya Utara–Selatan,,,Kuang,Majlis Perbandaran Selayang,Selangor,"48050",Malaysia,,,,,,
,101.5807099,3.2064031,taxi,Jalan Kuala Selangor,,,,Petaling Jaya,Selangor,"47830",Malaysia,,,,,,
,101.5804472,3.2065957,taxi,Jalan Sungai Buloh - Subang,,,,Petaling Jaya,Selangor,"47830",Malaysia,,,,,,
,101.6388821,3.2140336,taxi,Jalan Kepong,,,Kepong,,Kuala Lumpur,"52100",Malaysia,,,,,,
,101.6715856,3.083798,taxi,Jalan Awan Mendung,Taman OUG,,,Kuala Lumpur,Kuala Lumpur,"58200",Malaysia,,,,,,
Kolej Profesional MARA,104.2200476,1.5649736,bus_station,Jalan Ungku Abdul Aziz,,,Bandar Penawar,,Johor,"81930",Malaysia,,,,,,
Kolej Komuniti Bandar Penawar,104.2197794,1.5633917,bus_station,Jalan Ungku Abdul Aziz,,,Bandar Penawar,,Johor,"81930",Malaysia,,,,,,
Terminal Bas & Teksi Bandar Penawar,104.2284563,1.5547045,bus_station,Jalan Dato' Haji Hasan Yunus 1,,,Bandar Penawar,,Johor,"81930",Malaysia,,,,,,
Terminal Sungai Rengit,104.222074,1.3498363,bus_station,Jalan Pasar,,,Sungai Rengit,,Johor,"81620",Malaysia,,,,,,
,101.6137169,3.1593442,taxi,Nucleus Skywalk,Mutiara Damansara,,,Petaling Jaya,Selangor,"47820",Malaysia,,,,,,
,101.7916323,2.9872859,taxi,Jalan Bukit,,,,Majlis Perbandaran Kajang,Selangor,"43000",Malaysia,,,,,,
Hentian Ukay Perdana,101.7781033,3.2121186,bus_station,Jalan Ukay Perdana,Ukay Perdana,Ulu Kelang,,Majlis Perbandaran Ampang Jaya,Selangor,"54200",Malaysia,,,station,,,
Kuala Terengganu Support Base (KTSB),103.1533722,5.3354849,ferry_terminal,Jalan Sultan Zainal Abidin,Batu Buruk,,,Kuala Terengganu,Terengganu,"20000",Malaysia,,,station,,,
,101.7090132,3.1490352,taxi,Jalan Nagasari,Bukit Bintang,,,Kuala Lumpur,Kuala Lumpur,"50200",Malaysia,,,,,,
,101.6328772,3.1951659,taxi,Jalan 7A/62A,Bandar Menjalara,,Kepong,,Kuala Lumpur,"52200",Malaysia,,,,,,
,101.6919142,3.1724175,taxi,Jalan Sultan Azlan Shah,Sentul,,,Kuala Lumpur,Kuala Lumpur,"50586",Malaysia,,,,,,
Kuala Lipis,102.0535741,4.1867226,station,Jalan Pekeliling,,,Kuala Lipis,,Pahang,,Malaysia,Keretapi Tanah Melayu,,station,,,KTM Intercity
Padang Tengku,101.9903631,4.2326598,station,"8",,,,,Pahang,"27100",Malaysia,Keretapi Tanah Melayu,,station,,,KTM Intercity
Grab,101.7181605,3.1477795,taxi,Jalan Bukit Bintang,Bukit Bintang,,,Kuala Lumpur,Kuala Lumpur,"55100",Malaysia,,,,,,
,101.7367964,3.1529464,taxi,Jalan 1/76E,Kampung Pandan,,,Kuala Lumpur,Kuala Lumpur,"50600",Malaysia,,,,,,
Kompleks Chai Leng Intercity Bus,100.3938118,5.3815946,bus_station,Lebuhraya Lingkaran Luar Butterworth,Seberang Jaya,,,,Pulau Pinang,"14000",Malaysia,,,station,,,
,101.6815859,2.9060486,taxi,Persiaran Perdana,,,,Putrajaya,Putrajaya,"62100",Malaysia,,,,,,
,101.7248335,3.1264647,taxi,,Maluri,,,Kuala Lumpur,Kuala Lumpur,"50988",Malaysia,,,,,,
,101.6756193,3.0553547,taxi,Jalan Jalil Perkasa 1,Bukit Jalil,,,,Kuala Lumpur,"57000",Malaysia,,,,,,
,103.7624109,1.5451747,taxi,Jalan Sagu 8,,,Tebrau,,Johor,"81100",Malaysia,,,,,,
Pa Lungan Old Airport,115.5290559,3.789056,aerodrome,,,,Bario,,Sarawak,,Malaysia,,,,,,
Temangan,102.1519364,5.7026485,station,D215,,,,,Kelantan,,Malaysia,Keretapi Tanah Melayu,,station,,,KTM Intercity
Terminal Bestari Jaya,101.4100222,3.3773758,bus_station,Jalan Bukit Badong,,,Bestari Jaya,,Selangor,"45600",Malaysia,,KS62,station,,,
,101.4098945,3.3774005,taxi,Jalan Bukit Badong,,,Bestari Jaya,,Selangor,"45600",Malaysia,,,,,,
Hentian Teksi (Kereta Sewa) Bandar Diraja Arau,100.2695004,6.4302309,taxi,Jalan Tuanku Syed Sirajuddin,,,Arau,,Perlis,"02800",Malaysia,"Persatuan Usahawan Kereta Sewa dan Pelancongan Bersatu Cemerlang Arau, Perlis (PERUSPER)",,,,,
Terminal Bas Daerah Beaufort,115.7457552,5.3463845,bus_station,Jalan Datuk Lo Chung,Beaufort Jaya,,Beaufort,,Sabah,"89808",Malaysia,,,station,,,
Machang,102.2151502,5.764041,bus_station,Jalan Pasir Puteh,,,Machang,,Kelantan,"18500",Malaysia,,,,,,
,101.6553205,3.1158648,taxi,Persiaran Gagasan,Bangsar,,,Kuala Lumpur,Kuala Lumpur,"50603",Malaysia,,,,,,
Membakut,115.7967191,5.4727192,station,Jalan Membakut Lama,,,Membakut,,Sabah,,Malaysia,,,station,,yes,
,101.678249,3.1047442,taxi,Jalan Klang Lama,Taman Desa,,,Kuala Lumpur,Kuala Lumpur,"58000",Malaysia,,,,,,
,101.6985151,3.1458985,taxi,Jalan Tun Tan Siew Sin,Bukit Bintang,,,Kuala Lumpur,Kuala Lumpur,"50000",Malaysia,,,,,,
Bongawan,115.8560705,5.5394069,station,Jalan Bongawan Spur,,,Bongawan,,Sabah,,Malaysia,,,station,,yes,
Kimanis,115.8883036,5.6150677,station,Jalan Pekan Kimanis,,,,,Sabah,,Malaysia,,,station,,yes,
Papar,115.9323045,5.7326155,station,Jalan Takis,,,Papar,,Sabah,"89608",Malaysia,,,station,,yes,
Kawang,116.0188134,5.7723484,station,Jalan S.R.K. Kawang,,,,,Sabah,"89600",Malaysia,,,station,,yes,
,101.6185273,3.1458511,taxi,Persiaran Bandar Utama,Bandar Utama,,,Petaling Jaya,Selangor,"60000",Malaysia,,,,,,
Bunut Susu,102.1743794,6.0945157,station,Jalan Bunut Susu,,,,,Kelantan,"17030",Malaysia,Keretapi Tanah Melayu,,station,,,KTM Intercity
Kampung Kok Pasir,102.2077795,6.1629864,station,Jalan Kok Pasir,,,,,Kelantan,"16040",Malaysia,Keretapi Tanah Melayu,,station,,yes,KTM Intercity
First World Hotel Lobby,101.7949394,3.4249371,taxi,Jalan Ion D'Elemon,,,Genting Highlands,,Pahang,"69000",Malaysia,,,,,,
,101.7922043,3.423361,taxi,Genting Grand,,,,,Selangor,"69000",Malaysia,,,,,,
,101.7914713,3.4236259,taxi,Genting Grand,,,,,Selangor,"69000",Malaysia,,,,,,
,101.7924895,3.4221959,taxi,Resort Hotel,,,Genting Highlands,,Pahang,"69000",Malaysia,,,,,,
Tawau Ferry Terminal,117.8847351,4.2418608,ferry_terminal,Lorong Pasar Raya,,,,Tawau,Sabah,"91007",Malaysia,,,station,,,
,117.8837125,4.2451353,taxi,Jalan Wing Lok,,,,Tawau,Sabah,"91007",Malaysia,,,,,,
,117.8854319,4.2447985,taxi,Jalan Dominic,,,,Tawau,Sabah,"91007",Malaysia,,,,,,
Watertaxi - Taman Botani (01),101.6926966,2.9440742,ferry_terminal,Lebuh Perdana Barat,,,,Putrajaya,Putrajaya,"62514",Malaysia,,,station,,,
Terminal Bas Sri Indah,118.0076054,4.2647083,bus_station,A5,,,,Tawau,Sabah,,Malaysia,,,station,,,
Batu Caves,101.6822452,3.2358905,taxi,Jalan Batu Caves,,,Batu Caves,Majlis Perbandaran Selayang,Selangor,"68100",Malaysia,,,,,,
Terminal Semporna Tawau,118.6108675,4.4787074,bus_station,Jalan Balung - Semporna,,,Semporna,,Sabah,"91300",Malaysia,Persatuan Pengusaha Bas Bumiputera Semporna,,station,,,
Terminal Feri Kudat,116.8466386,6.8795171,ferry_terminal,Jalan Hoi,,Kudat,,,Sabah,"89058",Malaysia,,,station,,,
Bintangor,111.6367614,2.1715893,bus_station,Jalan Maju,,,Bintangor,,Sarawak,"96500",Malaysia,Borneo Amalgamated Transport Co Bhd,,station,,,Borneo Bus
,102.4216543,3.4495877,taxi,Jalan Semantan 1,,,,Temerloh,Pahang,"28000",Malaysia,,,,,,
,101.1295,5.4303441,taxi,Jalan Tun Saban,,,Gerik,,Perak,"33300",Malaysia,,,,,,
Jeti Awam (Sementara) Sipitang,115.5440098,5.068901,ferry_terminal,Jalan Tanjung Pagar,,,Sipitang,,Sabah,"89850",Malaysia,Jabatan Pelabuhan dan Dermaga Sabah,,station,,,
,102.2502665,2.2203097,taxi,Lingkaran Melaka Sentral,,,,Bandaraya Melaka,Melaka,"75400",Malaysia,,,,,,
,110.4527006,1.46381,bus_station,Jalan Datuk Mohamad Musa,,,,Kota Samarahan,Sarawak,"94300",Malaysia,,,station,,,
marudi taxi station,114.3224966,4.1780074,taxi,jalan kapitan lim ching kiat,,,Marudi,,Sarawak,,Malaysia,,,,,,
Blok C,101.6391299,3.1124036,taxi,Jalan Kemajuan,,,,Petaling Jaya,Selangor,"46200",Malaysia,,,,,,
Blok A,101.6385322,3.1117275,taxi,Jalan Kemajuan,,,,Petaling Jaya,Selangor,"46200",Malaysia,,,,,,
,117.8864851,4.2454619,taxi,Jalan Klinik,,,,Tawau,Sabah,"91007",Malaysia,,,,,,
Stesen Operasi Bekok,103.1684331,2.2162867,halt,Jalan Bekok - Paloh,,,,,Johor,,Malaysia,KTM,,station,,,
,103.3298153,1.9850882,halt,Jalan Kluang-Renggam,,,Renggam,,Johor,,Malaysia,,,station,,,
,110.3425743,1.5585061,taxi,Jalan Khoo Hun Yeang,,,,Kuching,Sarawak,"93000",Malaysia,,,,,,
C,101.6365694,3.1163211,taxi,Jalan 13/6,,,,Petaling Jaya,Selangor,"46200",Malaysia,,,,,,
B,101.6369308,3.1175525,taxi,Jalan 13/6,,,,Petaling Jaya,Selangor,"46200",Malaysia,,,,,,
E,101.6375344,3.1170021,taxi,Jalan 13/6,,,,Petaling Jaya,Selangor,"46200",Malaysia,,,,,,
,101.5939611,3.1318724,taxi,Persiaran Tropicana,,,,Petaling Jaya,Selangor,"47410",Malaysia,,,,,,
,101.7150757,3.1284023,subway_entrance,Jalan Metro Pudu 1,Pudu,,,Kuala Lumpur,Kuala Lumpur,"55720",Malaysia,,,,,,
Terminal Bas Benut,103.2596098,1.6387447,bus_station,Jalan Jaafar,,,Benut,,Johor,,Malaysia,,,station,,,
,100.9816777,3.7681037,taxi,Jalan Mohd,,,Sabak Bernam,,Selangor,"45200",Malaysia,,,,,,
,101.9959554,2.6603535,taxi,Jalan Sungai Gadut - Rantau,Sungai Gadut,,,Seremban,Negeri Sembilan,"71450",Malaysia,,,,,,
,101.9718011,2.6899453,taxi,Lorong Bukit Emas 12-1,Senawang,,,Seremban,Negeri Sembilan,"70990",Malaysia,,,,,,
,101.7179091,3.1211078,subway_entrance,Jalan 1/93,Cheras,,,,Kuala Lumpur,"55200",Malaysia,,,,,,
Taxi Stand (TRX),101.7198021,3.1425469,taxi,MRT Plaza (TRX Link),Pudu,,,Kuala Lumpur,Kuala Lumpur,"55188",Malaysia,,,,,,
,101.7063302,3.1680047,taxi,Jalan Raja Muda Abdul Aziz,,,,Kuala Lumpur,Kuala Lumpur,"50572",Malaysia,,,,,,
,113.8471269,4.057277,ferry_terminal,Jalan Dahlia,,,Bekenu,,Sarawak,"98150",Malaysia,,,station,,,
,101.7109255,3.0767924,subway_entrance,Jalan 17/141,,,,,Kuala Lumpur,"57100",Malaysia,,,,,,
,101.7115676,3.0758967,subway_entrance,Jalan Lingkaran Tengah 2,Sungai Besi,,,,Kuala Lumpur,"57100",Malaysia,,,,,,
,101.7577259,3.0485313,taxi,Jalan Suakasih,Cheras,,,Majlis Perbandaran Kajang,Selangor,"43200",Malaysia,,,,,,
Lata Berkoh,102.386755,4.4362769,ferry_terminal,Rentis Gunung Tahan,,,,,Pahang,,Malaysia,,,,,,
Jeti Kuala Terenggan,102.4409912,4.4315955,ferry_terminal,Kuala Tahan - Kuala Terenggan Lodge,,,,,Pahang,,Malaysia,,,,,,
,102.4341254,4.4089389,ferry_terminal,Kuala Tahan - Kuala Terenggan Lodge,,,,,Pahang,,Malaysia,,,,,,
Jeti Resort Tasik Raban,100.9470848,5.0009391,ferry_terminal,Seri Raban 8,,,,,Perak,"33030",Malaysia,,,,,,
Jeti Dataran Tasik Raban,100.9460408,5.0020038,ferry_terminal,Seri Raban 8,,,,,Perak,"33030",Malaysia,,,,,,
,100.9865662,5.0062874,ferry_terminal,A343,,,,,Perak,"33030",Malaysia,,,,,,
,101.7031283,3.1784308,taxi,Jalan Kuantan,Sentul,,,Kuala Lumpur,Kuala Lumpur,"50586",Malaysia,,,,,,
,101.6975946,3.1506046,taxi,Jalan Ampang,Bukit Bintang,,,Kuala Lumpur,Kuala Lumpur,"50100",Malaysia,,,,,,
,101.6968739,3.1497514,taxi,Jalan Melaka,Bukit Bintang,,,Kuala Lumpur,Kuala Lumpur,"50050",Malaysia,,,,,,
,99.6613136,6.3856576,station,Langkawi Sky Bridge,,,,,Kedah,,Malaysia,,,,,,
,101.7271448,3.1233811,subway_entrance,Jalan Galian,Cheras,,,Kuala Lumpur,Kuala Lumpur,"51500",Malaysia,,,,,,
,101.7030245,3.1695568,taxi,Jalan Doktor Latiff,Sentul,,,Kuala Lumpur,Kuala Lumpur,"50586",Malaysia,,,,,,
,101.738876,3.1303435,subway_entrance,Lebuhraya Sungai Besi (Hubungan Pandan Indah),Pandan Indah,Ampang,,Majlis Perbandaran Ampang Jaya,Selangor,"51500",Malaysia,,,,,,
Pengakalan Teksi,101.8557997,3.7965753,taxi,Jalan Perdagangan 4,,,Raub,,Pahang,,Malaysia,,,,,,
Biaramas Express,110.3362338,1.5137581,bus_station,Jalan Datuk Tawi Sli,,,,Kuching,Sarawak,"93000",Malaysia,,,station,,,
,101.7148241,3.1608265,taxi,Persiaran Hampshire,Kampung Datuk Keramat,,,Kuala Lumpur,Kuala Lumpur,"50400",Malaysia,,,,,,
,114.0314904,4.4125352,ferry_terminal,Jalan Permyjaya By Pass,,,,Miri,Sarawak,"98000",Malaysia,,,,,,
,114.0203096,4.4112402,ferry_terminal,Jalan Miri By Pass,,,,,Sarawak,"98000",Malaysia,,,,,,
Keretapi Tanjung Aru,116.0602831,5.9474499,station,Jalan Aeropod,,,,Kota Kinabalu,Sabah,"88200",Malaysia,,,station,,,
,100.7457598,5.8177049,bus_station,Jalan Derdap 1,,,Sik,,Kedah,"08200",Malaysia,,,station,,,
Bertam Baru,102.0454822,5.1438718,station,D233,,,,,Kelantan,,Malaysia,Keretapi Tanah Melayu,,station,,,KTM Intercity
,114.994507,4.7799546,pier,Jambatan Seberang Kedai,,,,,Sarawak,"98709",Malaysia,,,,,,
,101.7126176,3.089771,subway_entrance,Lebuhraya Salak,Bandar Sri Permaisuri,,,,Kuala Lumpur,"51020",Malaysia,,,,,,
,101.7126505,3.0892542,taxi,Lebuhraya Salak,Bandar Sri Permaisuri,,,,Kuala Lumpur,"51020",Malaysia,,,,,,
Old Bus Stand,102.9331535,1.8544923,bus_station,Jalan Omar,,,,Batu Pahat,Johor,"83000",Malaysia,,,station,,,
,101.6712778,3.0622304,subway_entrance,Jalan 4/155,Taman OUG,,,,Kuala Lumpur,"57000",Malaysia,,,,,,
Perhentian Bas Serdang,100.6119361,5.2113439,bus_station,Jalan Kuala Ketil – Merbau Pulas – Lunas – Bandar Baharu,,,Serdang,,Kedah,"09800",Malaysia,Majlis Daerah Bandar Baharu,,station,,,
Teksi Pusat Bandar Ayer Hitam,103.1826295,1.9200619,taxi,Jalan Bandar Baru 5,,,Ayer Hitam,,Johor,"86100",Malaysia,,,,,,
Teksi Mersing,103.8326561,2.4309222,taxi,Jalan Jeti,,,Mersing,,Johor,"86800",Malaysia,,,,,,
Watertaxi - Cruise Tasik (03),101.6903059,2.9336099,ferry_terminal,Persiaran Perdana,,,,Putrajaya,Putrajaya,"62675",Malaysia,,,station,,,
Watertaxi - Zenith Hotel (04),101.6868307,2.9301438,ferry_terminal,Jalan P2 A,,,,Putrajaya,Putrajaya,"62592",Malaysia,,,station,,,
Watertaxi - Anjung Floria (07),101.6773869,2.9130559,ferry_terminal,Jambatan Seri Saujana,,,,Putrajaya,Putrajaya,"62100",Malaysia,,,station,,,
,100.916953,5.6740419,taxi,Lorong Syed Sheh 1,,,Baling,,Kedah,"09100",Malaysia,,,,,,
Watertaxi - Jakim (06),101.6803971,2.9179339,ferry_terminal,Jalan P3H,,,,Putrajaya,Putrajaya,"62618",Malaysia,,,station,,,
,101.6824785,2.9227186,ferry_terminal,Jalan Tunku Abdul Rahman,,,,Putrajaya,Putrajaya,"62618",Malaysia,,,,,,
Watertaxi - Kelab Tasik (02),101.6885719,2.9405214,ferry_terminal,Lebuh Perdana Barat,,,,Putrajaya,Putrajaya,"62250",Malaysia,,,station,,,
,101.7100461,3.146085,subway_entrance,Jalan Bukit Bintang,Bukit Bintang,,,Kuala Lumpur,Kuala Lumpur,"55100",Malaysia,,A,,,,
E,101.7116088,3.1470428,subway_entrance,Jalan Bukit Bintang,Bukit Bintang,,,Kuala Lumpur,Kuala Lumpur,"55100",Malaysia,,E,,,no,
,116.072783,5.9835834,ferry_terminal,Jalan Tun Fuad Stephens,,,,Kota Kinabalu,Sabah,"88675",Malaysia,,,,,,
,101.3612822,2.9074435,ferry_terminal,Lengkungan Ikan Yu,,,,Bandaraya Klang,Selangor,,Malaysia,,,station,,,
,101.6882931,3.1038856,taxi,Jalan Desa Bakti,Taman Desa,,,,Kuala Lumpur,"58100",Malaysia,,,,,,
IPD Pantai,101.6673175,3.117186,taxi,Lengkok Pantai Baharu 3,,,,Kuala Lumpur,Kuala Lumpur,"50614",Malaysia,,KL1191,platform,,,
,101.7165475,3.1621944,taxi,Jalan Mayang Sari,Kampung Datuk Keramat,,,Kuala Lumpur,Kuala Lumpur,"50450",Malaysia,,,,,,
,101.7220949,3.1554098,taxi,Jalan Tun Razak,Kampung Datuk Keramat,,,Kuala Lumpur,Kuala Lumpur,"50450",Malaysia,,,,,,
,100.2749703,5.400815,bus_station,Jalan Balik Pulau,Mukim 16,,,George Town,Pulau Pinang,"11060",Malaysia,,,,,,
Terminal Bidor Sentral,101.2795984,4.1312135,bus_station,Jalan Serentang 11,,,Bidor,,Perak,"35500",Malaysia,Perak Transit Berhad,,station,,,
,101.6228263,3.104716,subway_entrance,Jalan 20/17,,,,Petaling Jaya,Selangor,"46300",Malaysia,,,,,,
Grab C,101.7059841,3.1404443,taxi,Jalan Hang Tuah,Bukit Bintang,,,Kuala Lumpur,Kuala Lumpur,"55200",Malaysia,,C,,,,
,101.7228758,3.095537,taxi,Jalan Yaacob Latif,Cheras,,,Kuala Lumpur,Kuala Lumpur,"51020",Malaysia,,,,,,
,101.7195366,3.084579,taxi,Jalan Ikhlas,Cheras,,,Kuala Lumpur,Kuala Lumpur,"51020",Malaysia,,,,,,
,101.713736,3.1632542,taxi,Lorong Yap Kwan Seng,Kampung Datuk Keramat,,,Kuala Lumpur,Kuala Lumpur,"50400",Malaysia,,,,,,
,102.2389159,6.1272148,taxi,Jalan Suara Muda,,,,Kota Bharu,Kelantan,"15000",Malaysia,,,,,,
,101.5753242,2.996321,taxi,Persiaran Putra Indah,Putra Heights,,,Majlis Bandaraya Subang Jaya,Selangor,"47650",Malaysia,,,,,,
,101.6895755,3.1638553,taxi,Jalan Tun Ismail,,,,Kuala Lumpur,Kuala Lumpur,"50350",Malaysia,,,,,,
,101.7215581,3.2196763,subway_entrance,Persiaran Pertahanan,,,,Kuala Lumpur,Kuala Lumpur,"53100",Malaysia,,,,,,
,101.6654544,2.9394486,taxi,Persiaran APEC,,,Cyberjaya,Sepang,Selangor,"61250",Malaysia,,,,,,
Kampung Machang,102.1537741,6.064611,station,Jalan Padang To' La,,,Pasir Mas,,Kelantan,"17000",Malaysia,Keretapi Tanah Melayu,,station,,,KTM Intercity
Kampung (Slow) Machang,102.1538102,6.0645884,station,Jalan Padang To' La,,,Pasir Mas,,Kelantan,"17000",Malaysia,Keretapi Tanah Melayu,,station,,,KTM Intercity
Chicha Tinggi,102.1420175,5.9963242,station,D187,,,,,Kelantan,"17000",Malaysia,Keretapi Tanah Melayu,,station,,,KTM Intercity
To' Uban,102.1439834,5.9657989,station,Jalan Kampung Sila,,,,,Kelantan,"17040",Malaysia,Keretapi Tanah Melayu,,station,,,KTM Intercity
Sungai Keladi,102.1563219,5.9176152,station,Jalan Pasir Mas - Tanah Merah,,,,,Kelantan,"17060",Malaysia,Keretapi Tanah Melayu,,station,,,KTM Intercity
Kuala Krai,102.2030684,5.52993,station,Jalan Kota Bharu – Gua Musang,,,Kuala Krai,,Kelantan,,Malaysia,Keretapi Tanah Melayu,,station,,yes,KTM Intercity
Manek Urai,102.2321226,5.3912682,station,Jalan Kota Bharu – Gua Musang,,,,,Kelantan,,Malaysia,Keretapi Tanah Melayu,,station,,,KTM Intercity
Limau Kasturi,102.0693252,5.0791353,station,D237,,,,,Kelantan,,Malaysia,Keretapi Tanah Melayu,,station,,,KTM Intercity
Sungai Koyan,102.015573,4.9870609,station,D29,,,,,Kelantan,,Malaysia,Keretapi Tanah Melayu,,station,,,KTM Intercity
Gua Musang,101.9667365,4.8789124,station,Jalan Kota Bharu – Gua Musang,,,Gua Musang,,Kelantan,"18300",Malaysia,Keretapi Tanah Melayu,,station,,yes,KTM Intercity
Chin Teck (振德),102.0010934,4.8359872,halt,Jalan Industri,,,,,Kelantan,"18300",Malaysia,Keretapi Tanah Melayu,,halt,,,KTM Intercity
Kampung Berkam,101.9221243,4.2934499,station,"235",,,,,Pahang,"27650",Malaysia,,,station,,yes,
Kampung Berkam,101.9220963,4.293461,station,"235",,,,,Pahang,"27650",Malaysia,Keretapi Tanah Melayu,,station,,,KTM Intercity
Bukit Betong,101.9252709,4.257805,station,"235",,,,,Pahang,"27650",Malaysia,Keretapi Tanah Melayu,,station,,,KTM Intercity
Dura,101.9176381,4.3344149,station,Jalan Central Spine,,,,,Pahang,,Malaysia,Keretapi Tanah Melayu,,station,,,KTM Intercity
Telang,101.9518083,4.2486596,station,"8",,,,,Pahang,"27200",Malaysia,Keretapi Tanah Melayu,,station,,,KTM Intercity
Chegar Perah,101.9316758,4.4220317,station,Jalan Central Spine,,,,,Pahang,,Malaysia,Keretapi Tanah Melayu,,station,train,yes,KTM Intercity
Kuala Tembeling,102.3099663,4.0554115,halt,"234",,,,,Pahang,"27010",Malaysia,Keretapi Tanah Melayu,,halt,,,KTM Intercity
Sungai Lik,102.215682,4.0863215,halt,C160,,,,,Pahang,,Malaysia,Keretapi Tanah Melayu,,halt,,,KTM Intercity
Jenderak,102.3592797,3.8071139,station,Jalan Batu 100,,,,,Pahang,,Malaysia,Keretapi Tanah Melayu,,station,,,KTM Intercity
Jeransang,102.3628305,3.8596605,halt,Jalan Jeransang,,,,,Pahang,,Malaysia,Keretapi Tanah Melayu,,halt,,,KTM Intercity
Mengkuang,102.3975151,3.1888926,halt,Jalan Temerloh - Kemayan,,,,,Pahang,"28740",Malaysia,Keretapi Tanah Melayu,,halt,,,KTM Intercity
Rompin,102.5051411,2.7054195,halt,"10",,,,,Negeri Sembilan,"73500",Malaysia,Keretapi Tanah Melayu,,halt,,,KTM Intercity
Aur Gading,101.9215688,4.3583831,station,Jalan Central Spine,,,,,Pahang,,Malaysia,Keretapi Tanah Melayu,,station,,,KTM Intercity
,101.6718087,2.9318589,taxi,Jalan P7 B,,,,Putrajaya,Putrajaya,"62250",Malaysia,,,,,,
Batu Sembilan,102.1652946,4.1744164,halt,"234",,,,,Pahang,,Malaysia,Keretapi Tanah Melayu,,halt,,,KTM Intercity
,101.2878944,4.1109641,taxi,Jalan Perhentian Teksi,,,Bidor,,Perak,"35500",Malaysia,,,,,,
Terminal Bas KLIA T2 (Door 2 Level 1),101.6847142,2.7452666,bus_station,Ketibaan,,,,Sepang,Selangor,"64000",Malaysia,"Airport Liner;Jetbus;Aero Bus;SkyBus;Transnasional",,station,,yes,
,101.7101855,3.0763605,taxi,Jalan 17/141,,,,,Kuala Lumpur,"57100",Malaysia,,,,,,
,101.7082671,3.1585038,taxi,Jalan Ampang,,,,Kuala Lumpur,Kuala Lumpur,"50250",Malaysia,,,,,,
Lekir Bulk Terminal,100.6394717,4.1692067,ferry_terminal,Persiaran Arang Batu,,,Seri Manjung,,Perak,"32040",Malaysia,,,station,,,
KLIA Terminal 2 - e-hailing (Door 5 Level 1),101.684445,2.7444547,taxi,"Bas, Teksi, Motorsikal & E-hailing",,,,Sepang,Selangor,"64000",Malaysia,,,,,,
Upper Tunnel Station,100.2697897,5.4230062,station,Upper Tunnel Road West,,,,George Town,Pulau Pinang,"11300",Malaysia,,,platform,,,
Lower Tunnel Station,100.2702575,5.4221697,halt,Lower Tunnel Road,,,,George Town,Pulau Pinang,"11300",Malaysia,,,platform,,,
Gate A,101.587044,3.0845485,subway_entrance,Lorong Motosikal Lebuhraya Persekutuan,,,,Majlis Bandaraya Subang Jaya,Selangor,"47500",Malaysia,,,,,,
Sijangkang Bas Station,101.4450792,2.932989,bus_station,Jalan Melati,Sijangkang,,Teluk Panglima Garang,,Selangor,,Malaysia,,,station,,,
,118.2252409,5.4886741,pier,Jalan Sukau Bilit,,,,,Sabah,,Malaysia,,,,,,
Bebuling STOLPort,111.5008528,1.4663345,aerodrome,Jalan Lapangan Terbang Bebuling,,,,,Sarawak,,Malaysia,,,,,,
Lintang Jalong Omnibus,101.0726768,4.8203871,bus_station,Jalan Damai,,,Sungai Siput,,Perak,"31100",Malaysia,Lintang Jalong Omnibus Company Sdn. Bhd.,,station,,,
,101.0726513,4.8192544,taxi,Jalan Ho Sang,,,Sungai Siput,,Perak,"31100",Malaysia,,,,,,
